{"type": "FeatureCollection", "features": [{"type": "Feature", "properties": {"name": "四日市JCT", "kind": "JCT"}, "geometry": {"type": "Point", "coordinates": [136.627749875, 35.0401211]}}, {"type": "Feature", "properties": {"name": "みえ朝日IC", "kind": "IC"}, "geometry": {"type": "Point", "coordinates": [136.6439612, 35.0324834]}}, {"type": "Feature", "properties": {"name": "豊明IC", "kind": "IC"}, "geometry": {"type": "Point", "coordinates": [137.002181, 35.04080265]}}, {"type": "Feature", "properties": {"name": "刈谷PA/スマートIC", "kind": "SIC"}, "geometry": {"type": "Point", "coordinates": [137.04814414999998, 35.038596150000004]}}, {"type": "Feature", "properties": {"name": "豊田JCT", "kind": "JCT"}, "geometry": {"type": "Point", "coordinates": [137.146760325, 35.021351575]}}, {"type": "Feature", "properties": {"name": "飛島JCT", "kind": "JCT"}, "geometry": {"type": "Point", "coordinates": [136.81952486666665, 35.05312466666667]}}, {"type": "Feature", "properties": {"name": "湾岸弥富IC", "kind": "IC"}, "geometry": {"type": "Point", "coordinates": [136.7866072, 35.0501869]}}, {"type": "Feature", "properties": {"name": "湾岸長島IC/PA", "kind": "IC"}, "geometry": {"type": "Point", "coordinates": [136.73103525, 35.0342445]}}, {"type": "Feature", "properties": {"name": "豊田南IC", "kind": "IC"}, "geometry": {"type": "Point", "coordinates": [137.07367525, 35.021596900000006]}}, {"type": "Feature", "properties": {"name": "大府IC", "kind": "IC"}, "geometry": {"type": "Point", "coordinates": [136.92991884999998, 35.04663945]}}, {"type": "Feature", "properties": {"name": "湾岸桑名IC", "kind": "IC"}, "geometry": {"type": "Point", "coordinates": [136.7063695, 35.024920550000004]}}, {"type": "Feature", "properties": {"name": "豊田東IC", "kind": "IC"}, "geometry": {"type": "Point", "coordinates": [137.16288444999998, 35.03241235]}}, {"type": "Feature", "properties": {"name": "豊田東JCT", "kind": "JCT"}, "geometry": {"type": "Point", "coordinates": [137.1919998333333, 35.04500733333333]}}, {"type": "Feature", "properties": {"name": "飛島IC", "kind": "IC"}, "geometry": {"type": "Point", "coordinates": [136.81608015, 35.05174315]}}, {"type": "Feature", "properties": {"name": "弥富木曽岬IC", "kind": "IC"}, "geometry": {"type": "Point", "coordinates": [136.7535323, 35.043764]}}, {"type": "Feature", "properties": {"name": "東海IC", "kind": "IC"}, "geometry": {"type": "Point", "coordinates": [136.89934957499997, 35.0494609]}}, {"type": "Feature", "properties": {"name": "東海JCT", "kind": "JCT"}, "geometry": {"type": "Point", "coordinates": [136.89948900000002, 35.05054405]}}, {"type": "Feature", "properties": {"name": "みえ川越IC", "kind": "IC"}, "geometry": {"type": "Point", "coordinates": [136.68741755000002, 35.02180945]}}, {"type": "Feature", "properties": {"name": "刈谷PA", "kind": "PA"}, "geometry": {"type": "Point", "coordinates": [137.0486348, 35.0387213]}}]}