{"type": "FeatureCollection", "features": [{"type": "Feature", "properties": {"name": "木更津JCT", "kind": "JCT"}, "geometry": {"type": "Point", "coordinates": [139.98042268, 35.37529526]}}, {"type": "Feature", "properties": {"name": "木更津北ＩＣ", "kind": "OTHER"}, "geometry": {"type": "Point", "coordinates": [139.99701040000002, 35.385871800000004]}}, {"type": "Feature", "properties": {"name": "木更津南ＪＣＴ", "kind": "OTHER"}, "geometry": {"type": "Point", "coordinates": [139.946948175, 35.353870775000004]}}, {"type": "Feature", "properties": {"name": "富津中央ＩＣ", "kind": "OTHER"}, "geometry": {"type": "Point", "coordinates": [139.8907304, 35.2480477]}}, {"type": "Feature", "properties": {"name": "木更津南ＩＣ", "kind": "OTHER"}, "geometry": {"type": "Point", "coordinates": [139.9238022, 35.3501485]}}, {"type": "Feature", "properties": {"name": "富津竹岡IC", "kind": "IC"}, "geometry": {"type": "Point", "coordinates": [139.8595601, 35.1963463]}}, {"type": "Feature", "properties": {"name": "市原ＳＡ", "kind": "OTHER"}, "geometry": {"type": "Point", "coordinates": [140.0852141, 35.45988525]}}, {"type": "Feature", "properties": {"name": "姉崎袖ケ浦ＩＣ", "kind": "OTHER"}, "geometry": {"type": "Point", "coordinates": [140.0427212, 35.42803825]}}, {"type": "Feature", "properties": {"name": "市原ＩＣ", "kind": "OTHER"}, "geometry": {"type": "Point", "coordinates": [140.09283570000002, 35.49566985]}}, {"type": "Feature", "properties": {"name": "君津ＩＣ", "kind": "OTHER"}, "geometry": {"type": "Point", "coordinates": [139.94432895, 35.31897515]}}, {"type": "Feature", "properties": {"name": "君津ＰＡ、スマートIC", "kind": "SIC"}, "geometry": {"type": "Point", "coordinates": [139.92659425, 35.28361769999999]}}, {"type": "Feature", "properties": {"name": "富津中央IC", "kind": "IC"}, "geometry": {"type": "Point", "coordinates": [139.8933795, 35.2550019]}}, {"type": "Feature", "properties": {"name": "市原SA", "kind": "SA"}, "geometry": {"type": "Point", "coordinates": [140.0853204, 35.45970675]}}, {"type": "Feature", "properties": {"name": "君津PA", "kind": "PA"}, "geometry": {"type": "Point", "coordinates": [139.926579, 35.28325955]}}]}