{"type": "FeatureCollection", "features": [{"type": "Feature", "properties": {"name": "守口", "kind": "OTHER"}, "geometry": {"type": "Point", "coordinates": [135.5761467, 34.7556207]}}, {"type": "Feature", "properties": {"name": "東大阪JCT", "kind": "JCT"}, "geometry": {"type": "Point", "coordinates": [135.5965405875, 34.678509412500006]}}, {"type": "Feature", "properties": {"name": "長原IC", "kind": "IC"}, "geometry": {"type": "Point", "coordinates": [135.5749013, 34.5959616]}}, {"type": "Feature", "properties": {"name": "門真IC", "kind": "IC"}, "geometry": {"type": "Point", "coordinates": [135.5824079, 34.7290424]}}, {"type": "Feature", "properties": {"name": "松原JCT", "kind": "JCT"}, "geometry": {"type": "Point", "coordinates": [135.574427075, 34.589977275]}}, {"type": "Feature", "properties": {"name": "門真JCT", "kind": "JCT"}, "geometry": {"type": "Point", "coordinates": [135.58932685000002, 34.71551635]}}, {"type": "Feature", "properties": {"name": "摂津北IC", "kind": "IC"}, "geometry": {"type": "Point", "coordinates": [135.5616103, 34.7819934]}}, {"type": "Feature", "properties": {"name": "東大阪荒本出口", "kind": "OTHER"}, "geometry": {"type": "Point", "coordinates": [135.59806989999998, 34.6781795]}}, {"type": "Feature", "properties": {"name": "摂津南IC", "kind": "IC"}, "geometry": {"type": "Point", "coordinates": [135.5683725, 34.7651845]}}, {"type": "Feature", "properties": {"name": "八尾IC", "kind": "IC"}, "geometry": {"type": "Point", "coordinates": [135.5878663, 34.6340776]}}, {"type": "Feature", "properties": {"name": "東大阪北IC", "kind": "IC"}, "geometry": {"type": "Point", "coordinates": [135.5921409, 34.6994138]}}, {"type": "Feature", "properties": {"name": "東大阪PA", "kind": "PA"}, "geometry": {"type": "Point", "coordinates": [135.5939732, 34.68915415]}}, {"type": "Feature", "properties": {"name": "大東鶴見IC", "kind": "IC"}, "geometry": {"type": "Point", "coordinates": [135.5920497, 34.7066738]}}, {"type": "Feature", "properties": {"name": "守口JCT", "kind": "JCT"}, "geometry": {"type": "Point", "coordinates": [135.5757185, 34.7543211]}}, {"type": "Feature", "properties": {"name": "八尾PA", "kind": "PA"}, "geometry": {"type": "Point", "coordinates": [135.58081285, 34.630128400000004]}}, {"type": "Feature", "properties": {"name": "東大阪南IC", "kind": "IC"}, "geometry": {"type": "Point", "coordinates": [135.5956936, 34.6472739]}}, {"type": "Feature", "properties": {"name": "中環東大阪休憩所 (北行き)", "kind": "OTHER"}, "geometry": {"type": "Point", "coordinates": [135.5925554, 34.6943949]}}, {"type": "Feature", "properties": {"name": "中環東大阪休憩所 (南行き)", "kind": "OTHER"}, "geometry": {"type": "Point", "coordinates": [135.5934699, 34.6910447]}}]}