{"type": "FeatureCollection", "features": [{"type": "Feature", "properties": {"name": "木更津JCT", "kind": "JCT"}, "geometry": {"type": "Point", "coordinates": [139.98042268, 35.37529526]}}, {"type": "Feature", "properties": {"name": "木更津金田IC", "kind": "IC"}, "geometry": {"type": "Point", "coordinates": [139.92354015, 35.4315507]}}, {"type": "Feature", "properties": {"name": "袖ヶ浦IC", "kind": "IC"}, "geometry": {"type": "Point", "coordinates": [139.9561097, 35.4126892]}}, {"type": "Feature", "properties": {"name": "袖ヶ浦", "kind": "OTHER"}, "geometry": {"type": "Point", "coordinates": [139.95554529999998, 35.41205275]}}, {"type": "Feature", "properties": {"name": "海ほたるPA", "kind": "PA"}, "geometry": {"type": "Point", "coordinates": [139.8756406, 35.4635032]}}]}