{"type": "FeatureCollection", "features": [{"type": "Feature", "properties": {"name": "神戸JCT", "kind": "JCT"}, "geometry": {"type": "Point", "coordinates": [135.223420675, 34.848798025]}}, {"type": "Feature", "properties": {"name": "八幡京田辺JCT", "kind": "JCT"}, "geometry": {"type": "Point", "coordinates": [135.7314496, 34.8423431]}}, {"type": "Feature", "properties": {"name": "城陽JCT", "kind": "JCT"}, "geometry": {"type": "Point", "coordinates": [135.7548201, 34.8466426]}}, {"type": "Feature", "properties": {"name": "茨木千提寺IC/PA", "kind": "IC"}, "geometry": {"type": "Point", "coordinates": [135.53154035, 34.88184925]}}, {"type": "Feature", "properties": {"name": "箕面とどろみIC", "kind": "IC"}, "geometry": {"type": "Point", "coordinates": [135.45563245, 34.876338149999995]}}, {"type": "Feature", "properties": {"name": "川西IC", "kind": "IC"}, "geometry": {"type": "Point", "coordinates": [135.39486075000002, 34.88587995]}}, {"type": "Feature", "properties": {"name": "茨木千提寺IC", "kind": "IC"}, "geometry": {"type": "Point", "coordinates": [135.53226895, 34.88232145]}}, {"type": "Feature", "properties": {"name": "宝塚北SA/スマートIC", "kind": "SIC"}, "geometry": {"type": "Point", "coordinates": [135.30367619999998, 34.86549705]}}, {"type": "Feature", "properties": {"name": "茨木千提寺PA", "kind": "PA"}, "geometry": {"type": "Point", "coordinates": [135.5312267, 34.8813945]}}, {"type": "Feature", "properties": {"name": "宝塚北SA", "kind": "SA"}, "geometry": {"type": "Point", "coordinates": [135.303764, 34.8665312]}}, {"type": "Feature", "properties": {"name": "四日市JCT", "kind": "JCT"}, "geometry": {"type": "Point", "coordinates": [136.627749875, 35.0401211]}}, {"type": "Feature", "properties": {"name": "甲南IC/PA", "kind": "IC"}, "geometry": {"type": "Point", "coordinates": [136.15345530000002, 34.9145767]}}, {"type": "Feature", "properties": {"name": "土山SA", "kind": "SA"}, "geometry": {"type": "Point", "coordinates": [136.29186253333333, 34.915897566666665]}}, {"type": "Feature", "properties": {"name": "甲賀土山IC", "kind": "IC"}, "geometry": {"type": "Point", "coordinates": [136.26230594999998, 34.92384665]}}, {"type": "Feature", "properties": {"name": "土山サービスエリア", "kind": "SA"}, "geometry": {"type": "Point", "coordinates": [136.2936184, 34.91451]}}, {"type": "Feature", "properties": {"name": "信楽IC", "kind": "IC"}, "geometry": {"type": "Point", "coordinates": [136.08630440000002, 34.92514905]}}, {"type": "Feature", "properties": {"name": "亀山西JCT", "kind": "JCT"}, "geometry": {"type": "Point", "coordinates": [136.39267945, 34.91547515]}}, {"type": "Feature", "properties": {"name": "新四日市JCT", "kind": "JCT"}, "geometry": {"type": "Point", "coordinates": [136.58453156666667, 35.04919326666666]}}, {"type": "Feature", "properties": {"name": "鈴鹿PA/スマートIC", "kind": "SIC"}, "geometry": {"type": "Point", "coordinates": [136.46363165, 34.9626907]}}, {"type": "Feature", "properties": {"name": "菰野IC", "kind": "IC"}, "geometry": {"type": "Point", "coordinates": [136.4984296, 35.023448450000004]}}, {"type": "Feature", "properties": {"name": "甲南PA", "kind": "PA"}, "geometry": {"type": "Point", "coordinates": [136.15343665, 34.914201]}}, {"type": "Feature", "properties": {"name": "鈴鹿PA", "kind": "PA"}, "geometry": {"type": "Point", "coordinates": [136.465357, 34.9617429]}}]}