{"type": "FeatureCollection", "features": [{"type": "Feature", "properties": {"name": "瀬田西IC", "kind": "IC"}, "geometry": {"type": "Point", "coordinates": [135.90859525, 34.96919585]}}, {"type": "Feature", "properties": {"name": "京都東IC", "kind": "IC"}, "geometry": {"type": "Point", "coordinates": [135.83709055, 34.987536649999996]}}, {"type": "Feature", "properties": {"name": "京都南IC", "kind": "IC"}, "geometry": {"type": "Point", "coordinates": [135.7514866, 34.9560479]}}, {"type": "Feature", "properties": {"name": "桂川PA", "kind": "PA"}, "geometry": {"type": "Point", "coordinates": [135.72144145000001, 34.943570875]}}, {"type": "Feature", "properties": {"name": "吹田JCT", "kind": "JCT"}, "geometry": {"type": "Point", "coordinates": [135.5435532, 34.8077322]}}, {"type": "Feature", "properties": {"name": "吹田SA", "kind": "SA"}, "geometry": {"type": "Point", "coordinates": [135.526619375, 34.7826081]}}, {"type": "Feature", "properties": {"name": "西宮IC", "kind": "IC"}, "geometry": {"type": "Point", "coordinates": [135.354292, 34.727698000000004]}}, {"type": "Feature", "properties": {"name": "高槻JCT", "kind": "JCT"}, "geometry": {"type": "Point", "coordinates": [135.62705025, 34.86508625]}}, {"type": "Feature", "properties": {"name": "栗東湖南IC", "kind": "IC"}, "geometry": {"type": "Point", "coordinates": [136.0169648, 35.0209455]}}, {"type": "Feature", "properties": {"name": "大津IC/SA", "kind": "IC"}, "geometry": {"type": "Point", "coordinates": [135.86931625, 34.99672665]}}, {"type": "Feature", "properties": {"name": "竜王ＩＣ", "kind": "OTHER"}, "geometry": {"type": "Point", "coordinates": [136.10185289999998, 35.05251095]}}, {"type": "Feature", "properties": {"name": "瀬田東JCT", "kind": "JCT"}, "geometry": {"type": "Point", "coordinates": [135.932768, 34.970834]}}, {"type": "Feature", "properties": {"name": "京都南IC第一", "kind": "IC"}, "geometry": {"type": "Point", "coordinates": [135.7425012, 34.9528486]}}, {"type": "Feature", "properties": {"name": "京都南IC第二", "kind": "IC"}, "geometry": {"type": "Point", "coordinates": [135.747142, 34.9545782]}}, {"type": "Feature", "properties": {"name": "茨木IC", "kind": "IC"}, "geometry": {"type": "Point", "coordinates": [135.55889235, 34.82986785]}}, {"type": "Feature", "properties": {"name": "豊中IC", "kind": "IC"}, "geometry": {"type": "Point", "coordinates": [135.4647210166667, 34.75145538333333]}}, {"type": "Feature", "properties": {"name": "尼崎IC", "kind": "IC"}, "geometry": {"type": "Point", "coordinates": [135.4153658, 34.7423089]}}, {"type": "Feature", "properties": {"name": "草津PA", "kind": "PA"}, "geometry": {"type": "Point", "coordinates": [135.945497025, 34.976149625000005]}}, {"type": "Feature", "properties": {"name": "栗東IC", "kind": "IC"}, "geometry": {"type": "Point", "coordinates": [136.0064086, 35.0193863]}}, {"type": "Feature", "properties": {"name": "城南宮北IC", "kind": "IC"}, "geometry": {"type": "Point", "coordinates": [135.7523049, 34.9574963]}}, {"type": "Feature", "properties": {"name": "菩提寺ＰＡ", "kind": "OTHER"}, "geometry": {"type": "Point", "coordinates": [136.0595701, 35.0423935]}}, {"type": "Feature", "properties": {"name": "菩提寺PA", "kind": "PA"}, "geometry": {"type": "Point", "coordinates": [136.05846015, 35.04238305]}}, {"type": "Feature", "properties": {"name": "大津SA", "kind": "SA"}, "geometry": {"type": "Point", "coordinates": [135.86936070000002, 34.99656045]}}, {"type": "Feature", "properties": {"name": "蒲生スマートＩＣ", "kind": "OTHER"}, "geometry": {"type": "Point", "coordinates": [136.1591972, 35.0714689]}}, {"type": "Feature", "properties": {"name": "黒丸ＰＡ", "kind": "OTHER"}, "geometry": {"type": "Point", "coordinates": [136.19327325, 35.0786905]}}, {"type": "Feature", "properties": {"name": "八日市IC", "kind": "IC"}, "geometry": {"type": "Point", "coordinates": [136.221441, 35.0909407]}}, {"type": "Feature", "properties": {"name": "湖東三山PA/SIC", "kind": "SIC"}, "geometry": {"type": "Point", "coordinates": [136.27595309999998, 35.1638193]}}, {"type": "Feature", "properties": {"name": "多賀ＳＡ", "kind": "OTHER"}, "geometry": {"type": "Point", "coordinates": [136.28425520000002, 35.21887235]}}, {"type": "Feature", "properties": {"name": "羽島PA", "kind": "PA"}, "geometry": {"type": "Point", "coordinates": [136.71469785, 35.29974944999999]}}, {"type": "Feature", "properties": {"name": "一宮IC", "kind": "IC"}, "geometry": {"type": "Point", "coordinates": [136.82782236666665, 35.2727011]}}, {"type": "Feature", "properties": {"name": "尾張一宮PA", "kind": "PA"}, "geometry": {"type": "Point", "coordinates": [136.8502156, 35.280009875000005]}}, {"type": "Feature", "properties": {"name": "一宮JCT", "kind": "JCT"}, "geometry": {"type": "Point", "coordinates": [136.78255986666667, 35.2833577]}}, {"type": "Feature", "properties": {"name": "岐阜羽島IC", "kind": "IC"}, "geometry": {"type": "Point", "coordinates": [136.69230955, 35.3072916]}}, {"type": "Feature", "properties": {"name": "伊吹PA", "kind": "PA"}, "geometry": {"type": "Point", "coordinates": [136.39114875, 35.332661474999995]}}, {"type": "Feature", "properties": {"name": "養老SA/スマートIC", "kind": "SIC"}, "geometry": {"type": "Point", "coordinates": [136.54356365, 35.3217358]}}, {"type": "Feature", "properties": {"name": "大垣IC", "kind": "IC"}, "geometry": {"type": "Point", "coordinates": [136.6178805, 35.31638035]}}, {"type": "Feature", "properties": {"name": "米原JCT", "kind": "JCT"}, "geometry": {"type": "Point", "coordinates": [136.32134699999997, 35.31768723333334]}}, {"type": "Feature", "properties": {"name": "関ヶ原IC", "kind": "IC"}, "geometry": {"type": "Point", "coordinates": [136.4734112, 35.353946699999995]}}, {"type": "Feature", "properties": {"name": "彦根IC", "kind": "IC"}, "geometry": {"type": "Point", "coordinates": [136.27957285, 35.259693549999994]}}, {"type": "Feature", "properties": {"name": "八日市ＩＣ", "kind": "OTHER"}, "geometry": {"type": "Point", "coordinates": [136.2304573, 35.0940729]}}, {"type": "Feature", "properties": {"name": "養老JCT", "kind": "JCT"}, "geometry": {"type": "Point", "coordinates": [136.5747978, 35.316717399999995]}}, {"type": "Feature", "properties": {"name": "安八スマートIC", "kind": "SIC"}, "geometry": {"type": "Point", "coordinates": [136.6531836, 35.3115696]}}, {"type": "Feature", "properties": {"name": "小牧IC", "kind": "IC"}, "geometry": {"type": "Point", "coordinates": [136.908416, 35.3030797]}}, {"type": "Feature", "properties": {"name": "養老SA", "kind": "SA"}, "geometry": {"type": "Point", "coordinates": [136.542969, 35.32172275]}}, {"type": "Feature", "properties": {"name": "多賀SA", "kind": "SA"}, "geometry": {"type": "Point", "coordinates": [136.28423025, 35.21879525]}}, {"type": "Feature", "properties": {"name": "黒丸PA", "kind": "PA"}, "geometry": {"type": "Point", "coordinates": [136.1928041, 35.078516300000004]}}, {"type": "Feature", "properties": {"name": "湖東三山PA", "kind": "PA"}, "geometry": {"type": "Point", "coordinates": [136.27536735, 35.1636383]}}]}