{"type": "FeatureCollection", "features": [{"type": "Feature", "properties": {"name": "高崎JCT", "kind": "JCT"}, "geometry": {"type": "Point", "coordinates": [139.0762092, 36.321697433333334]}}, {"type": "Feature", "properties": {"name": "岩舟JCT", "kind": "JCT"}, "geometry": {"type": "Point", "coordinates": [139.6235472333333, 36.349557266666665]}}, {"type": "Feature", "properties": {"name": "栃木都賀JCT", "kind": "JCT"}, "geometry": {"type": "Point", "coordinates": [139.7207122, 36.42515315]}}, {"type": "Feature", "properties": {"name": "太田藪塚IC", "kind": "IC"}, "geometry": {"type": "Point", "coordinates": [139.27734270000002, 36.3468338]}}, {"type": "Feature", "properties": {"name": "波志江PA（西行き）;波志江スマートIC", "kind": "SIC"}, "geometry": {"type": "Point", "coordinates": [139.1929355, 36.3547106]}}, {"type": "Feature", "properties": {"name": "伊勢崎IC", "kind": "IC"}, "geometry": {"type": "Point", "coordinates": [139.21966855, 36.3546616]}}, {"type": "Feature", "properties": {"name": "前橋南IC", "kind": "IC"}, "geometry": {"type": "Point", "coordinates": [139.09916185, 36.333847899999995]}}, {"type": "Feature", "properties": {"name": "都賀IC", "kind": "IC"}, "geometry": {"type": "Point", "coordinates": [139.75681695, 36.4394781]}}, {"type": "Feature", "properties": {"name": "佐野田沼IC", "kind": "IC"}, "geometry": {"type": "Point", "coordinates": [139.56924455, 36.35903245]}}, {"type": "Feature", "properties": {"name": "太田桐生IC", "kind": "IC"}, "geometry": {"type": "Point", "coordinates": [139.3885565, 36.33073735]}}, {"type": "Feature", "properties": {"name": "足利ＩＣ", "kind": "OTHER"}, "geometry": {"type": "Point", "coordinates": [139.4840889, 36.36294185]}}, {"type": "Feature", "properties": {"name": "波志江スマートIC", "kind": "SIC"}, "geometry": {"type": "Point", "coordinates": [139.18925665, 36.35391275]}}, {"type": "Feature", "properties": {"name": "駒形IC", "kind": "IC"}, "geometry": {"type": "Point", "coordinates": [139.14371705000002, 36.347684349999994]}}, {"type": "Feature", "properties": {"name": "波志江PA（東行き）;波志江スマートIC", "kind": "SIC"}, "geometry": {"type": "Point", "coordinates": [139.1857734, 36.3529824]}}, {"type": "Feature", "properties": {"name": "出流原PA/スマートIC（東行き）", "kind": "SIC"}, "geometry": {"type": "Point", "coordinates": [139.5444399, 36.3690158]}}, {"type": "Feature", "properties": {"name": "出流原PA/スマートIC（西行き）", "kind": "SIC"}, "geometry": {"type": "Point", "coordinates": [139.5510113, 36.3659976]}}, {"type": "Feature", "properties": {"name": "太田強戸ＰA ／ スマートＩＣ", "kind": "OTHER"}, "geometry": {"type": "Point", "coordinates": [139.34811035, 36.339077950000004]}}, {"type": "Feature", "properties": {"name": "波志江PA (西行き)", "kind": "PA"}, "geometry": {"type": "Point", "coordinates": [139.1894773, 36.3534928]}}, {"type": "Feature", "properties": {"name": "波志江PA (東行き)", "kind": "PA"}, "geometry": {"type": "Point", "coordinates": [139.1891829, 36.3543803]}}, {"type": "Feature", "properties": {"name": "出流原PA (東行き)", "kind": "PA"}, "geometry": {"type": "Point", "coordinates": [139.5476235, 36.3676918]}}, {"type": "Feature", "properties": {"name": "出流原PA (西行き)", "kind": "PA"}, "geometry": {"type": "Point", "coordinates": [139.5475935, 36.3669212]}}, {"type": "Feature", "properties": {"name": "太田強戸PA", "kind": "PA"}, "geometry": {"type": "Point", "coordinates": [139.3486784, 36.3404568]}}, {"type": "Feature", "properties": {"name": "茨城町JCT", "kind": "JCT"}, "geometry": {"type": "Point", "coordinates": [140.41085646666667, 36.303315366666666]}}, {"type": "Feature", "properties": {"name": "茨城町東IC", "kind": "IC"}, "geometry": {"type": "Point", "coordinates": [140.4577557, 36.315195450000004]}}, {"type": "Feature", "properties": {"name": "友部IC", "kind": "IC"}, "geometry": {"type": "Point", "coordinates": [140.2730994, 36.33982145]}}, {"type": "Feature", "properties": {"name": "笠間PA（西行き）", "kind": "PA"}, "geometry": {"type": "Point", "coordinates": [140.2576539, 36.3434315]}}, {"type": "Feature", "properties": {"name": "笠間PA（東行き）", "kind": "PA"}, "geometry": {"type": "Point", "coordinates": [140.2502707, 36.3434221]}}, {"type": "Feature", "properties": {"name": "友部JCT", "kind": "JCT"}, "geometry": {"type": "Point", "coordinates": [140.35113387500002, 36.3201008]}}, {"type": "Feature", "properties": {"name": "桜川筑西IC", "kind": "IC"}, "geometry": {"type": "Point", "coordinates": [140.08331115, 36.359715300000005]}}, {"type": "Feature", "properties": {"name": "壬生IC", "kind": "IC"}, "geometry": {"type": "Point", "coordinates": [139.82264270000002, 36.4574134]}}, {"type": "Feature", "properties": {"name": "茨城町西IC", "kind": "IC"}, "geometry": {"type": "Point", "coordinates": [140.3863469, 36.3061409]}}, {"type": "Feature", "properties": {"name": "水戸南IC", "kind": "IC"}, "geometry": {"type": "Point", "coordinates": [140.48774120000002, 36.3292175]}}, {"type": "Feature", "properties": {"name": "宇都宮上三川IC", "kind": "IC"}, "geometry": {"type": "Point", "coordinates": [139.90648525, 36.4841222]}}, {"type": "Feature", "properties": {"name": "笠間西IC", "kind": "IC"}, "geometry": {"type": "Point", "coordinates": [140.17465195, 36.34562665]}}, {"type": "Feature", "properties": {"name": "壬生PA（東行き）", "kind": "PA"}, "geometry": {"type": "Point", "coordinates": [139.8016015, 36.4515743]}}, {"type": "Feature", "properties": {"name": "壬生PA（西行き）", "kind": "PA"}, "geometry": {"type": "Point", "coordinates": [139.8087421, 36.4543705]}}, {"type": "Feature", "properties": {"name": "壬生PA", "kind": "PA"}, "geometry": {"type": "Point", "coordinates": [139.8063894, 36.4543137]}}, {"type": "Feature", "properties": {"name": "道の駅みぶ", "kind": "OTHER"}, "geometry": {"type": "Point", "coordinates": [139.8070857, 36.4551384]}}, {"type": "Feature", "properties": {"name": "笠間PA", "kind": "PA"}, "geometry": {"type": "Point", "coordinates": [140.2544383, 36.3445105]}}]}