{"type": "FeatureCollection", "features": [{"type": "Feature", "properties": {"name": "川口JCT", "kind": "JCT"}, "geometry": {"type": "Point", "coordinates": [139.7340803, 35.8529469]}}, {"type": "Feature", "properties": {"name": "久喜白岡JCT", "kind": "JCT"}, "geometry": {"type": "Point", "coordinates": [139.6581503, 36.047675875]}}, {"type": "Feature", "properties": {"name": "久喜IC", "kind": "IC"}, "geometry": {"type": "Point", "coordinates": [139.65343224999998, 36.06050525]}}, {"type": "Feature", "properties": {"name": "大谷PA", "kind": "PA"}, "geometry": {"type": "Point", "coordinates": [139.843188425, 36.59968195]}}, {"type": "Feature", "properties": {"name": "岩舟JCT", "kind": "JCT"}, "geometry": {"type": "Point", "coordinates": [139.6235472333333, 36.349557266666665]}}, {"type": "Feature", "properties": {"name": "栃木都賀JCT", "kind": "JCT"}, "geometry": {"type": "Point", "coordinates": [139.7207122, 36.42515315]}}, {"type": "Feature", "properties": {"name": "鹿沼IC", "kind": "IC"}, "geometry": {"type": "Point", "coordinates": [139.7985418, 36.53931435]}}, {"type": "Feature", "properties": {"name": "浦和IC", "kind": "IC"}, "geometry": {"type": "Point", "coordinates": [139.72455854999998, 35.88746235]}}, {"type": "Feature", "properties": {"name": "都賀西方PA ;都賀西方スマートIC", "kind": "SIC"}, "geometry": {"type": "Point", "coordinates": [139.72473835, 36.455243949999996]}}, {"type": "Feature", "properties": {"name": "館林IC", "kind": "IC"}, "geometry": {"type": "Point", "coordinates": [139.57095815, 36.224955449999996]}}, {"type": "Feature", "properties": {"name": "羽生PA", "kind": "PA"}, "geometry": {"type": "Point", "coordinates": [139.58653450000003, 36.180973875]}}, {"type": "Feature", "properties": {"name": "羽生IC", "kind": "IC"}, "geometry": {"type": "Point", "coordinates": [139.58868775000002, 36.1698066]}}, {"type": "Feature", "properties": {"name": "加須IC", "kind": "IC"}, "geometry": {"type": "Point", "coordinates": [139.62746185, 36.1268133]}}, {"type": "Feature", "properties": {"name": "蓮田SA ;蓮田スマートIC", "kind": "SIC"}, "geometry": {"type": "Point", "coordinates": [139.66481695, 35.988151849999994]}}, {"type": "Feature", "properties": {"name": "佐野SA ;佐野スマートIC", "kind": "SIC"}, "geometry": {"type": "Point", "coordinates": [139.6169855, 36.3211589]}}, {"type": "Feature", "properties": {"name": "岩槻IC", "kind": "IC"}, "geometry": {"type": "Point", "coordinates": [139.6919024, 35.936227200000005]}}, {"type": "Feature", "properties": {"name": "佐野藤岡IC", "kind": "IC"}, "geometry": {"type": "Point", "coordinates": [139.61862835, 36.291762]}}, {"type": "Feature", "properties": {"name": "宇都宮IC", "kind": "IC"}, "geometry": {"type": "Point", "coordinates": [139.8451483, 36.632999266666666]}}, {"type": "Feature", "properties": {"name": "佐野SA :佐野スマートIC", "kind": "SIC"}, "geometry": {"type": "Point", "coordinates": [139.6211436, 36.3137771]}}, {"type": "Feature", "properties": {"name": "栃木IC", "kind": "IC"}, "geometry": {"type": "Point", "coordinates": [139.70776225, 36.402388]}}, {"type": "Feature", "properties": {"name": "蓮田SA", "kind": "SA"}, "geometry": {"type": "Point", "coordinates": [139.66661829999998, 35.98901425]}}, {"type": "Feature", "properties": {"name": "都賀西方PA", "kind": "PA"}, "geometry": {"type": "Point", "coordinates": [139.72482724999998, 36.455246]}}, {"type": "Feature", "properties": {"name": "佐野サービスエリア", "kind": "SA"}, "geometry": {"type": "Point", "coordinates": [139.6188399, 36.3177848]}}, {"type": "Feature", "properties": {"name": "佐野SA", "kind": "SA"}, "geometry": {"type": "Point", "coordinates": [139.61873930000002, 36.3176409]}}, {"type": "Feature", "properties": {"name": "黒磯板室IC;黒磯PA", "kind": "IC"}, "geometry": {"type": "Point", "coordinates": [139.98976195, 36.95889405]}}, {"type": "Feature", "properties": {"name": "那須IC", "kind": "IC"}, "geometry": {"type": "Point", "coordinates": [140.03961855, 37.0053933]}}, {"type": "Feature", "properties": {"name": "白河IC", "kind": "IC"}, "geometry": {"type": "Point", "coordinates": [140.1633425, 37.11715345]}}, {"type": "Feature", "properties": {"name": "白河中央スマートIC", "kind": "SIC"}, "geometry": {"type": "Point", "coordinates": [140.2208476, 37.14667695]}}, {"type": "Feature", "properties": {"name": "安積PA", "kind": "PA"}, "geometry": {"type": "Point", "coordinates": [140.32270317500002, 37.3533221]}}, {"type": "Feature", "properties": {"name": "郡山南IC", "kind": "IC"}, "geometry": {"type": "Point", "coordinates": [140.3113137, 37.36756625]}}, {"type": "Feature", "properties": {"name": "郡山中央スマートIC", "kind": "SIC"}, "geometry": {"type": "Point", "coordinates": [140.31253735, 37.402372299999996]}}, {"type": "Feature", "properties": {"name": "鏡石PA ;鏡石スマートIC", "kind": "SIC"}, "geometry": {"type": "Point", "coordinates": [140.33589890000002, 37.255601600000006]}}, {"type": "Feature", "properties": {"name": "阿武隈PA", "kind": "PA"}, "geometry": {"type": "Point", "coordinates": [140.24232792499998, 37.15088065]}}, {"type": "Feature", "properties": {"name": "西那須野塩原IC", "kind": "IC"}, "geometry": {"type": "Point", "coordinates": [139.94362660000002, 36.9158759]}}, {"type": "Feature", "properties": {"name": "矢板IC", "kind": "IC"}, "geometry": {"type": "Point", "coordinates": [139.93395805, 36.76202605]}}, {"type": "Feature", "properties": {"name": "上河内SA ;上河内スマートIC", "kind": "SIC"}, "geometry": {"type": "Point", "coordinates": [139.89053725000002, 36.690098899999995]}}, {"type": "Feature", "properties": {"name": "郡山IC", "kind": "IC"}, "geometry": {"type": "Point", "coordinates": [140.3443936, 37.434747]}}, {"type": "Feature", "properties": {"name": "那須高原SA ;那須高原スマートIC", "kind": "SIC"}, "geometry": {"type": "Point", "coordinates": [140.10026905, 37.0573612]}}, {"type": "Feature", "properties": {"name": "那須高原スマート", "kind": "OTHER"}, "geometry": {"type": "Point", "coordinates": [140.1012952, 37.0559008]}}, {"type": "Feature", "properties": {"name": "矢板北PA ;矢板北スマートIC", "kind": "SIC"}, "geometry": {"type": "Point", "coordinates": [139.9079837, 36.8224802]}}, {"type": "Feature", "properties": {"name": "鏡石スマート", "kind": "OTHER"}, "geometry": {"type": "Point", "coordinates": [140.3359478, 37.2552137]}}, {"type": "Feature", "properties": {"name": "上河内SA", "kind": "SA"}, "geometry": {"type": "Point", "coordinates": [139.89045145, 36.69007885]}}, {"type": "Feature", "properties": {"name": "那須高原SA", "kind": "SA"}, "geometry": {"type": "Point", "coordinates": [140.1006875, 37.05655195]}}, {"type": "Feature", "properties": {"name": "矢板北PA", "kind": "PA"}, "geometry": {"type": "Point", "coordinates": [139.90831795, 36.82259775]}}, {"type": "Feature", "properties": {"name": "鏡石PA", "kind": "PA"}, "geometry": {"type": "Point", "coordinates": [140.33576929999998, 37.25567445]}}, {"type": "Feature", "properties": {"name": "黒磯PA", "kind": "PA"}, "geometry": {"type": "Point", "coordinates": [139.99031395, 36.959119099999995]}}, {"type": "Feature", "properties": {"name": "本宮IC", "kind": "IC"}, "geometry": {"type": "Point", "coordinates": [140.37744755, 37.4888172]}}, {"type": "Feature", "properties": {"name": "須賀川IC", "kind": "IC"}, "geometry": {"type": "Point", "coordinates": [140.35118275, 37.2896119]}}, {"type": "Feature", "properties": {"name": "福島JCT", "kind": "JCT"}, "geometry": {"type": "Point", "coordinates": [140.416624525, 37.790363174999996]}}, {"type": "Feature", "properties": {"name": "福島飯坂IC", "kind": "IC"}, "geometry": {"type": "Point", "coordinates": [140.45457190000002, 37.80276535]}}, {"type": "Feature", "properties": {"name": "国見IC", "kind": "IC"}, "geometry": {"type": "Point", "coordinates": [140.5308816, 37.87977945]}}, {"type": "Feature", "properties": {"name": "国見SA", "kind": "SA"}, "geometry": {"type": "Point", "coordinates": [140.577958325, 37.907294725]}}, {"type": "Feature", "properties": {"name": "安達太良SA", "kind": "SA"}, "geometry": {"type": "Point", "coordinates": [140.3813927, 37.51569415]}}, {"type": "Feature", "properties": {"name": "二本松IC", "kind": "IC"}, "geometry": {"type": "Point", "coordinates": [140.41780165, 37.591548]}}, {"type": "Feature", "properties": {"name": "福島松川PA ;福島松川スマートIC", "kind": "SIC"}, "geometry": {"type": "Point", "coordinates": [140.44398875000002, 37.66142135]}}, {"type": "Feature", "properties": {"name": "福島西IC", "kind": "IC"}, "geometry": {"type": "Point", "coordinates": [140.42078855, 37.73683225]}}, {"type": "Feature", "properties": {"name": "村田JCT", "kind": "JCT"}, "geometry": {"type": "Point", "coordinates": [140.72211835000002, 38.141270725000005]}}, {"type": "Feature", "properties": {"name": "村田IC", "kind": "IC"}, "geometry": {"type": "Point", "coordinates": [140.71178675, 38.12091265]}}, {"type": "Feature", "properties": {"name": "蔵王PA", "kind": "PA"}, "geometry": {"type": "Point", "coordinates": [140.660816075, 38.069572775000005]}}, {"type": "Feature", "properties": {"name": "吾妻PA", "kind": "PA"}, "geometry": {"type": "Point", "coordinates": [140.40871155, 37.75982145]}}, {"type": "Feature", "properties": {"name": "白石IC", "kind": "IC"}, "geometry": {"type": "Point", "coordinates": [140.6320768, 38.0387717]}}, {"type": "Feature", "properties": {"name": "泉PA ;泉PAスマートIC", "kind": "SIC"}, "geometry": {"type": "Point", "coordinates": [140.8543715, 38.32690925]}}, {"type": "Feature", "properties": {"name": "仙台南IC / JCT", "kind": "JCT"}, "geometry": {"type": "Point", "coordinates": [140.8032005, 38.21508255]}}, {"type": "Feature", "properties": {"name": "菅生PA ;菅生スマートIC", "kind": "SIC"}, "geometry": {"type": "Point", "coordinates": [140.7652647, 38.16820995]}}, {"type": "Feature", "properties": {"name": "桑折JCT", "kind": "JCT"}, "geometry": {"type": "Point", "coordinates": [140.49002603333335, 37.8325489]}}, {"type": "Feature", "properties": {"name": "福島松川PA", "kind": "PA"}, "geometry": {"type": "Point", "coordinates": [140.4438606, 37.661384999999996]}}, {"type": "Feature", "properties": {"name": "泉PA", "kind": "PA"}, "geometry": {"type": "Point", "coordinates": [140.85377445, 38.32668195]}}, {"type": "Feature", "properties": {"name": "菅生PA", "kind": "PA"}, "geometry": {"type": "Point", "coordinates": [140.765665, 38.167819449999996]}}, {"type": "Feature", "properties": {"name": "若柳金成IC", "kind": "IC"}, "geometry": {"type": "Point", "coordinates": [141.0842667, 38.793744000000004]}}, {"type": "Feature", "properties": {"name": "金成PA", "kind": "PA"}, "geometry": {"type": "Point", "coordinates": [141.09590502499998, 38.841626925]}}, {"type": "Feature", "properties": {"name": "泉IC", "kind": "IC"}, "geometry": {"type": "Point", "coordinates": [140.87441080000002, 38.34763855]}}, {"type": "Feature", "properties": {"name": "一関IC", "kind": "IC"}, "geometry": {"type": "Point", "coordinates": [141.10170205, 38.93704055]}}, {"type": "Feature", "properties": {"name": "鶴巣PA", "kind": "PA"}, "geometry": {"type": "Point", "coordinates": [140.91453615, 38.4107616]}}, {"type": "Feature", "properties": {"name": "水沢IC", "kind": "IC"}, "geometry": {"type": "Point", "coordinates": [141.11785485000001, 39.1707515]}}, {"type": "Feature", "properties": {"name": "三本木PA ;三本木スマートIC", "kind": "SIC"}, "geometry": {"type": "Point", "coordinates": [140.93005475, 38.51648365]}}, {"type": "Feature", "properties": {"name": "大衡IC", "kind": "IC"}, "geometry": {"type": "Point", "coordinates": [140.90893949999997, 38.46315695]}}, {"type": "Feature", "properties": {"name": "大和IC", "kind": "IC"}, "geometry": {"type": "Point", "coordinates": [140.91637465000002, 38.435041]}}, {"type": "Feature", "properties": {"name": "築館IC", "kind": "IC"}, "geometry": {"type": "Point", "coordinates": [141.0095264, 38.71063]}}, {"type": "Feature", "properties": {"name": "志波姫PA", "kind": "PA"}, "geometry": {"type": "Point", "coordinates": [141.0466932, 38.747523175]}}, {"type": "Feature", "properties": {"name": "平泉前沢IC", "kind": "IC"}, "geometry": {"type": "Point", "coordinates": [141.1104547, 39.02203215]}}, {"type": "Feature", "properties": {"name": "中尊寺PA", "kind": "PA"}, "geometry": {"type": "Point", "coordinates": [141.11067305, 38.972295125]}}, {"type": "Feature", "properties": {"name": "古川IC", "kind": "IC"}, "geometry": {"type": "Point", "coordinates": [140.93251585000002, 38.5915737]}}, {"type": "Feature", "properties": {"name": "前沢SA", "kind": "SA"}, "geometry": {"type": "Point", "coordinates": [141.101645675, 39.067744075]}}, {"type": "Feature", "properties": {"name": "長者原SA ;長者原スマートIC", "kind": "SIC"}, "geometry": {"type": "Point", "coordinates": [140.96079305, 38.63719555]}}, {"type": "Feature", "properties": {"name": "奥州スマートIC", "kind": "SIC"}, "geometry": {"type": "Point", "coordinates": [141.11948595, 39.1116113]}}, {"type": "Feature", "properties": {"name": "平泉スマートIC", "kind": "SIC"}, "geometry": {"type": "Point", "coordinates": [141.11137255, 38.9753596]}}, {"type": "Feature", "properties": {"name": "長者原SA", "kind": "SA"}, "geometry": {"type": "Point", "coordinates": [140.96093285, 38.6371521]}}, {"type": "Feature", "properties": {"name": "三本木PA", "kind": "PA"}, "geometry": {"type": "Point", "coordinates": [140.93052825, 38.515591400000005]}}, {"type": "Feature", "properties": {"name": "大衡簡易パーキングエリア", "kind": "PA"}, "geometry": {"type": "Point", "coordinates": [140.9086752, 38.4684048]}}, {"type": "Feature", "properties": {"name": "北上JCT", "kind": "JCT"}, "geometry": {"type": "Point", "coordinates": [141.0761906333333, 39.274381133333335]}}, {"type": "Feature", "properties": {"name": "矢巾PA", "kind": "PA"}, "geometry": {"type": "Point", "coordinates": [141.12975352499998, 39.618639824999995]}}, {"type": "Feature", "properties": {"name": "花巻IC", "kind": "IC"}, "geometry": {"type": "Point", "coordinates": [141.10932960000002, 39.444955199999995]}}, {"type": "Feature", "properties": {"name": "花巻JCT", "kind": "JCT"}, "geometry": {"type": "Point", "coordinates": [141.1034545, 39.420987100000005]}}, {"type": "Feature", "properties": {"name": "北上江釣子IC", "kind": "IC"}, "geometry": {"type": "Point", "coordinates": [141.08735984999998, 39.2980946]}}, {"type": "Feature", "properties": {"name": "盛岡南IC", "kind": "IC"}, "geometry": {"type": "Point", "coordinates": [141.1225778, 39.65190185]}}, {"type": "Feature", "properties": {"name": "滝沢IC", "kind": "IC"}, "geometry": {"type": "Point", "coordinates": [141.11206049999998, 39.797783249999995]}}, {"type": "Feature", "properties": {"name": "松尾八幡平IC", "kind": "IC"}, "geometry": {"type": "Point", "coordinates": [141.0320837, 39.9501481]}}, {"type": "Feature", "properties": {"name": "花巻PA ;花巻PAスマートIC", "kind": "SIC"}, "geometry": {"type": "Point", "coordinates": [141.09226545, 39.369503]}}, {"type": "Feature", "properties": {"name": "花巻南IC", "kind": "IC"}, "geometry": {"type": "Point", "coordinates": [141.09172485, 39.3865049]}}, {"type": "Feature", "properties": {"name": "紫波IC", "kind": "IC"}, "geometry": {"type": "Point", "coordinates": [141.1149624, 39.5558752]}}, {"type": "Feature", "properties": {"name": "前森山PA", "kind": "PA"}, "geometry": {"type": "Point", "coordinates": [141.0255193, 39.970469025]}}, {"type": "Feature", "properties": {"name": "岩手山SA", "kind": "SA"}, "geometry": {"type": "Point", "coordinates": [141.0465307, 39.914547275000004]}}, {"type": "Feature", "properties": {"name": "紫波SA", "kind": "SA"}, "geometry": {"type": "Point", "coordinates": [141.102460775, 39.514933174999996]}}, {"type": "Feature", "properties": {"name": "北上金ヶ崎IC/PA", "kind": "IC"}, "geometry": {"type": "Point", "coordinates": [141.0795333, 39.2403412]}}, {"type": "Feature", "properties": {"name": "盛岡IC", "kind": "IC"}, "geometry": {"type": "Point", "coordinates": [141.09562920000002, 39.711050650000004]}}, {"type": "Feature", "properties": {"name": "花巻PAスマート", "kind": "PA"}, "geometry": {"type": "Point", "coordinates": [141.09237665, 39.36948175]}}, {"type": "Feature", "properties": {"name": "西根IC", "kind": "IC"}, "geometry": {"type": "Point", "coordinates": [141.08956315, 39.883292499999996]}}, {"type": "Feature", "properties": {"name": "滝沢PA", "kind": "PA"}, "geometry": {"type": "Point", "coordinates": [141.1093618, 39.78014785]}}, {"type": "Feature", "properties": {"name": "北上金ヶ崎IC", "kind": "IC"}, "geometry": {"type": "Point", "coordinates": [141.0793461, 39.24033555]}}, {"type": "Feature", "properties": {"name": "滝沢中央スマートIC", "kind": "SIC"}, "geometry": {"type": "Point", "coordinates": [141.09400105, 39.745241449999995]}}, {"type": "Feature", "properties": {"name": "矢巾スマートIC", "kind": "SIC"}, "geometry": {"type": "Point", "coordinates": [141.12997654999998, 39.6185581]}}, {"type": "Feature", "properties": {"name": "花巻PA", "kind": "PA"}, "geometry": {"type": "Point", "coordinates": [141.09236349999998, 39.369378850000004]}}, {"type": "Feature", "properties": {"name": "北上金ヶ崎PA", "kind": "PA"}, "geometry": {"type": "Point", "coordinates": [141.07928095, 39.24106685]}}, {"type": "Feature", "properties": {"name": "畑PA", "kind": "PA"}, "geometry": {"type": "Point", "coordinates": [141.01831655, 40.0579242]}}, {"type": "Feature", "properties": {"name": "青森JCT", "kind": "JCT"}, "geometry": {"type": "Point", "coordinates": [140.6725467, 40.79351]}}, {"type": "Feature", "properties": {"name": "浪岡IC", "kind": "IC"}, "geometry": {"type": "Point", "coordinates": [140.6036484, 40.73946785]}}, {"type": "Feature", "properties": {"name": "高舘PA", "kind": "PA"}, "geometry": {"type": "Point", "coordinates": [140.62395577499998, 40.68321134999999]}}, {"type": "Feature", "properties": {"name": "黒石IC", "kind": "IC"}, "geometry": {"type": "Point", "coordinates": [140.61526895, 40.6210247]}}, {"type": "Feature", "properties": {"name": "大鰐弘前IC", "kind": "IC"}, "geometry": {"type": "Point", "coordinates": [140.5580291, 40.54690785]}}, {"type": "Feature", "properties": {"name": "津軽SA", "kind": "SA"}, "geometry": {"type": "Point", "coordinates": [140.57975374999998, 40.566217525]}}, {"type": "Feature", "properties": {"name": "阿闍羅PA", "kind": "PA"}, "geometry": {"type": "Point", "coordinates": [140.6165658, 40.508325049999996]}}, {"type": "Feature", "properties": {"name": "安代JCT", "kind": "JCT"}, "geometry": {"type": "Point", "coordinates": [141.0588679, 40.1036972]}}, {"type": "Feature", "properties": {"name": "碇ヶ関IC", "kind": "IC"}, "geometry": {"type": "Point", "coordinates": [140.635261, 40.4664724]}}, {"type": "Feature", "properties": {"name": "花輪SA", "kind": "SA"}, "geometry": {"type": "Point", "coordinates": [140.802512, 40.18530605]}}, {"type": "Feature", "properties": {"name": "湯瀬PA", "kind": "PA"}, "geometry": {"type": "Point", "coordinates": [140.83574117499998, 40.1259515]}}, {"type": "Feature", "properties": {"name": "十和田IC", "kind": "IC"}, "geometry": {"type": "Point", "coordinates": [140.76659185, 40.2554148]}}, {"type": "Feature", "properties": {"name": "小坂IC", "kind": "IC"}, "geometry": {"type": "Point", "coordinates": [140.73594780000002, 40.31875475]}}, {"type": "Feature", "properties": {"name": "小坂PA", "kind": "PA"}, "geometry": {"type": "Point", "coordinates": [140.7306731, 40.344797975]}}, {"type": "Feature", "properties": {"name": "安代IC", "kind": "IC"}, "geometry": {"type": "Point", "coordinates": [141.04733835, 40.10916925]}}, {"type": "Feature", "properties": {"name": "青森IC", "kind": "IC"}, "geometry": {"type": "Point", "coordinates": [140.68869583333333, 40.81222173333333]}}, {"type": "Feature", "properties": {"name": "小坂JCT", "kind": "JCT"}, "geometry": {"type": "Point", "coordinates": [140.7137905666667, 40.37173446666667]}}, {"type": "Feature", "properties": {"name": "田山PA", "kind": "PA"}, "geometry": {"type": "Point", "coordinates": [140.961498225, 40.136695275]}}, {"type": "Feature", "properties": {"name": "鹿角八幡平IC", "kind": "IC"}, "geometry": {"type": "Point", "coordinates": [140.8044977, 40.1600524]}}]}