{"type": "FeatureCollection", "features": [{"type": "Feature", "properties": {"name": "中野ＩＣ", "kind": "OTHER"}, "geometry": {"type": "Point", "coordinates": [140.26317535, 35.5715574]}}, {"type": "Feature", "properties": {"name": "高田ＩＣ", "kind": "OTHER"}, "geometry": {"type": "Point", "coordinates": [140.22015025000002, 35.5723356]}}, {"type": "Feature", "properties": {"name": "野呂ＰＡ", "kind": "OTHER"}, "geometry": {"type": "Point", "coordinates": [140.2346405, 35.57001235]}}, {"type": "Feature", "properties": {"name": "千葉東ＩＣ", "kind": "OTHER"}, "geometry": {"type": "Point", "coordinates": [140.1594833, 35.6000483]}}, {"type": "Feature", "properties": {"name": "大宮ＩＣ", "kind": "OTHER"}, "geometry": {"type": "Point", "coordinates": [140.1783282, 35.587215349999994]}}, {"type": "Feature", "properties": {"name": "野呂PA", "kind": "PA"}, "geometry": {"type": "Point", "coordinates": [140.234926, 35.5697191]}}]}