{"type": "FeatureCollection", "features": [{"type": "Feature", "properties": {"name": "川口東", "kind": "OTHER"}, "geometry": {"type": "Point", "coordinates": [139.749237, 35.8521914]}}, {"type": "Feature", "properties": {"name": "川口JCT", "kind": "JCT"}, "geometry": {"type": "Point", "coordinates": [139.7340803, 35.8529469]}}, {"type": "Feature", "properties": {"name": "美女木JCT", "kind": "JCT"}, "geometry": {"type": "Point", "coordinates": [139.6434265, 35.82320335]}}, {"type": "Feature", "properties": {"name": "和光北IC", "kind": "IC"}, "geometry": {"type": "Point", "coordinates": [139.62004814000002, 35.801442019999996]}}, {"type": "Feature", "properties": {"name": "三郷JCT", "kind": "JCT"}, "geometry": {"type": "Point", "coordinates": [139.85881858, 35.83726232]}}, {"type": "Feature", "properties": {"name": "草加", "kind": "OTHER"}, "geometry": {"type": "Point", "coordinates": [139.7823468, 35.8487266]}}, {"type": "Feature", "properties": {"name": "和光IC", "kind": "IC"}, "geometry": {"type": "Point", "coordinates": [139.61340246666666, 35.78744700000001]}}, {"type": "Feature", "properties": {"name": "戸田西", "kind": "OTHER"}, "geometry": {"type": "Point", "coordinates": [139.6341261, 35.8167911]}}, {"type": "Feature", "properties": {"name": "三郷南", "kind": "OTHER"}, "geometry": {"type": "Point", "coordinates": [139.87768125, 35.801652250000004]}}, {"type": "Feature", "properties": {"name": "大泉IC/JCT", "kind": "JCT"}, "geometry": {"type": "Point", "coordinates": [139.5973792, 35.763024533333336]}}, {"type": "Feature", "properties": {"name": "外環三郷西IC", "kind": "IC"}, "geometry": {"type": "Point", "coordinates": [139.85223365000002, 35.8403148]}}, {"type": "Feature", "properties": {"name": "三郷IC東出口", "kind": "IC"}, "geometry": {"type": "Point", "coordinates": [139.8627663, 35.8335891]}}, {"type": "Feature", "properties": {"name": "三郷IC西出口", "kind": "IC"}, "geometry": {"type": "Point", "coordinates": [139.8560758, 35.8388965]}}, {"type": "Feature", "properties": {"name": "京葉JCT", "kind": "JCT"}, "geometry": {"type": "Point", "coordinates": [139.9255957, 35.709234625]}}, {"type": "Feature", "properties": {"name": "三郷IC", "kind": "IC"}, "geometry": {"type": "Point", "coordinates": [139.86062435, 35.83535625]}}, {"type": "Feature", "properties": {"name": "高谷JCT", "kind": "JCT"}, "geometry": {"type": "Point", "coordinates": [139.9465448, 35.6878602]}}, {"type": "Feature", "properties": {"name": "戸田東IC", "kind": "IC"}, "geometry": {"type": "Point", "coordinates": [139.6556778, 35.8299003]}}, {"type": "Feature", "properties": {"name": "外環浦和", "kind": "OTHER"}, "geometry": {"type": "Point", "coordinates": [139.6785444, 35.8389025]}}, {"type": "Feature", "properties": {"name": "川口西", "kind": "OTHER"}, "geometry": {"type": "Point", "coordinates": [139.6930268, 35.8451446]}}, {"type": "Feature", "properties": {"name": "川口中央", "kind": "OTHER"}, "geometry": {"type": "Point", "coordinates": [139.7276293, 35.8523284]}}, {"type": "Feature", "properties": {"name": "三郷中央IC", "kind": "IC"}, "geometry": {"type": "Point", "coordinates": [139.86633719999998, 35.82951665]}}, {"type": "Feature", "properties": {"name": "市川南", "kind": "OTHER"}, "geometry": {"type": "Point", "coordinates": [139.9353236, 35.6990508]}}, {"type": "Feature", "properties": {"name": "市川中央IC", "kind": "IC"}, "geometry": {"type": "Point", "coordinates": [139.91677729999998, 35.721270700000005]}}, {"type": "Feature", "properties": {"name": "松戸IC", "kind": "IC"}, "geometry": {"type": "Point", "coordinates": [139.90202845, 35.76171465]}}, {"type": "Feature", "properties": {"name": "市川北IC", "kind": "IC"}, "geometry": {"type": "Point", "coordinates": [139.91925020000002, 35.74743545]}}, {"type": "Feature", "properties": {"name": "京葉市川", "kind": "OTHER"}, "geometry": {"type": "Point", "coordinates": [139.92740515, 35.70945275]}}, {"type": "Feature", "properties": {"name": "和光", "kind": "OTHER"}, "geometry": {"type": "Point", "coordinates": [139.6089208, 35.7786174]}}, {"type": "Feature", "properties": {"name": "道の駅 川口・あんぎょう", "kind": "OTHER"}, "geometry": {"type": "Point", "coordinates": [139.7657818, 35.848219]}}, {"type": "Feature", "properties": {"name": "道の駅いちかわ", "kind": "OTHER"}, "geometry": {"type": "Point", "coordinates": [139.9197077, 35.7492921]}}, {"type": "Feature", "properties": {"name": "新倉PA", "kind": "PA"}, "geometry": {"type": "Point", "coordinates": [139.6195194, 35.8010465]}}]}