{"type": "FeatureCollection", "features": [{"type": "Feature", "properties": {"name": "豊田JCT", "kind": "JCT"}, "geometry": {"type": "Point", "coordinates": [137.146760325, 35.021351575]}}, {"type": "Feature", "properties": {"name": "岡崎IC", "kind": "IC"}, "geometry": {"type": "Point", "coordinates": [137.1996802, 34.942437]}}, {"type": "Feature", "properties": {"name": "美合PA", "kind": "PA"}, "geometry": {"type": "Point", "coordinates": [137.22985565, 34.923530650000004]}}, {"type": "Feature", "properties": {"name": "赤塚ＰＡ", "kind": "OTHER"}, "geometry": {"type": "Point", "coordinates": [137.3641773, 34.8501087]}}, {"type": "Feature", "properties": {"name": "豊川ＩＣ", "kind": "OTHER"}, "geometry": {"type": "Point", "coordinates": [137.41363465, 34.83873925]}}, {"type": "Feature", "properties": {"name": "新城ＰＡ", "kind": "OTHER"}, "geometry": {"type": "Point", "coordinates": [137.498413, 34.8434236]}}, {"type": "Feature", "properties": {"name": "三ケ日ＪＣＴ", "kind": "OTHER"}, "geometry": {"type": "Point", "coordinates": [137.54677, 34.825629533333334]}}, {"type": "Feature", "properties": {"name": "三ヶ日ＩＣ", "kind": "OTHER"}, "geometry": {"type": "Point", "coordinates": [137.57997210000002, 34.79779415]}}, {"type": "Feature", "properties": {"name": "浜名湖SA", "kind": "SA"}, "geometry": {"type": "Point", "coordinates": [137.60907926666667, 34.7835697]}}, {"type": "Feature", "properties": {"name": "舘山寺スマートIC", "kind": "SIC"}, "geometry": {"type": "Point", "coordinates": [137.6378245, 34.7745661]}}, {"type": "Feature", "properties": {"name": "浜松西IC", "kind": "IC"}, "geometry": {"type": "Point", "coordinates": [137.67907485, 34.76511615]}}, {"type": "Feature", "properties": {"name": "三方原PA/スマートIC", "kind": "SIC"}, "geometry": {"type": "Point", "coordinates": [137.7378107, 34.7573428]}}, {"type": "Feature", "properties": {"name": "浜松ＩＣ", "kind": "OTHER"}, "geometry": {"type": "Point", "coordinates": [137.78842545, 34.7478858]}}, {"type": "Feature", "properties": {"name": "豊橋PA", "kind": "PA"}, "geometry": {"type": "Point", "coordinates": [137.45014235000002, 34.844210950000004]}}, {"type": "Feature", "properties": {"name": "日進JCT", "kind": "JCT"}, "geometry": {"type": "Point", "coordinates": [137.04964905, 35.15409615]}}, {"type": "Feature", "properties": {"name": "東郷PA", "kind": "PA"}, "geometry": {"type": "Point", "coordinates": [137.08419122499998, 35.1305024]}}, {"type": "Feature", "properties": {"name": "豊田上郷SA/スマートIC", "kind": "SIC"}, "geometry": {"type": "Point", "coordinates": [137.13502540000002, 35.03220965]}}, {"type": "Feature", "properties": {"name": "名古屋IC", "kind": "IC"}, "geometry": {"type": "Point", "coordinates": [137.0249119, 35.1706599]}}, {"type": "Feature", "properties": {"name": "音羽蒲郡ＩＣ", "kind": "OTHER"}, "geometry": {"type": "Point", "coordinates": [137.30214755, 34.86722165]}}, {"type": "Feature", "properties": {"name": "豊田IC", "kind": "IC"}, "geometry": {"type": "Point", "coordinates": [137.1151124, 35.07151655]}}, {"type": "Feature", "properties": {"name": "春日井IC", "kind": "IC"}, "geometry": {"type": "Point", "coordinates": [136.99360904999998, 35.2709897]}}, {"type": "Feature", "properties": {"name": "小牧JCT", "kind": "JCT"}, "geometry": {"type": "Point", "coordinates": [136.97985930000002, 35.2852541]}}, {"type": "Feature", "properties": {"name": "守山PA/スマートIC", "kind": "SIC"}, "geometry": {"type": "Point", "coordinates": [137.01129444999998, 35.241503949999995]}}, {"type": "Feature", "properties": {"name": "東名三好IC", "kind": "IC"}, "geometry": {"type": "Point", "coordinates": [137.09720025000001, 35.11162945]}}, {"type": "Feature", "properties": {"name": "小牧IC", "kind": "IC"}, "geometry": {"type": "Point", "coordinates": [136.908416, 35.3030797]}}, {"type": "Feature", "properties": {"name": "守山PA", "kind": "PA"}, "geometry": {"type": "Point", "coordinates": [137.01077170000002, 35.241490999999996]}}, {"type": "Feature", "properties": {"name": "豊田上郷SA", "kind": "SA"}, "geometry": {"type": "Point", "coordinates": [137.13532925, 35.0319173]}}, {"type": "Feature", "properties": {"name": "三方原PA", "kind": "PA"}, "geometry": {"type": "Point", "coordinates": [137.73782995, 34.757372950000004]}}, {"type": "Feature", "properties": {"name": "新城PA", "kind": "PA"}, "geometry": {"type": "Point", "coordinates": [137.49849565, 34.8432461]}}, {"type": "Feature", "properties": {"name": "赤塚PA", "kind": "PA"}, "geometry": {"type": "Point", "coordinates": [137.3641447, 34.8508274]}}, {"type": "Feature", "properties": {"name": "磐田IC", "kind": "IC"}, "geometry": {"type": "Point", "coordinates": [137.8560732, 34.7488287]}}, {"type": "Feature", "properties": {"name": "小笠ＰＡ", "kind": "OTHER"}, "geometry": {"type": "Point", "coordinates": [137.99974305, 34.7615495]}}, {"type": "Feature", "properties": {"name": "日本坂ＰＡ", "kind": "OTHER"}, "geometry": {"type": "Point", "coordinates": [138.31931875, 34.88962085]}}, {"type": "Feature", "properties": {"name": "富士ＩＣ", "kind": "OTHER"}, "geometry": {"type": "Point", "coordinates": [138.6770044, 35.1802012]}}, {"type": "Feature", "properties": {"name": "富士川ＳＡ、スマートＩＣ", "kind": "OTHER"}, "geometry": {"type": "Point", "coordinates": [138.61857215, 35.15763165]}}, {"type": "Feature", "properties": {"name": "牧之原ＳＡ", "kind": "OTHER"}, "geometry": {"type": "Point", "coordinates": [138.1709213, 34.7566014]}}, {"type": "Feature", "properties": {"name": "相良牧之原ＩＣ", "kind": "OTHER"}, "geometry": {"type": "Point", "coordinates": [138.1392397, 34.76143175]}}, {"type": "Feature", "properties": {"name": "磐田ＩＣ", "kind": "OTHER"}, "geometry": {"type": "Point", "coordinates": [137.8638833, 34.7507575]}}, {"type": "Feature", "properties": {"name": "遠州豊田PA/スマートIC", "kind": "SIC"}, "geometry": {"type": "Point", "coordinates": [137.8403376, 34.748037100000005]}}, {"type": "Feature", "properties": {"name": "日本平ＰＡ", "kind": "OTHER"}, "geometry": {"type": "Point", "coordinates": [138.4340464, 34.9846401]}}, {"type": "Feature", "properties": {"name": "由比ＰＡ", "kind": "OTHER"}, "geometry": {"type": "Point", "coordinates": [138.5478546, 35.0831839]}}, {"type": "Feature", "properties": {"name": "富士川サービスエリア", "kind": "SA"}, "geometry": {"type": "Point", "coordinates": [138.6174546, 35.1610278]}}, {"type": "Feature", "properties": {"name": "清水ＩＣ", "kind": "OTHER"}, "geometry": {"type": "Point", "coordinates": [138.4744829, 35.041522650000005]}}, {"type": "Feature", "properties": {"name": "袋井ＩＣ", "kind": "OTHER"}, "geometry": {"type": "Point", "coordinates": [137.9009007, 34.75964635]}}, {"type": "Feature", "properties": {"name": "菊川ＩＣ", "kind": "OTHER"}, "geometry": {"type": "Point", "coordinates": [138.0859732, 34.750402550000004]}}, {"type": "Feature", "properties": {"name": "静岡ＩＣ", "kind": "OTHER"}, "geometry": {"type": "Point", "coordinates": [138.39435220000001, 34.94702505]}}, {"type": "Feature", "properties": {"name": "焼津ＩＣ", "kind": "OTHER"}, "geometry": {"type": "Point", "coordinates": [138.30010425, 34.881498050000005]}}, {"type": "Feature", "properties": {"name": "清水JCT", "kind": "JCT"}, "geometry": {"type": "Point", "coordinates": [138.4830092, 35.0456962]}}, {"type": "Feature", "properties": {"name": "清水ＪＣＴ", "kind": "OTHER"}, "geometry": {"type": "Point", "coordinates": [138.48901595, 35.0486553]}}, {"type": "Feature", "properties": {"name": "鳥坂I.C", "kind": "OTHER"}, "geometry": {"type": "Point", "coordinates": [138.43640549999998, 35.01372035]}}, {"type": "Feature", "properties": {"name": "日本平久能山スマートIC", "kind": "SIC"}, "geometry": {"type": "Point", "coordinates": [138.4221785, 34.961591150000004]}}, {"type": "Feature", "properties": {"name": "掛川ＩＣ", "kind": "OTHER"}, "geometry": {"type": "Point", "coordinates": [138.02386810000002, 34.764931399999995]}}, {"type": "Feature", "properties": {"name": "寺尾IC", "kind": "IC"}, "geometry": {"type": "Point", "coordinates": [138.55145785000002, 35.0936057]}}, {"type": "Feature", "properties": {"name": "蒲原西IC", "kind": "IC"}, "geometry": {"type": "Point", "coordinates": [138.5763626, 35.11165815]}}, {"type": "Feature", "properties": {"name": "吉田ＩＣ", "kind": "OTHER"}, "geometry": {"type": "Point", "coordinates": [138.23492785000002, 34.791634349999995]}}, {"type": "Feature", "properties": {"name": "牧の原ＳＡ", "kind": "OTHER"}, "geometry": {"type": "Point", "coordinates": [138.1497171, 34.762564]}}, {"type": "Feature", "properties": {"name": "大井川焼津藤枝スマート", "kind": "OTHER"}, "geometry": {"type": "Point", "coordinates": [138.26707485, 34.8193363]}}, {"type": "Feature", "properties": {"name": "道の駅 富士川楽座", "kind": "OTHER"}, "geometry": {"type": "Point", "coordinates": [138.61834290000002, 35.1618435]}}, {"type": "Feature", "properties": {"name": "由比PA", "kind": "PA"}, "geometry": {"type": "Point", "coordinates": [138.54770989999997, 35.0826908]}}, {"type": "Feature", "properties": {"name": "日本坂PA", "kind": "PA"}, "geometry": {"type": "Point", "coordinates": [138.31949545, 34.8894766]}}, {"type": "Feature", "properties": {"name": "日本平PA", "kind": "PA"}, "geometry": {"type": "Point", "coordinates": [138.43453945, 34.98441615]}}, {"type": "Feature", "properties": {"name": "富士川SA", "kind": "SA"}, "geometry": {"type": "Point", "coordinates": [138.61861549999998, 35.15959185]}}, {"type": "Feature", "properties": {"name": "牧之原SA", "kind": "SA"}, "geometry": {"type": "Point", "coordinates": [138.16082325000002, 34.7593911]}}, {"type": "Feature", "properties": {"name": "小笠PA", "kind": "PA"}, "geometry": {"type": "Point", "coordinates": [137.99992745, 34.7609571]}}, {"type": "Feature", "properties": {"name": "遠州豊田PA", "kind": "PA"}, "geometry": {"type": "Point", "coordinates": [137.8401777, 34.7481724]}}, {"type": "Feature", "properties": {"name": "横浜青葉IC/JCT", "kind": "JCT"}, "geometry": {"type": "Point", "coordinates": [139.5397939, 35.5430308]}}, {"type": "Feature", "properties": {"name": "港北ＰＡ", "kind": "OTHER"}, "geometry": {"type": "Point", "coordinates": [139.5303585, 35.535324]}}, {"type": "Feature", "properties": {"name": "海老名ＳＡ", "kind": "OTHER"}, "geometry": {"type": "Point", "coordinates": [139.3995965, 35.43154535]}}, {"type": "Feature", "properties": {"name": "綾瀬SIC", "kind": "SIC"}, "geometry": {"type": "Point", "coordinates": [139.4181298, 35.44753515]}}, {"type": "Feature", "properties": {"name": "秦野中井ＩＣ", "kind": "OTHER"}, "geometry": {"type": "Point", "coordinates": [139.2344263, 35.35250775]}}, {"type": "Feature", "properties": {"name": "大井松田ＩＣ", "kind": "OTHER"}, "geometry": {"type": "Point", "coordinates": [139.1542628, 35.3457671]}}, {"type": "Feature", "properties": {"name": "足柄SA/スマートIC", "kind": "SIC"}, "geometry": {"type": "Point", "coordinates": [138.96626049999998, 35.314202699999996]}}, {"type": "Feature", "properties": {"name": "東京IC", "kind": "IC"}, "geometry": {"type": "Point", "coordinates": [139.61796155, 35.62834385]}}, {"type": "Feature", "properties": {"name": "東名川崎IC", "kind": "IC"}, "geometry": {"type": "Point", "coordinates": [139.5677236, 35.587096200000005]}}, {"type": "Feature", "properties": {"name": "海老名JCT", "kind": "JCT"}, "geometry": {"type": "Point", "coordinates": [139.37708515, 35.423667975]}}, {"type": "Feature", "properties": {"name": "大井松田IC", "kind": "IC"}, "geometry": {"type": "Point", "coordinates": [139.1590351, 35.3415618]}}, {"type": "Feature", "properties": {"name": "駒門PA/SIC", "kind": "SIC"}, "geometry": {"type": "Point", "coordinates": [138.90931465, 35.24626495]}}, {"type": "Feature", "properties": {"name": "愛鷹ＰＡ、スマートIC", "kind": "SIC"}, "geometry": {"type": "Point", "coordinates": [138.83688, 35.14319945]}}, {"type": "Feature", "properties": {"name": "裾野IC", "kind": "IC"}, "geometry": {"type": "Point", "coordinates": [138.90789560000002, 35.220267199999995]}}, {"type": "Feature", "properties": {"name": "中井ＰＡ", "kind": "OTHER"}, "geometry": {"type": "Point", "coordinates": [139.20009925, 35.3433577]}}, {"type": "Feature", "properties": {"name": "厚木IC", "kind": "IC"}, "geometry": {"type": "Point", "coordinates": [139.362092625, 35.423884675000004]}}, {"type": "Feature", "properties": {"name": "横浜町田IC", "kind": "IC"}, "geometry": {"type": "Point", "coordinates": [139.48282883333334, 35.507987500000006]}}, {"type": "Feature", "properties": {"name": "鮎沢ＰＡ", "kind": "OTHER"}, "geometry": {"type": "Point", "coordinates": [139.0173819, 35.358481749999996]}}, {"type": "Feature", "properties": {"name": "沼津IC", "kind": "IC"}, "geometry": {"type": "Point", "coordinates": [138.8695452, 35.1499747]}}, {"type": "Feature", "properties": {"name": "沼津ＩＣ", "kind": "OTHER"}, "geometry": {"type": "Point", "coordinates": [138.8610227, 35.1462937]}}, {"type": "Feature", "properties": {"name": "伊勢原JCT", "kind": "JCT"}, "geometry": {"type": "Point", "coordinates": [139.310827675, 35.4118943]}}, {"type": "Feature", "properties": {"name": "御殿場JCT", "kind": "JCT"}, "geometry": {"type": "Point", "coordinates": [138.911513375, 35.2615124]}}, {"type": "Feature", "properties": {"name": "横浜町田", "kind": "OTHER"}, "geometry": {"type": "Point", "coordinates": [139.4827713, 35.5064658]}}, {"type": "Feature", "properties": {"name": "御殿場ＩＣ", "kind": "OTHER"}, "geometry": {"type": "Point", "coordinates": [138.95007515, 35.29585205]}}, {"type": "Feature", "properties": {"name": "東名JCT", "kind": "JCT"}, "geometry": {"type": "Point", "coordinates": [139.60584169999998, 35.62611495]}}, {"type": "Feature", "properties": {"name": "綾瀬スマートインターチェンジ北側", "kind": "IC"}, "geometry": {"type": "Point", "coordinates": [139.4196235, 35.4487887]}}, {"type": "Feature", "properties": {"name": "愛鷹PA", "kind": "PA"}, "geometry": {"type": "Point", "coordinates": [138.83662095, 35.1428535]}}, {"type": "Feature", "properties": {"name": "駒門PA", "kind": "PA"}, "geometry": {"type": "Point", "coordinates": [138.9094302, 35.24607925]}}, {"type": "Feature", "properties": {"name": "足柄SA", "kind": "SA"}, "geometry": {"type": "Point", "coordinates": [138.96563229999998, 35.31389615]}}, {"type": "Feature", "properties": {"name": "海老名SA", "kind": "SA"}, "geometry": {"type": "Point", "coordinates": [139.40021565, 35.431634]}}, {"type": "Feature", "properties": {"name": "港北PA", "kind": "PA"}, "geometry": {"type": "Point", "coordinates": [139.53017685, 35.53426435]}}, {"type": "Feature", "properties": {"name": "鮎沢PA", "kind": "PA"}, "geometry": {"type": "Point", "coordinates": [139.01890005, 35.359083749999996]}}, {"type": "Feature", "properties": {"name": "中井PA", "kind": "PA"}, "geometry": {"type": "Point", "coordinates": [139.2013172, 35.3424977]}}]}