{"type": "FeatureCollection", "features": [{"type": "Feature", "properties": {"name": "駒門PA/SIC", "kind": "SIC"}, "geometry": {"type": "Point", "coordinates": [138.90931465, 35.24626495]}}, {"type": "Feature", "properties": {"name": "長泉沼津ＩＣ", "kind": "OTHER"}, "geometry": {"type": "Point", "coordinates": [138.8659255, 35.1568521]}}, {"type": "Feature", "properties": {"name": "新静岡ＩＣ", "kind": "OTHER"}, "geometry": {"type": "Point", "coordinates": [138.37953165, 35.04093015]}}, {"type": "Feature", "properties": {"name": "新清水ＩＣ", "kind": "OTHER"}, "geometry": {"type": "Point", "coordinates": [138.523194, 35.146419949999995]}}, {"type": "Feature", "properties": {"name": "駿河湾沼津ＳＡ、スマートIC", "kind": "SIC"}, "geometry": {"type": "Point", "coordinates": [138.80864624999998, 35.15372855]}}, {"type": "Feature", "properties": {"name": "新富士ＩＣ", "kind": "OTHER"}, "geometry": {"type": "Point", "coordinates": [138.664787, 35.201807450000004]}}, {"type": "Feature", "properties": {"name": "清水ＰＡ", "kind": "OTHER"}, "geometry": {"type": "Point", "coordinates": [138.50970365, 35.132382899999996]}}, {"type": "Feature", "properties": {"name": "静岡SA/スマートIC（上り線）", "kind": "SIC"}, "geometry": {"type": "Point", "coordinates": [138.2932125, 34.974203]}}, {"type": "Feature", "properties": {"name": "静岡SA/スマートIC（下り線）", "kind": "SIC"}, "geometry": {"type": "Point", "coordinates": [138.2943169, 34.9786436]}}, {"type": "Feature", "properties": {"name": "藤枝岡部ＩＣ", "kind": "OTHER"}, "geometry": {"type": "Point", "coordinates": [138.26090395, 34.91561205]}}, {"type": "Feature", "properties": {"name": "島田金谷ＩＣ", "kind": "OTHER"}, "geometry": {"type": "Point", "coordinates": [138.1267848, 34.8521961]}}, {"type": "Feature", "properties": {"name": "浜松いなさＪＣＴ", "kind": "OTHER"}, "geometry": {"type": "Point", "coordinates": [137.66104845, 34.8831989]}}, {"type": "Feature", "properties": {"name": "新清水JCT", "kind": "JCT"}, "geometry": {"type": "Point", "coordinates": [138.45967935, 35.077087649999996]}}, {"type": "Feature", "properties": {"name": "御殿場JCT", "kind": "JCT"}, "geometry": {"type": "Point", "coordinates": [138.911513375, 35.2615124]}}, {"type": "Feature", "properties": {"name": "浜松いなさJCT", "kind": "JCT"}, "geometry": {"type": "Point", "coordinates": [137.64686135, 34.888939699999995]}}, {"type": "Feature", "properties": {"name": "藤枝ＰＡ", "kind": "OTHER"}, "geometry": {"type": "Point", "coordinates": [138.23923335, 34.896877700000005]}}, {"type": "Feature", "properties": {"name": "駒門PA", "kind": "PA"}, "geometry": {"type": "Point", "coordinates": [138.9094302, 35.24607925]}}, {"type": "Feature", "properties": {"name": "静岡SA", "kind": "SA"}, "geometry": {"type": "Point", "coordinates": [138.29201655, 34.97417915]}}, {"type": "Feature", "properties": {"name": "清水PA", "kind": "PA"}, "geometry": {"type": "Point", "coordinates": [138.5126242, 35.131807]}}, {"type": "Feature", "properties": {"name": "駿河湾沼津SA", "kind": "SA"}, "geometry": {"type": "Point", "coordinates": [138.80906235, 35.15328745]}}, {"type": "Feature", "properties": {"name": "藤枝PA", "kind": "PA"}, "geometry": {"type": "Point", "coordinates": [138.2390042, 34.897046149999994]}}]}