{"type": "FeatureCollection", "features": [{"type": "Feature", "properties": {"name": "千葉北IC", "kind": "IC"}, "geometry": {"type": "Point", "coordinates": [140.12050757499998, 35.67150145]}}, {"type": "Feature", "properties": {"name": "佐倉IC", "kind": "IC"}, "geometry": {"type": "Point", "coordinates": [140.2374414, 35.68731785]}}, {"type": "Feature", "properties": {"name": "成田JCT", "kind": "JCT"}, "geometry": {"type": "Point", "coordinates": [140.3457971, 35.782373166666666]}}, {"type": "Feature", "properties": {"name": "大栄IC", "kind": "IC"}, "geometry": {"type": "Point", "coordinates": [140.44975365, 35.8372499]}}, {"type": "Feature", "properties": {"name": "佐原香取IC", "kind": "IC"}, "geometry": {"type": "Point", "coordinates": [140.5361308, 35.8731308]}}, {"type": "Feature", "properties": {"name": "湾岸習志野IC", "kind": "IC"}, "geometry": {"type": "Point", "coordinates": [140.0181156, 35.6650129]}}, {"type": "Feature", "properties": {"name": "宮野木JCT", "kind": "JCT"}, "geometry": {"type": "Point", "coordinates": [140.099153475, 35.660128275]}}, {"type": "Feature", "properties": {"name": "四街道IC", "kind": "IC"}, "geometry": {"type": "Point", "coordinates": [140.17916175, 35.68424345]}}, {"type": "Feature", "properties": {"name": "湾岸幕張ＰＡ", "kind": "OTHER"}, "geometry": {"type": "Point", "coordinates": [140.0291749, 35.6602455]}}, {"type": "Feature", "properties": {"name": "高谷JCT", "kind": "JCT"}, "geometry": {"type": "Point", "coordinates": [139.9465448, 35.6878602]}}, {"type": "Feature", "properties": {"name": "大栄JCT", "kind": "JCT"}, "geometry": {"type": "Point", "coordinates": [140.39133327500002, 35.81189512500001]}}, {"type": "Feature", "properties": {"name": "大栄PA", "kind": "PA"}, "geometry": {"type": "Point", "coordinates": [140.40474597499997, 35.813195025]}}, {"type": "Feature", "properties": {"name": "佐原PA", "kind": "PA"}, "geometry": {"type": "Point", "coordinates": [140.5533031, 35.89313845]}}, {"type": "Feature", "properties": {"name": "酒々井PA", "kind": "PA"}, "geometry": {"type": "Point", "coordinates": [140.28432675, 35.710885575000006]}}, {"type": "Feature", "properties": {"name": "富里IC", "kind": "IC"}, "geometry": {"type": "Point", "coordinates": [140.31219555, 35.7452649]}}, {"type": "Feature", "properties": {"name": "湾岸千葉ＩＣ", "kind": "OTHER"}, "geometry": {"type": "Point", "coordinates": [140.0586337, 35.6491079]}}, {"type": "Feature", "properties": {"name": "谷津船橋 IC", "kind": "IC"}, "geometry": {"type": "Point", "coordinates": [140.00225140000003, 35.6766722]}}, {"type": "Feature", "properties": {"name": "酒々井IC", "kind": "IC"}, "geometry": {"type": "Point", "coordinates": [140.29269805, 35.725808150000006]}}, {"type": "Feature", "properties": {"name": "茨城空港北IC", "kind": "IC"}, "geometry": {"type": "Point", "coordinates": [140.42377255, 36.23101565]}}, {"type": "Feature", "properties": {"name": "湾岸市川 IC", "kind": "IC"}, "geometry": {"type": "Point", "coordinates": [139.957655, 35.6923681]}}, {"type": "Feature", "properties": {"name": "鉾田IC", "kind": "IC"}, "geometry": {"type": "Point", "coordinates": [140.4850209, 36.1769121]}}, {"type": "Feature", "properties": {"name": "湾岸幕張PA", "kind": "PA"}, "geometry": {"type": "Point", "coordinates": [140.02855525, 35.66020555]}}]}