{"type": "FeatureCollection", "features": [{"type": "Feature", "properties": {"name": "鶴ヶ島JCT", "kind": "JCT"}, "geometry": {"type": "Point", "coordinates": [139.405569525, 35.932032899999996]}}, {"type": "Feature", "properties": {"name": "狭山ＰＡ（内廻り）", "kind": "OTHER"}, "geometry": {"type": "Point", "coordinates": [139.3684486, 35.8540928]}}, {"type": "Feature", "properties": {"name": "青梅IC", "kind": "IC"}, "geometry": {"type": "Point", "coordinates": [139.32246035, 35.7973624]}}, {"type": "Feature", "properties": {"name": "海老名JCT", "kind": "JCT"}, "geometry": {"type": "Point", "coordinates": [139.37708515, 35.423667975]}}, {"type": "Feature", "properties": {"name": "八王子ＪＣＴ", "kind": "OTHER"}, "geometry": {"type": "Point", "coordinates": [139.25485265, 35.641796775]}}, {"type": "Feature", "properties": {"name": "久喜白岡JCT", "kind": "JCT"}, "geometry": {"type": "Point", "coordinates": [139.6581503, 36.047675875]}}, {"type": "Feature", "properties": {"name": "あきる野ＩＣ", "kind": "OTHER"}, "geometry": {"type": "Point", "coordinates": [139.28366185, 35.71852765]}}, {"type": "Feature", "properties": {"name": "日の出ＩＣ", "kind": "OTHER"}, "geometry": {"type": "Point", "coordinates": [139.2823945, 35.735748650000005]}}, {"type": "Feature", "properties": {"name": "八王子西ＩＣ", "kind": "OTHER"}, "geometry": {"type": "Point", "coordinates": [139.25264505, 35.679041]}}, {"type": "Feature", "properties": {"name": "狭山日高IC", "kind": "IC"}, "geometry": {"type": "Point", "coordinates": [139.37775010000001, 35.86616365]}}, {"type": "Feature", "properties": {"name": "圏央鶴ヶ島ＩＣ", "kind": "OTHER"}, "geometry": {"type": "Point", "coordinates": [139.3887559, 35.91990355]}}, {"type": "Feature", "properties": {"name": "入間IC", "kind": "IC"}, "geometry": {"type": "Point", "coordinates": [139.36877425, 35.81860015]}}, {"type": "Feature", "properties": {"name": "川島ＩＣ", "kind": "OTHER"}, "geometry": {"type": "Point", "coordinates": [139.46668025, 35.981761750000004]}}, {"type": "Feature", "properties": {"name": "海老名ＩＣ", "kind": "OTHER"}, "geometry": {"type": "Point", "coordinates": [139.37634795, 35.438815399999996]}}, {"type": "Feature", "properties": {"name": "桶川北本ＩＣ", "kind": "OTHER"}, "geometry": {"type": "Point", "coordinates": [139.52012555, 36.001824299999996]}}, {"type": "Feature", "properties": {"name": "坂戸ＩＣ", "kind": "OTHER"}, "geometry": {"type": "Point", "coordinates": [139.44359989999998, 35.96721665]}}, {"type": "Feature", "properties": {"name": "白岡菖蒲ＩＣ", "kind": "OTHER"}, "geometry": {"type": "Point", "coordinates": [139.6218636, 36.046780749999996]}}, {"type": "Feature", "properties": {"name": "狭山ＰＡ（外廻り）", "kind": "OTHER"}, "geometry": {"type": "Point", "coordinates": [139.3650575, 35.8491366]}}, {"type": "Feature", "properties": {"name": "高尾山ＩＣ", "kind": "OTHER"}, "geometry": {"type": "Point", "coordinates": [139.26325235000002, 35.623969450000004]}}, {"type": "Feature", "properties": {"name": "海老名南JCT", "kind": "JCT"}, "geometry": {"type": "Point", "coordinates": [139.37344976666665, 35.4079419]}}, {"type": "Feature", "properties": {"name": "五霞IC", "kind": "IC"}, "geometry": {"type": "Point", "coordinates": [139.76065665, 36.09572895]}}, {"type": "Feature", "properties": {"name": "桶川加納ＩＣ", "kind": "OTHER"}, "geometry": {"type": "Point", "coordinates": [139.5649691, 36.02133705]}}, {"type": "Feature", "properties": {"name": "菖蒲ＰＡ（内回り）", "kind": "OTHER"}, "geometry": {"type": "Point", "coordinates": [139.5932616, 36.0404373]}}, {"type": "Feature", "properties": {"name": "境古河IC", "kind": "IC"}, "geometry": {"type": "Point", "coordinates": [139.80671995, 36.1253048]}}, {"type": "Feature", "properties": {"name": "相模原ＩＣ", "kind": "OTHER"}, "geometry": {"type": "Point", "coordinates": [139.29343165, 35.5818243]}}, {"type": "Feature", "properties": {"name": "菖蒲ＰＡ（外回り）", "kind": "OTHER"}, "geometry": {"type": "Point", "coordinates": [139.5845494, 36.0350162]}}, {"type": "Feature", "properties": {"name": "幸手IC", "kind": "IC"}, "geometry": {"type": "Point", "coordinates": [139.73884855, 36.0656669]}}, {"type": "Feature", "properties": {"name": "狭山PA (外回り)", "kind": "PA"}, "geometry": {"type": "Point", "coordinates": [139.3654757, 35.8519055]}}, {"type": "Feature", "properties": {"name": "狭山PA (内回り)", "kind": "PA"}, "geometry": {"type": "Point", "coordinates": [139.3668637, 35.8520406]}}, {"type": "Feature", "properties": {"name": "菖蒲PA", "kind": "PA"}, "geometry": {"type": "Point", "coordinates": [139.5876777, 36.0385693]}}, {"type": "Feature", "properties": {"name": "つくばJCT", "kind": "JCT"}, "geometry": {"type": "Point", "coordinates": [140.127136825, 36.033258524999994]}}, {"type": "Feature", "properties": {"name": "牛久阿見IC", "kind": "IC"}, "geometry": {"type": "Point", "coordinates": [140.18008425, 35.99221495]}}, {"type": "Feature", "properties": {"name": "江戸崎ＰＡ（外廻り）", "kind": "OTHER"}, "geometry": {"type": "Point", "coordinates": [140.2739932, 35.9735102]}}, {"type": "Feature", "properties": {"name": "つくば中央ＩＣ", "kind": "OTHER"}, "geometry": {"type": "Point", "coordinates": [140.08834455, 36.0572522]}}, {"type": "Feature", "properties": {"name": "阿見東IC", "kind": "IC"}, "geometry": {"type": "Point", "coordinates": [140.2407134, 35.980960550000006]}}, {"type": "Feature", "properties": {"name": "江戸崎ＰＡ（内廻り）", "kind": "OTHER"}, "geometry": {"type": "Point", "coordinates": [140.2787357, 35.9700023]}}, {"type": "Feature", "properties": {"name": "つくば牛久IC", "kind": "IC"}, "geometry": {"type": "Point", "coordinates": [140.13452265, 36.023896750000006]}}, {"type": "Feature", "properties": {"name": "大栄JCT", "kind": "JCT"}, "geometry": {"type": "Point", "coordinates": [140.39133327500002, 35.81189512500001]}}, {"type": "Feature", "properties": {"name": "稲敷ＩＣ", "kind": "OTHER"}, "geometry": {"type": "Point", "coordinates": [140.29783785, 35.95772100000001]}}, {"type": "Feature", "properties": {"name": "常総IC", "kind": "IC"}, "geometry": {"type": "Point", "coordinates": [139.98311389999998, 36.0778727]}}, {"type": "Feature", "properties": {"name": "坂東IC", "kind": "IC"}, "geometry": {"type": "Point", "coordinates": [139.8908444, 36.0888596]}}, {"type": "Feature", "properties": {"name": "稲敷東IC", "kind": "IC"}, "geometry": {"type": "Point", "coordinates": [140.3475584, 35.92449545]}}, {"type": "Feature", "properties": {"name": "神崎ＩＣ", "kind": "OTHER"}, "geometry": {"type": "Point", "coordinates": [140.3793864, 35.895085550000005]}}, {"type": "Feature", "properties": {"name": "下総IC", "kind": "IC"}, "geometry": {"type": "Point", "coordinates": [140.39160165, 35.861912849999996]}}, {"type": "Feature", "properties": {"name": "つくば西スマートIC", "kind": "SIC"}, "geometry": {"type": "Point", "coordinates": [140.0494665, 36.0567963]}}, {"type": "Feature", "properties": {"name": "江戸崎PA (外回り)", "kind": "PA"}, "geometry": {"type": "Point", "coordinates": [140.2762639, 35.9723946]}}, {"type": "Feature", "properties": {"name": "江戸崎PA (内回り)", "kind": "PA"}, "geometry": {"type": "Point", "coordinates": [140.2761673, 35.9715741]}}, {"type": "Feature", "properties": {"name": "坂東PA(外回り)", "kind": "PA"}, "geometry": {"type": "Point", "coordinates": [139.9071324, 36.0833719]}}, {"type": "Feature", "properties": {"name": "坂東PA(内回り)", "kind": "PA"}, "geometry": {"type": "Point", "coordinates": [139.9031394, 36.0831873]}}]}