{"type": "FeatureCollection", "features": [{"type": "Feature", "properties": {"id": "千葉東金道路-下り-0-0", "route": "千葉東金道路", "direction": "下り", "from": "千葉東ＩＣ", "to": "大宮ＩＣ", "grade": 0.46, "elevation_start": 16.3, "elevation_end": 17.5, "quality": "measured", "structure": "normal", "chain_rank": 0, "cum_dist_start": 0.0, "cum_dist_end": 250.0, "anomaly": false}, "geometry": {"type": "LineString", "coordinates": [[140.1610476, 35.5993772], [140.16127913835416, 35.59925468474435], [140.1615106767083, 35.599132169488705], [140.16174221506247, 35.59900965423306], [140.16197375341662, 35.59888713897741], [140.16220664122505, 35.5987663522139], [140.16244018901298, 35.598646410806516], [140.16267373680094, 35.59852646939913], [140.1629072845889, 35.59840652799175], [140.16314083237683, 35.598286586584365], [140.16337438016478, 35.59816664517699]]}}, {"type": "Feature", "properties": {"id": "千葉東金道路-下り-0-1", "route": "千葉東金道路", "direction": "下り", "from": "千葉東ＩＣ", "to": "大宮ＩＣ", "grade": 0.72, "elevation_start": 17.5, "elevation_end": 19.3, "quality": "measured", "structure": "normal", "chain_rank": 0, "cum_dist_start": 250.0, "cum_dist_end": 500.0, "anomaly": false}, "geometry": {"type": "LineString", "coordinates": [[140.16337438016478, 35.59816664517699], [140.16360792795274, 35.598046703769604], [140.16384157759455, 35.59792689580965], [140.16407593241044, 35.597808011758325], [140.16431028722633, 35.597689127707], [140.16454464204224, 35.597570243655674], [140.16477899685813, 35.59745135960435], [140.16501298759505, 35.59733200085214], [140.16524697661006, 35.59721263985488], [140.1654809656251, 35.59709327885763], [140.16571495464012, 35.59697391786037]]}}, {"type": "Feature", "properties": {"id": "千葉東金道路-下り-0-2", "route": "千葉東金道路", "direction": "下り", "from": "千葉東ＩＣ", "to": "大宮ＩＣ", "grade": 1.34, "elevation_start": 19.3, "elevation_end": 22.7, "quality": "measured", "structure": "normal", "chain_rank": 0, "cum_dist_start": 500.0, "cum_dist_end": 750.0, "anomaly": false}, "geometry": {"type": "LineString", "coordinates": [[140.16571495464012, 35.59697391786037], [140.16594894365514, 35.59685455686311], [140.16618293267018, 35.596735195865854], [140.1664169216852, 35.596615834868594], [140.1666509107002, 35.59649647387133], [140.166884273007, 35.59637629955405], [140.16711762747846, 35.59625611506832], [140.16734610363355, 35.596130008065515], [140.16756908283762, 35.59599735110325], [140.1677892495422, 35.59586159854241], [140.1680061796255, 35.59572239929872]]}}, {"type": "Feature", "properties": {"id": "千葉東金道路-下り-0-3", "route": "千葉東金道路", "direction": "下り", "from": "千葉東ＩＣ", "to": "大宮ＩＣ", "grade": 0.9, "elevation_start": 22.7, "elevation_end": 24.9, "quality": "measured", "structure": "normal", "chain_rank": 0, "cum_dist_start": 750.0, "cum_dist_end": 1000.0, "anomaly": false}, "geometry": {"type": "LineString", "coordinates": [[140.1680061796255, 35.59572239929872], [140.16821537258022, 35.595575508755864], [140.16842322680057, 35.595427358806006], [140.1686263257126, 35.595274977896125], [140.1688232223155, 35.59511716786331], [140.16901607170362, 35.594956077080845], [140.16920369601408, 35.59479089260978], [140.16938813548407, 35.5946234011834], [140.16956739630078, 35.59445213301541], [140.16974665711749, 35.59428086484742], [140.16992591793422, 35.59410959667943]]}}, {"type": "Feature", "properties": {"id": "千葉東金道路-下り-0-4", "route": "千葉東金道路", "direction": "下り", "from": "千葉東ＩＣ", "to": "大宮ＩＣ", "grade": 0.33, "elevation_start": 24.9, "elevation_end": 25.7, "quality": "measured", "structure": "normal", "chain_rank": 0, "cum_dist_start": 1000.0, "cum_dist_end": 1250.0, "anomaly": false}, "geometry": {"type": "LineString", "coordinates": [[140.16992591793422, 35.59410959667943], [140.17010517875093, 35.59393832851144], [140.17028276354415, 35.593765911226924], [140.17045830319483, 35.59359209175016], [140.1706338428455, 35.5934182722734], [140.17080938249615, 35.593244452796625], [140.170995864329, 35.5930785251814], [140.17118529030867, 35.59291472098164], [140.1713768003342, 35.5927525427304], [140.17157120093094, 35.59259274017108], [140.17177279352566, 35.592438962763296]]}}, {"type": "Feature", "properties": {"id": "千葉東金道路-下り-0-5", "route": "千葉東金道路", "direction": "下り", "from": "千葉東ＩＣ", "to": "大宮ＩＣ", "grade": 0.38, "elevation_start": 25.7, "elevation_end": 26.7, "quality": "measured", "structure": "normal", "chain_rank": 0, "cum_dist_start": 1250.0, "cum_dist_end": 1500.0, "anomaly": false}, "geometry": {"type": "LineString", "coordinates": [[140.17177279352566, 35.592438962763296], [140.17197958014253, 35.592289843744496], [140.17219007258973, 35.59214420639595], [140.17240579293815, 35.5920037648848], [140.17262516117427, 35.59186715456357], [140.17284489411978, 35.59173092727798], [140.1730662705157, 35.59159651717579], [140.1732902356495, 35.59146496947292], [140.17351409314784, 35.59133330012168], [140.1737378440024, 35.59120151024276], [140.17396163116632, 35.59106976168002]]}}, {"type": "Feature", "properties": {"id": "千葉東金道路-下り-0-6", "route": "千葉東金道路", "direction": "下り", "from": "千葉東ＩＣ", "to": "大宮ＩＣ", "grade": 0.96, "elevation_start": 26.7, "elevation_end": 29.1, "quality": "measured", "structure": "normal", "chain_rank": 0, "cum_dist_start": 1500.0, "cum_dist_end": 1750.0, "anomaly": false}, "geometry": {"type": "LineString", "coordinates": [[140.17396163116632, 35.59106976168002], [140.17418572928722, 35.59093836695327], [140.17440939930938, 35.59080649269204], [140.17463110664224, 35.59067241992597], [140.17484414811673, 35.590529377357704], [140.17505534594486, 35.590384426479496], [140.17526654377298, 35.59023947560129], [140.17547172369035, 35.59008890244952], [140.17566972636618, 35.58993206063773], [140.17586175841294, 35.58977031552498], [140.17604854328673, 35.58960450606612]]}}, {"type": "Feature", "properties": {"id": "千葉東金道路-下り-0-7", "route": "千葉東金道路", "direction": "下り", "from": "千葉東ＩＣ", "to": "大宮ＩＣ", "grade": 1.86, "elevation_start": 29.1, "elevation_end": 33.7, "quality": "estimated", "structure": "bridge", "chain_rank": 0, "cum_dist_start": 1750.0, "cum_dist_end": 2000.0, "anomaly": false}, "geometry": {"type": "LineString", "coordinates": [[140.17604854328673, 35.58960450606612], [140.17622716361333, 35.58943287547233], [140.17640234146575, 35.58925882274629], [140.17657509622106, 35.58908316342975], [140.17674475176702, 35.58890549593589], [140.17691025794898, 35.58872523500005], [140.17706849466506, 35.58854069821502], [140.17722454026278, 35.58835491564348], [140.17736922634668, 35.58816307478327], [140.1775296304848, 35.58798004846641], [140.17769469215116, 35.58779957115268]]}}, {"type": "Feature", "properties": {"id": "千葉東金道路-下り-0-8", "route": "千葉東金道路", "direction": "下り", "from": "大宮ＩＣ", "to": "高田ＩＣ", "grade": 1.86, "elevation_start": 33.7, "elevation_end": 38.4, "quality": "estimated", "structure": "bridge", "chain_rank": 0, "cum_dist_start": 2000.0, "cum_dist_end": 2250.0, "anomaly": false}, "geometry": {"type": "LineString", "coordinates": [[140.17769469215116, 35.58779957115268], [140.1778506424251, 35.587613713428034], [140.17800659269906, 35.58742785570338], [140.178162542973, 35.58724199797874], [140.17832699613905, 35.58706113307344], [140.17849147639853, 35.58688025309648], [140.17865765522407, 35.58670040801736], [140.17883113555587, 35.586525239574044], [140.17900696504245, 35.58635163009086], [140.1791835282474, 35.586178514424105], [140.1793600914523, 35.58600539875736]]}}, {"type": "Feature", "properties": {"id": "千葉東金道路-下り-0-9", "route": "千葉東金道路", "direction": "下り", "from": "大宮ＩＣ", "to": "高田ＩＣ", "grade": 1.86, "elevation_start": 38.4, "elevation_end": 43.0, "quality": "estimated", "structure": "bridge", "chain_rank": 0, "cum_dist_start": 2250.0, "cum_dist_end": 2500.0, "anomaly": false}, "geometry": {"type": "LineString", "coordinates": [[140.1793600914523, 35.58600539875736], [140.1795371428925, 35.58583263589015], [140.17972592559784, 35.58566835005264], [140.17991589185203, 35.585505000743446], [140.180110879614, 35.58534562489427], [140.18030728898418, 35.58518742434805], [140.18050466292556, 35.58503002125318], [140.1807026032283, 35.58487309518833], [140.18090111161794, 35.58471664760682], [140.1811022373094, 35.58456247138533], [140.18130536726403, 35.58441003451356]]}}, {"type": "Feature", "properties": {"id": "千葉東金道路-下り-0-10", "route": "千葉東金道路", "direction": "下り", "from": "大宮ＩＣ", "to": "高田ＩＣ", "grade": -0.54, "elevation_start": 43.0, "elevation_end": 41.7, "quality": "estimated", "structure": "normal", "chain_rank": 0, "cum_dist_start": 2500.0, "cum_dist_end": 2750.0, "anomaly": false}, "geometry": {"type": "LineString", "coordinates": [[140.18130536726403, 35.58441003451356], [140.18150916349384, 35.5842581968607], [140.1817143165587, 35.58410757948626], [140.1819205186009, 35.583957928798156], [140.18212812354955, 35.58380957096019], [140.18233752146978, 35.583662937726054], [140.18255032308983, 35.5835195784054], [140.1827631247099, 35.583376219084755], [140.18297765199614, 35.58323461696675], [140.18319508290588, 35.583095971535805], [140.1834131133968, 35.5829579586686]]}}, {"type": "Feature", "properties": {"id": "千葉東金道路-下り-0-11", "route": "千葉東金道路", "direction": "下り", "from": "大宮ＩＣ", "to": "高田ＩＣ", "grade": -1.43, "elevation_start": 41.7, "elevation_end": 38.1, "quality": "measured", "structure": "normal", "chain_rank": 0, "cum_dist_start": 2750.0, "cum_dist_end": 3000.0, "anomaly": false}, "geometry": {"type": "LineString", "coordinates": [[140.1834131133968, 35.5829579586686], [140.18363176367637, 35.5828205996842], [140.18385083399968, 35.582683690986364], [140.18407086924697, 35.582547816686194], [140.1842932846068, 35.58241460815466], [140.18451886148105, 35.582284940575796], [140.1847445731677, 35.58215543040437], [140.18497084851938, 35.58202657837023], [140.1851985177554, 35.58189939621994], [140.18542796221277, 35.58177434079811], [140.18565910100114, 35.581651408019674]]}}, {"type": "Feature", "properties": {"id": "千葉東金道路-下り-0-12", "route": "千葉東金道路", "direction": "下り", "from": "大宮ＩＣ", "to": "高田ＩＣ", "grade": -0.91, "elevation_start": 38.1, "elevation_end": 35.8, "quality": "measured", "structure": "normal", "chain_rank": 0, "cum_dist_start": 3000.0, "cum_dist_end": 3250.0, "anomaly": false}, "geometry": {"type": "LineString", "coordinates": [[140.18565910100114, 35.581651408019674], [140.18589163801403, 35.58153022692497], [140.18612417502692, 35.58140904583026], [140.1863567120398, 35.58128786473556], [140.1865892490527, 35.58116668364085], [140.18682178606556, 35.58104550254614], [140.18705432307846, 35.580924321451434], [140.18728686009135, 35.58080314035673], [140.18751943711905, 35.58068201102456], [140.1877529969767, 35.58056215306572], [140.1879865568344, 35.58044229510689]]}}, {"type": "Feature", "properties": {"id": "千葉東金道路-下り-0-13", "route": "千葉東金道路", "direction": "下り", "from": "大宮ＩＣ", "to": "高田ＩＣ", "grade": 0.29, "elevation_start": 35.8, "elevation_end": 36.5, "quality": "measured", "structure": "normal", "chain_rank": 0, "cum_dist_start": 3250.0, "cum_dist_end": 3500.0, "anomaly": false}, "geometry": {"type": "LineString", "coordinates": [[140.1879865568344, 35.58044229510689], [140.18822011669207, 35.580322437148055], [140.18845367654973, 35.580202579189226], [140.1886872364074, 35.58008272123039], [140.18892124666294, 35.57996345535423], [140.18915602410632, 35.57984519800563], [140.18939080154973, 35.579726940657025], [140.18962557899314, 35.57960868330842], [140.18986035643655, 35.57949042595982], [140.19009424754256, 35.57937101004849], [140.19032736732964, 35.57925058591913]]}}, {"type": "Feature", "properties": {"id": "千葉東金道路-下り-0-14", "route": "千葉東金道路", "direction": "下り", "from": "大宮ＩＣ", "to": "高田ＩＣ", "grade": 0.4, "elevation_start": 36.5, "elevation_end": 37.5, "quality": "measured", "structure": "normal", "chain_rank": 0, "cum_dist_start": 3500.0, "cum_dist_end": 3750.0, "anomaly": false}, "geometry": {"type": "LineString", "coordinates": [[140.19032736732964, 35.57925058591913], [140.19056048711673, 35.57913016178977], [140.1907936069038, 35.57900973766041], [140.1910266057421, 35.57888915971094], [140.19125957823755, 35.578768548259156], [140.19149255073296, 35.57864793680737], [140.1917255232284, 35.57852732535559], [140.1919584957238, 35.5784067139038], [140.19219146821925, 35.57828610245202], [140.1924244407147, 35.578165491000235], [140.1926574132101, 35.57804487954846]]}}, {"type": "Feature", "properties": {"id": "千葉東金道路-下り-0-15", "route": "千葉東金道路", "direction": "下り", "from": "大宮ＩＣ", "to": "高田ＩＣ", "grade": 0.35, "elevation_start": 37.5, "elevation_end": 38.4, "quality": "measured", "structure": "normal", "chain_rank": 0, "cum_dist_start": 3750.0, "cum_dist_end": 4000.0, "anomaly": false}, "geometry": {"type": "LineString", "coordinates": [[140.1926574132101, 35.57804487954846], [140.19289054046197, 35.57792446973533], [140.1931242738197, 35.57780484964287], [140.19335800717744, 35.57768522955041], [140.19359174053517, 35.57756560945795], [140.1938254738929, 35.57744598936549], [140.19405920725063, 35.57732636927303], [140.19429294060836, 35.577206749180576], [140.19452667396607, 35.57708712908811], [140.1947604073238, 35.57696750899566], [140.19499414068153, 35.576847888903195]]}}, {"type": "Feature", "properties": {"id": "千葉東金道路-下り-0-16", "route": "千葉東金道路", "direction": "下り", "from": "大宮ＩＣ", "to": "高田ＩＣ", "grade": 0.45, "elevation_start": 38.4, "elevation_end": 39.5, "quality": "measured", "structure": "normal", "chain_rank": 0, "cum_dist_start": 4000.0, "cum_dist_end": 4250.0, "anomaly": false}, "geometry": {"type": "LineString", "coordinates": [[140.19499414068153, 35.576847888903195], [140.19522787403926, 35.57672826881074], [140.195461607397, 35.57660864871828], [140.19569534075472, 35.57648902862582], [140.19593010941878, 35.57637079347923], [140.1961669946935, 35.57625538975654], [140.19640387996822, 35.57613998603386], [140.19664076524293, 35.57602458231118], [140.1968786516334, 35.57591058539211], [140.19711856755362, 35.575799440440775], [140.1973584834738, 35.575688295489435]]}}, {"type": "Feature", "properties": {"id": "千葉東金道路-下り-0-17", "route": "千葉東金道路", "direction": "下り", "from": "大宮ＩＣ", "to": "高田ＩＣ", "grade": 0.74, "elevation_start": 39.5, "elevation_end": 41.4, "quality": "measured", "structure": "normal", "chain_rank": 0, "cum_dist_start": 4250.0, "cum_dist_end": 4500.0, "anomaly": false}, "geometry": {"type": "LineString", "coordinates": [[140.1973584834738, 35.575688295489435], [140.19760145426045, 35.575581739072554], [140.197846011814, 35.57547756604452], [140.19809180324688, 35.57537539584172], [140.19833989135793, 35.57527695359246], [140.1985879945413, 35.575178537795516], [140.19883990029496, 35.57508679561036], [140.19909186840127, 35.574995169276164], [140.1993448644609, 35.574905452873594], [140.19960087878408, 35.574821798554325], [140.19985894587833, 35.57474233129096]]}}, {"type": "Feature", "properties": {"id": "千葉東金道路-下り-0-18", "route": "千葉東金道路", "direction": "下り", "from": "大宮ＩＣ", "to": "高田ＩＣ", "grade": 1.23, "elevation_start": 41.4, "elevation_end": 44.5, "quality": "measured", "structure": "normal", "chain_rank": 0, "cum_dist_start": 4500.0, "cum_dist_end": 4750.0, "anomaly": false}, "geometry": {"type": "LineString", "coordinates": [[140.19985894587833, 35.57474233129096], [140.20011972798585, 35.574668991439005], [140.20038113070365, 35.57459714470356], [140.20064396017506, 35.574528904281706], [140.20090762365214, 35.574462810959744], [140.20117242562256, 35.57439981723714], [140.20143794449817, 35.57433889280184], [140.2017044279357, 35.574280932376666], [140.20197292224844, 35.57422941868481], [140.2022414165612, 35.57417790499294], [140.20251027409688, 35.574127675654196]]}}, {"type": "Feature", "properties": {"id": "千葉東金道路-下り-0-19", "route": "千葉東金道路", "direction": "下り", "from": "大宮ＩＣ", "to": "高田ＩＣ", "grade": 1.55, "elevation_start": 44.5, "elevation_end": 48.4, "quality": "measured", "structure": "normal", "chain_rank": 0, "cum_dist_start": 4750.0, "cum_dist_end": 5000.0, "anomaly": false}, "geometry": {"type": "LineString", "coordinates": [[140.20251027409688, 35.574127675654196], [140.20277918320662, 35.57407762868099], [140.20304809231638, 35.57402758170778], [140.20331823554304, 35.573982434790594], [140.20358947842175, 35.5739416540374], [140.2038607213005, 35.573900873284195], [140.2041319641792, 35.573860092531], [140.2044032070579, 35.573819311777804], [140.20467500734435, 35.573781111316364], [140.2049469376198, 35.5737435125862], [140.20521886789527, 35.57370591385604]]}}, {"type": "Feature", "properties": {"id": "千葉東金道路-下り-0-20", "route": "千葉東金道路", "direction": "下り", "from": "大宮ＩＣ", "to": "高田ＩＣ", "grade": 0.67, "elevation_start": 48.4, "elevation_end": 50.0, "quality": "measured", "structure": "normal", "chain_rank": 0, "cum_dist_start": 5000.0, "cum_dist_end": 5250.0, "anomaly": false}, "geometry": {"type": "LineString", "coordinates": [[140.20521886789527, 35.57370591385604], [140.2054913632421, 35.57367117439563], [140.20576395159554, 35.57363690555027], [140.20603653994903, 35.57360263670492], [140.20630968581608, 35.57357147699664], [140.20658284393178, 35.57354038559646], [140.2068560020475, 35.57350929419627], [140.20712945660685, 35.573480058991876], [140.20740322929367, 35.57345281575741], [140.2076770019805, 35.57342557252295], [140.20795091266706, 35.573399322314245]]}}, {"type": "Feature", "properties": {"id": "千葉東金道路-下り-0-21", "route": "千葉東金道路", "direction": "下り", "from": "大宮ＩＣ", "to": "高田ＩＣ", "grade": -0.94, "elevation_start": 50.0, "elevation_end": 47.7, "quality": "measured", "structure": "normal", "chain_rank": 0, "cum_dist_start": 5250.0, "cum_dist_end": 5500.0, "anomaly": false}, "geometry": {"type": "LineString", "coordinates": [[140.20795091266706, 35.573399322314245], [140.20822518859373, 35.57337570031902], [140.2084994645204, 35.573352078323786], [140.20877374044704, 35.573328456328554], [140.20904854142694, 35.573309351834034], [140.20932335507078, 35.573290356298635], [140.20959816871462, 35.57327136076323], [140.20987296967363, 35.573252244334356], [140.2101477588171, 35.57323301529723], [140.21042284283604, 35.57321695186685], [140.2106980281143, 35.57320197549675]]}}, {"type": "Feature", "properties": {"id": "千葉東金道路-下り-0-22", "route": "千葉東金道路", "direction": "下り", "from": "大宮ＩＣ", "to": "高田ＩＣ", "grade": -1.36, "elevation_start": 47.7, "elevation_end": 44.3, "quality": "estimated", "structure": "normal", "chain_rank": 0, "cum_dist_start": 5500.0, "cum_dist_end": 5750.0, "anomaly": false}, "geometry": {"type": "LineString", "coordinates": [[140.2106980281143, 35.57320197549675], [140.2109732288053, 35.57318719180978], [140.21124844613888, 35.57317261618188], [140.21152366347243, 35.57315804055398], [140.21179888080601, 35.573143464926076], [140.2120740981396, 35.573128889298175], [140.21234942087932, 35.573115765863264], [140.21262481508404, 35.57310362700963], [140.21290020928873, 35.57309148815599], [140.21317560349345, 35.57307934930235], [140.21345099769815, 35.57306721044871]]}}, {"type": "Feature", "properties": {"id": "千葉東金道路-下り-0-23", "route": "千葉東金道路", "direction": "下り", "from": "大宮ＩＣ", "to": "高田ＩＣ", "grade": -0.59, "elevation_start": 44.3, "elevation_end": 42.8, "quality": "estimated", "structure": "bridge", "chain_rank": 0, "cum_dist_start": 5750.0, "cum_dist_end": 6000.0, "anomaly": false}, "geometry": {"type": "LineString", "coordinates": [[140.21345099769815, 35.57306721044871], [140.21372639190287, 35.57305507159507], [140.21400170341718, 35.573041815977376], [140.21427688255636, 35.573026772584555], [140.21455206169554, 35.57301172919173], [140.21482724083472, 35.572996685798906], [140.2151024385436, 35.57298187488618], [140.21537766620145, 35.57296743891541], [140.2156528938593, 35.57295300294464], [140.21592812151715, 35.57293856697387], [140.21620334917503, 35.5729241310031]]}}, {"type": "Feature", "properties": {"id": "千葉東金道路-下り-0-24", "route": "千葉東金道路", "direction": "下り", "from": "大宮ＩＣ", "to": "高田ＩＣ", "grade": -0.18, "elevation_start": 42.8, "elevation_end": 42.4, "quality": "estimated", "structure": "bridge", "chain_rank": 0, "cum_dist_start": 6000.0, "cum_dist_end": 6250.0, "anomaly": false}, "geometry": {"type": "LineString", "coordinates": [[140.21620334917503, 35.5729241310031], [140.21647811894286, 35.57290507638967], [140.21675260430862, 35.57288315307106], [140.2170270896744, 35.57286122975246], [140.21730157504015, 35.572839306433856], [140.21757606040595, 35.57281738311526], [140.2178505457717, 35.57279545979665], [140.21812503113748, 35.57277353647805], [140.218399131213, 35.5727486106439], [140.21867321976833, 35.57272359503431], [140.21894730832366, 35.57269857942473]]}}, {"type": "Feature", "properties": {"id": "千葉東金道路-下り-0-25", "route": "千葉東金道路", "direction": "下り", "from": "高田ＩＣ", "to": "野呂ＰＡ", "grade": 1.67, "elevation_start": 42.4, "elevation_end": 46.5, "quality": "measured", "structure": "normal", "chain_rank": 0, "cum_dist_start": 6250.0, "cum_dist_end": 6500.0, "anomaly": false}, "geometry": {"type": "LineString", "coordinates": [[140.21894730832366, 35.57269857942473], [140.2192213272002, 35.57267310094416], [140.21949466964261, 35.57264312896306], [140.21976786295255, 35.57261234452983], [140.2200399438162, 35.57257549965117], [140.22031202983644, 35.57253868073911], [140.2205841247266, 35.57250190649317], [140.22085621961676, 35.57246513224723], [140.22112752692377, 35.57242483818206], [140.22139795171938, 35.57238060005033], [140.22166818325204, 35.57233562329351]]}}, {"type": "Feature", "properties": {"id": "千葉東金道路-下り-0-26", "route": "千葉東金道路", "direction": "下り", "from": "高田ＩＣ", "to": "野呂ＰＡ", "grade": 1.23, "elevation_start": 46.5, "elevation_end": 49.6, "quality": "measured", "structure": "normal", "chain_rank": 0, "cum_dist_start": 6500.0, "cum_dist_end": 6750.0, "anomaly": false}, "geometry": {"type": "LineString", "coordinates": [[140.22166818325204, 35.57233562329351], [140.2219371180735, 35.57228569068112], [140.22220605289496, 35.57223575806872], [140.22247498771642, 35.57218582545633], [140.22274318377123, 35.57213338564603], [140.2230104796229, 35.57207789076089], [140.22327777547457, 35.57202239587574], [140.22354507132624, 35.571966900990596], [140.22381056535332, 35.571905989914995], [140.2240754800958, 35.57184333754015], [140.22434039483826, 35.57178068516531]]}}, {"type": "Feature", "properties": {"id": "千葉東金道路-下り-0-27", "route": "千葉東金道路", "direction": "下り", "from": "高田ＩＣ", "to": "野呂ＰＡ", "grade": 0.5, "elevation_start": 49.6, "elevation_end": 50.9, "quality": "measured", "structure": "normal", "chain_rank": 0, "cum_dist_start": 6750.0, "cum_dist_end": 7000.0, "anomaly": false}, "geometry": {"type": "LineString", "coordinates": [[140.22434039483826, 35.57178068516531], [140.22460530958074, 35.571718032790464], [140.22486796196424, 35.57164937403156], [140.225130167546, 35.571579529049394], [140.2253918348874, 35.571508379725195], [140.22565229323416, 35.57143430059029], [140.225912718137, 35.57136014346739], [140.22617295285377, 35.571285542848585], [140.22643318757056, 35.571210942229776], [140.22669086603753, 35.57113074652465], [140.22694729124666, 35.57104780770499]]}}, {"type": "Feature", "properties": {"id": "千葉東金道路-下り-0-28", "route": "千葉東金道路", "direction": "下り", "from": "高田ＩＣ", "to": "野呂ＰＡ", "grade": -0.34, "elevation_start": 50.9, "elevation_end": 50.0, "quality": "measured", "structure": "normal", "chain_rank": 0, "cum_dist_start": 7000.0, "cum_dist_end": 7250.0, "anomaly": false}, "geometry": {"type": "LineString", "coordinates": [[140.22694729124666, 35.57104780770499], [140.22720371645576, 35.57096486888534], [140.22746116652397, 35.57088408892777], [140.22771892885262, 35.57080396674581], [140.22797669118128, 35.570723844563844], [140.22823445350997, 35.57064372238188], [140.22849223107397, 35.57056363318677], [140.2287503633311, 35.570484311955916], [140.2290084955882, 35.570404990725066], [140.22926913689474, 35.57033147409894], [140.2295309801161, 35.57026073806388]]}}, {"type": "Feature", "properties": {"id": "千葉東金道路-下り-0-29", "route": "千葉東金道路", "direction": "下り", "from": "高田ＩＣ", "to": "野呂ＰＡ", "grade": -0.0, "elevation_start": 50.0, "elevation_end": 50.0, "quality": "measured", "structure": "normal", "chain_rank": 0, "cum_dist_start": 7250.0, "cum_dist_end": 7500.0, "anomaly": false}, "geometry": {"type": "LineString", "coordinates": [[140.2295309801161, 35.57026073806388], [140.22979411044093, 35.570193328711404], [140.23005813186842, 35.57012822252702], [140.23032399508548, 35.570068341942786], [140.2305904499262, 35.5700102936604], [140.2308583072783, 35.56995665956468], [140.2311262496482, 35.56990334868721], [140.2313974243897, 35.56986232654299], [140.23166938966844, 35.56982530273862], [140.23194259507207, 35.56979456565407], [140.23221586185795, 35.56976419507762]]}}, {"type": "Feature", "properties": {"id": "千葉東金道路-下り-0-30", "route": "千葉東金道路", "direction": "下り", "from": "高田ＩＣ", "to": "野呂ＰＡ", "grade": 0.42, "elevation_start": 50.0, "elevation_end": 51.0, "quality": "measured", "structure": "normal", "chain_rank": 0, "cum_dist_start": 7500.0, "cum_dist_end": 7750.0, "anomaly": false}, "geometry": {"type": "LineString", "coordinates": [[140.23221586185795, 35.56976419507762], [140.2324903872615, 35.56974346797185], [140.2327653472522, 35.569726070653076], [140.2330407670149, 35.56971493964986], [140.23331635759422, 35.56970721452452], [140.23359213329095, 35.56970556017113], [140.23386788203769, 35.569705887283114], [140.2341435446274, 35.56971254899139], [140.2344189069874, 35.569723780033215], [140.23469385799532, 35.56974127163107], [140.2349686849597, 35.569759984485465]]}}, {"type": "Feature", "properties": {"id": "千葉東金道路-下り-0-31", "route": "千葉東金道路", "direction": "下り", "from": "野呂PA", "to": "中野ＩＣ", "grade": 0.86, "elevation_start": 51.0, "elevation_end": 53.2, "quality": "measured", "structure": "normal", "chain_rank": 0, "cum_dist_start": 7750.0, "cum_dist_end": 8000.0, "anomaly": false}, "geometry": {"type": "LineString", "coordinates": [[140.2349686849597, 35.569759984485465], [140.23524340173836, 35.56977978216131], [140.23551731705308, 35.569805201664614], [140.2357902469608, 35.56983753325475], [140.23606317686847, 35.56986986484488], [140.23633610677618, 35.56990219643501], [140.2366090366839, 35.56993452802514], [140.23688196659157, 35.56996685961528], [140.23715493326083, 35.569998984588445], [140.23742800635293, 35.570030454730116], [140.23770196558718, 35.57005623854755]]}}, {"type": "Feature", "properties": {"id": "千葉東金道路-下り-0-32", "route": "千葉東金道路", "direction": "下り", "from": "野呂PA", "to": "中野ＩＣ", "grade": -3.33, "elevation_start": 53.2, "elevation_end": 44.9, "quality": "measured", "structure": "normal", "chain_rank": 0, "cum_dist_start": 8000.0, "cum_dist_end": 8250.0, "anomaly": false}, "geometry": {"type": "LineString", "coordinates": [[140.23770196558718, 35.57005623854755], [140.23797702894478, 35.57007252122621], [140.23825221082723, 35.570087351398676], [140.23852753573158, 35.570100279311546], [140.23880302733195, 35.57011066139358], [140.23907867895255, 35.570116603676354], [140.23935441250245, 35.570117589222285], [140.23963000471701, 35.5701091759286], [140.23990472005448, 35.57008989678847], [140.24017916598018, 35.57006776172748], [140.240453389013, 35.57004381933893]]}}, {"type": "Feature", "properties": {"id": "千葉東金道路-下り-0-33", "route": "千葉東金道路", "direction": "下り", "from": "野呂PA", "to": "中野ＩＣ", "grade": 4.91, "elevation_start": 44.9, "elevation_end": 57.1, "quality": "measured", "structure": "normal", "chain_rank": 0, "cum_dist_start": 8250.0, "cum_dist_end": 8500.0, "anomaly": false}, "geometry": {"type": "LineString", "coordinates": [[140.240453389013, 35.57004381933893], [140.2407259870494, 35.57000975641927], [140.2409979900398, 35.5699726101719], [140.24126922679565, 35.56993203533108], [140.24153909640353, 35.56988562174719], [140.24180887318983, 35.56983886473419], [140.24207757584955, 35.56978813357688], [140.24234504450527, 35.569733452136774], [140.2426106476625, 35.56967279887921], [140.2428762508197, 35.56961214562165], [140.24314185397694, 35.56955149236408]]}}, {"type": "Feature", "properties": {"id": "千葉東金道路-下り-0-34", "route": "千葉東金道路", "direction": "下り", "from": "野呂PA", "to": "中野ＩＣ", "grade": 0.77, "elevation_start": 57.1, "elevation_end": 59.1, "quality": "measured", "structure": "normal", "chain_rank": 0, "cum_dist_start": 8500.0, "cum_dist_end": 8750.0, "anomaly": false}, "geometry": {"type": "LineString", "coordinates": [[140.24314185397694, 35.56955149236408], [140.24340745713417, 35.569490839106514], [140.2436730602914, 35.56943018584895], [140.24393866344863, 35.56936953259139], [140.24420426660586, 35.56930887933382], [140.24447021101872, 35.56924929718862], [140.24473828592815, 35.56919640211659], [140.24500587716062, 35.56914192175885], [140.24527298271562, 35.56908584955866], [140.24554165850614, 35.56903516421993], [140.24581142423165, 35.56898849773039]]}}, {"type": "Feature", "properties": {"id": "千葉東金道路-下り-0-35", "route": "千葉東金道路", "direction": "下り", "from": "野呂PA", "to": "中野ＩＣ", "grade": 0.43, "elevation_start": 59.1, "elevation_end": 60.1, "quality": "measured", "structure": "normal", "chain_rank": 0, "cum_dist_start": 8750.0, "cum_dist_end": 9000.0, "anomaly": false}, "geometry": {"type": "LineString", "coordinates": [[140.24581142423165, 35.56898849773039], [140.2460829873776, 35.56894924231331], [140.24635503432083, 35.56891234966789], [140.24662744481324, 35.568877232525814], [140.24690117703307, 35.56884983703412], [140.24717518148265, 35.56882451986117], [140.24744987850627, 35.5688045700968], [140.24772473732597, 35.56878628206741], [140.24799983885183, 35.568770486764485], [140.2482753006553, 35.5687599881291], [140.24855089806357, 35.56875263515557]]}}, {"type": "Feature", "properties": {"id": "千葉東金道路-下り-0-36", "route": "千葉東金道路", "direction": "下り", "from": "野呂PA", "to": "中野ＩＣ", "grade": -0.06, "elevation_start": 60.1, "elevation_end": 60.0, "quality": "measured", "structure": "normal", "chain_rank": 0, "cum_dist_start": 9000.0, "cum_dist_end": 9250.0, "anomaly": false}, "geometry": {"type": "LineString", "coordinates": [[140.24855089806357, 35.56875263515557], [140.24882667766454, 35.56875232468037], [140.24910245473703, 35.56875133174096], [140.2493782308755, 35.56875102746017], [140.249654005378, 35.56875243198045], [140.24992961277883, 35.568759372036645], [140.25020506526874, 35.568769973638595], [140.25047980025155, 35.568789570473534], [140.25075408945142, 35.56881270531155], [140.25102794797547, 35.56883925825328], [140.2513011766667, 35.56886981256742]]}}, {"type": "Feature", "properties": {"id": "千葉東金道路-下り-0-37", "route": "千葉東金道路", "direction": "下り", "from": "野呂PA", "to": "中野ＩＣ", "grade": -0.62, "elevation_start": 60.0, "elevation_end": 58.4, "quality": "measured", "structure": "normal", "chain_rank": 0, "cum_dist_start": 9250.0, "cum_dist_end": 9500.0, "anomaly": false}, "geometry": {"type": "LineString", "coordinates": [[140.2513011766667, 35.56886981256742], [140.2515743444394, 35.568900753900905], [140.25184643241883, 35.56893749737091], [140.252117895904, 35.568977086438096], [140.25238860629796, 35.56902009480231], [140.2526575048842, 35.56906999310475], [140.25292565934038, 35.56912257911624], [140.25319260570217, 35.56917915566324], [140.25345942244155, 35.56923612883789], [140.25372534056842, 35.56929585164973], [140.2539912586953, 35.56935557446156]]}}, {"type": "Feature", "properties": {"id": "千葉東金道路-下り-0-38", "route": "千葉東金道路", "direction": "下り", "from": "野呂PA", "to": "中野ＩＣ", "grade": -0.68, "elevation_start": 58.4, "elevation_end": 56.7, "quality": "measured", "structure": "normal", "chain_rank": 0, "cum_dist_start": 9500.0, "cum_dist_end": 9750.0, "anomaly": false}, "geometry": {"type": "LineString", "coordinates": [[140.2539912586953, 35.56935557446156], [140.25425586891183, 35.56941903731751], [140.25452024931676, 35.5694831573329], [140.25478462972168, 35.569547277348285], [140.25504891497243, 35.56961166085615], [140.2553130933303, 35.569676340362136], [140.25557727168817, 35.56974101986813], [140.25584145004603, 35.56980569937412], [140.2561056284039, 35.56987037888012], [140.25636980676177, 35.56993505838611], [140.25663398511966, 35.569999737892104]]}}, {"type": "Feature", "properties": {"id": "千葉東金道路-下り-0-39", "route": "千葉東金道路", "direction": "下り", "from": "野呂PA", "to": "中野ＩＣ", "grade": -0.66, "elevation_start": 56.7, "elevation_end": 55.1, "quality": "measured", "structure": "normal", "chain_rank": 0, "cum_dist_start": 9750.0, "cum_dist_end": 10000.0, "anomaly": false}, "geometry": {"type": "LineString", "coordinates": [[140.25663398511966, 35.569999737892104], [140.25689816347753, 35.57006441739809], [140.2571623418354, 35.57012909690409], [140.25742652019326, 35.57019377641008], [140.25769069855113, 35.57025845591607], [140.257954876909, 35.570323135422065], [140.25821905526686, 35.570387814928054], [140.25848323362473, 35.57045249443405], [140.25874741198263, 35.57051717394004], [140.2590115903405, 35.570581853446036], [140.25927576869836, 35.570646532952026]]}}, {"type": "Feature", "properties": {"id": "千葉東金道路-下り-0-40", "route": "千葉東金道路", "direction": "下り", "from": "野呂PA", "to": "中野ＩＣ", "grade": -0.67, "elevation_start": 55.1, "elevation_end": 53.4, "quality": "measured", "structure": "normal", "chain_rank": 0, "cum_dist_start": 10000.0, "cum_dist_end": 10250.0, "anomaly": false}, "geometry": {"type": "LineString", "coordinates": [[140.25927576869836, 35.570646532952026], [140.25953995451994, 35.57071119312755], [140.25980417374555, 35.57077576678892], [140.26006839297116, 35.57084034045029], [140.26033241190385, 35.570905459910946], [140.26059639168005, 35.57097068607326], [140.26086037145623, 35.571035912235565], [140.26112435123244, 35.57110113839788], [140.26138833893674, 35.571166343253104], [140.2616524598265, 35.571231190166785], [140.26191658071625, 35.571296037080465]]}}, {"type": "Feature", "properties": {"id": "千葉東金道路-下り-0-41", "route": "千葉東金道路", "direction": "下り", "from": "中野ＩＣ", "to": null, "grade": -1.33, "elevation_start": 53.4, "elevation_end": 50.1, "quality": "estimated", "structure": "normal", "chain_rank": 0, "cum_dist_start": 10250.0, "cum_dist_end": 10500.0, "anomaly": false}, "geometry": {"type": "LineString", "coordinates": [[140.26191658071625, 35.571296037080465], [140.262180701606, 35.571360883994146], [140.26244482249578, 35.571425730907826], [140.26270894338555, 35.57149057782151], [140.26297306427531, 35.57155542473519], [140.2632371973954, 35.571620241835156], [140.2635013339369, 35.57168505059482], [140.26376547047838, 35.57174985935449], [140.26402960701986, 35.57181466811415], [140.26429374356135, 35.57187947687382], [140.26455788010284, 35.57194428563348]]}}, {"type": "Feature", "properties": {"id": "千葉東金道路-下り-0-42", "route": "千葉東金道路", "direction": "下り", "from": "中野ＩＣ", "to": null, "grade": 1.2, "elevation_start": 50.1, "elevation_end": 53.1, "quality": "estimated", "structure": "bridge", "chain_rank": 0, "cum_dist_start": 10500.0, "cum_dist_end": 10750.0, "anomaly": false}, "geometry": {"type": "LineString", "coordinates": [[140.26455788010284, 35.57194428563348], [140.26482201664433, 35.572009094393145], [140.26508615318582, 35.57207390315281], [140.2653502897273, 35.57213871191247], [140.26561430742092, 35.572203846119535], [140.26587829240236, 35.57226906990405], [140.26614227738378, 35.57233429368857], [140.26640626236522, 35.57239951747308], [140.26667024734664, 35.5724647412576], [140.26693435153473, 35.572529642059635], [140.2671986049469, 35.57259413854882]]}}, {"type": "Feature", "properties": {"id": "千葉東金道路-下り-0-43", "route": "千葉東金道路", "direction": "下り", "from": "中野ＩＣ", "to": null, "grade": 1.2, "elevation_start": 53.1, "elevation_end": 56.1, "quality": "estimated", "structure": "bridge", "chain_rank": 0, "cum_dist_start": 10750.0, "cum_dist_end": 11000.0, "anomaly": false}, "geometry": {"type": "LineString", "coordinates": [[140.2671986049469, 35.57259413854882], [140.26746285835912, 35.57265863503801], [140.2677264292985, 35.57272495883816], [140.2679897074036, 35.57279206669791], [140.26825298550864, 35.572859174557664], [140.2685170754209, 35.572923944158056], [140.26878427781668, 35.5729797488293], [140.26905148021248, 35.57303555350054], [140.2693186826083, 35.57309135817179], [140.2695872000851, 35.57314256968216], [140.2698569808483, 35.573189368934244]]}}, {"type": "Feature", "properties": {"id": "千葉東金道路-下り-0-44", "route": "千葉東金道路", "direction": "下り", "from": "中野ＩＣ", "to": null, "grade": 0.77, "elevation_start": 56.1, "elevation_end": 58.0, "quality": "estimated", "structure": "normal", "chain_rank": 0, "cum_dist_start": 11000.0, "cum_dist_end": 11250.0, "anomaly": false}, "geometry": {"type": "LineString", "coordinates": [[140.2698569808483, 35.573189368934244], [140.27012795346695, 35.57323115301536], [140.27039964831596, 35.573269853184414], [140.27067175940422, 35.57330656050179], [140.27094509663712, 35.57333656456424], [140.27121975202041, 35.57335687505727], [140.27149451706552, 35.57337633611624], [140.27176963847742, 35.57339104198124], [140.27204528484268, 35.573398170469396], [140.2723210699322, 35.57340015508393], [140.27259675028498, 35.57339462309268]]}}, {"type": "Feature", "properties": {"id": "千葉東金道路-下り-0-45", "route": "千葉東金道路", "direction": "下り", "from": "中野ＩＣ", "to": null, "grade": 0.93, "elevation_start": 58.0, "elevation_end": 60.4, "quality": "measured", "structure": "normal", "chain_rank": 0, "cum_dist_start": 11250.0, "cum_dist_end": 11500.0, "anomaly": false}, "geometry": {"type": "LineString", "coordinates": [[140.27259675028498, 35.57339462309268], [140.27287199270194, 35.573380762874564], [140.27314666326984, 35.57336063434891], [140.2734205274382, 35.573334341833295], [140.2736935022886, 35.57330238081484], [140.27396525423853, 35.573263938618354], [140.27423565701233, 35.57321962763033], [140.27450473722112, 35.573170303372], [140.2747723213527, 35.57311584581093], [140.27503844581446, 35.57305672813724], [140.27530361097624, 35.57299477565442]]}}, {"type": "Feature", "properties": {"id": "千葉東金道路-下り-0-46", "route": "千葉東金道路", "direction": "下り", "from": "中野ＩＣ", "to": null, "grade": 0.53, "elevation_start": 60.4, "elevation_end": 61.7, "quality": "measured", "structure": "normal", "chain_rank": 0, "cum_dist_start": 11500.0, "cum_dist_end": 11750.0, "anomaly": false}, "geometry": {"type": "LineString", "coordinates": [[140.27530361097624, 35.57299477565442], [140.27556681492712, 35.57292751094482], [140.27582964689702, 35.57285924809918], [140.27609097804827, 35.57278724151695], [140.2763523091995, 35.572715234934726], [140.27661364035072, 35.5726432283525], [140.27687497150197, 35.57257122177027], [140.2771363026532, 35.572499215188046], [140.27739763380444, 35.572427208605816], [140.27765896495566, 35.57235520202359], [140.27792029610688, 35.572283195441365]]}}, {"type": "Feature", "properties": {"id": "千葉東金道路-下り-0-47", "route": "千葉東金道路", "direction": "下り", "from": "中野ＩＣ", "to": null, "grade": -0.25, "elevation_start": 61.7, "elevation_end": 61.1, "quality": "measured", "structure": "normal", "chain_rank": 0, "cum_dist_start": 11750.0, "cum_dist_end": 12000.0, "anomaly": false}, "geometry": {"type": "LineString", "coordinates": [[140.27792029610688, 35.572283195441365], [140.27818194320645, 35.57221202093053], [140.27844725786272, 35.572150505179984], [140.27871525604996, 35.57209734603158], [140.2789847842396, 35.57204975043893], [140.27925646269637, 35.57201159064116], [140.27952978439546, 35.57198161246535], [140.27980376464782, 35.571955838666106], [140.2800782411344, 35.57193386692129], [140.28035373855045, 35.571925334273], [140.2806294852451, 35.57192256583148]]}}, {"type": "Feature", "properties": {"id": "千葉東金道路-下り-0-48", "route": "千葉東金道路", "direction": "下り", "from": "中野ＩＣ", "to": null, "grade": -0.98, "elevation_start": 61.1, "elevation_end": 58.6, "quality": "measured", "structure": "normal", "chain_rank": 0, "cum_dist_start": 12000.0, "cum_dist_end": 12250.0, "anomaly": false}, "geometry": {"type": "LineString", "coordinates": [[140.2806294852451, 35.57192256583148], [140.28090527595995, 35.5719225024109], [140.2811810666748, 35.57192243899033], [140.28145685738963, 35.57192237556975], [140.28173264810448, 35.57192231214918], [140.28200843881933, 35.5719222487286], [140.28228422953418, 35.571922185308026], [140.28256002024904, 35.57192212188745], [140.28283575707562, 35.57191849567748], [140.28311128835725, 35.57190989054956], [140.28338635183965, 35.571893621788874]]}}, {"type": "Feature", "properties": {"id": "千葉東金道路-下り-0-49", "route": "千葉東金道路", "direction": "下り", "from": "中野ＩＣ", "to": null, "grade": 0.73, "elevation_start": 58.6, "elevation_end": 60.4, "quality": "measured", "structure": "normal", "chain_rank": 0, "cum_dist_start": 12250.0, "cum_dist_end": 12500.0, "anomaly": false}, "geometry": {"type": "LineString", "coordinates": [[140.28338635183965, 35.571893621788874], [140.28366096094763, 35.571873012678786], [140.2839340516497, 35.57184156170428], [140.2842068801258, 35.57180863066367], [140.28447804452279, 35.57176789394051], [140.28474730291342, 35.57171934682886], [140.28501484255312, 35.57166472112505], [140.28528076186123, 35.57160498034899], [140.28554668116934, 35.57154523957292], [140.2858126004774, 35.571485498796854], [140.28607851978552, 35.57142575802079]]}}, {"type": "Feature", "properties": {"id": "千葉東金道路-下り-0-50", "route": "千葉東金道路", "direction": "下り", "from": "中野ＩＣ", "to": null, "grade": 1.16, "elevation_start": 60.4, "elevation_end": 63.3, "quality": "measured", "structure": "normal", "chain_rank": 0, "cum_dist_start": 12500.0, "cum_dist_end": 12750.0, "anomaly": false}, "geometry": {"type": "LineString", "coordinates": [[140.28607851978552, 35.57142575802079], [140.28634443909363, 35.57136601724472], [140.28661035840173, 35.571306276468654], [140.28687783619708, 35.57125144598733], [140.2871457636283, 35.57119803216479], [140.28741369105953, 35.57114461834225], [140.28768242229867, 35.571094000239455], [140.28795308214774, 35.57105136657575], [140.28822553750084, 35.571016455234506], [140.2884982719179, 35.57098301993304], [140.288772117732, 35.57095643867907]]}}, {"type": "Feature", "properties": {"id": "千葉東金道路-下り-0-51", "route": "千葉東金道路", "direction": "下り", "from": "中野ＩＣ", "to": null, "grade": 0.16, "elevation_start": 63.3, "elevation_end": 63.8, "quality": "measured", "structure": "normal", "chain_rank": 0, "cum_dist_start": 12750.0, "cum_dist_end": 13000.0, "anomaly": false}, "geometry": {"type": "LineString", "coordinates": [[140.288772117732, 35.57095643867907], [140.2890460984827, 35.570930689586305], [140.2893203070639, 35.570906616710786], [140.28959503113256, 35.57088778547068], [140.28987043188164, 35.5708758618975], [140.29014597052202, 35.57086803734237], [140.29042175210697, 35.57086839785494], [140.29069751946858, 35.57087109498083], [140.2909732506752, 35.570875302878456], [140.29124893623654, 35.57088141810567], [140.2915241832604, 35.57089451643553]]}}, {"type": "Feature", "properties": {"id": "千葉東金道路-下り-0-52", "route": "千葉東金道路", "direction": "下り", "from": "中野ＩＣ", "to": null, "grade": -0.8, "elevation_start": 63.8, "elevation_end": 61.8, "quality": "measured", "structure": "normal", "chain_rank": 0, "cum_dist_start": 13000.0, "cum_dist_end": 13250.0, "anomaly": false}, "geometry": {"type": "LineString", "coordinates": [[140.2915241832604, 35.57089451643553], [140.29179918263242, 35.5709115358685], [140.29207416902992, 35.57092869562217], [140.29234889384844, 35.57094823236571], [140.29262253781854, 35.57097556290525], [140.29289465396934, 35.57101220683592], [140.29316634570006, 35.57105084738038], [140.29343754029517, 35.571091754254304], [140.2937066356328, 35.57114109259497], [140.29397492830816, 35.57119317749358], [140.2942422737392, 35.57124850368264]]}}, {"type": "Feature", "properties": {"id": "千葉東金道路-下り-0-53", "route": "千葉東金道路", "direction": "下り", "from": "中野ＩＣ", "to": null, "grade": -1.77, "elevation_start": 61.8, "elevation_end": 57.3, "quality": "measured", "structure": "normal", "chain_rank": 0, "cum_dist_start": 13250.0, "cum_dist_end": 13500.0, "anomaly": false}, "geometry": {"type": "LineString", "coordinates": [[140.2942422737392, 35.57124850368264], [140.29450689840488, 35.571311908021386], [140.29477055775627, 35.57137794888945], [140.29503301718648, 35.57144715277848], [140.29529400131793, 35.5715199508644], [140.29555377157897, 35.57159560342439], [140.29581267638665, 35.57167323390074], [140.29606832257974, 35.57175775908341], [140.2963230632524, 35.571844084306996], [140.2965771500454, 35.57193170120759], [140.29683123683841, 35.57201931810818]]}}, {"type": "Feature", "properties": {"id": "千葉東金道路-下り-0-54", "route": "千葉東金道路", "direction": "下り", "from": "中野ＩＣ", "to": null, "grade": -2.69, "elevation_start": 57.3, "elevation_end": 50.6, "quality": "measured", "structure": "normal", "chain_rank": 0, "cum_dist_start": 13500.0, "cum_dist_end": 13750.0, "anomaly": false}, "geometry": {"type": "LineString", "coordinates": [[140.29683123683841, 35.57201931810818], [140.29708532363142, 35.572106935008776], [140.2973393616726, 35.57219464522112], [140.29759248899322, 35.57228409856653], [140.29784561631382, 35.572373551911944], [140.29809908462167, 35.57246235584732], [140.29835295034988, 35.57255040210592], [140.29860739145502, 35.57263733374342], [140.29886326538949, 35.57272138148175], [140.29912099262364, 35.572801536194234], [140.2993805216879, 35.57287775016298]]}}, {"type": "Feature", "properties": {"id": "千葉東金道路-下り-0-55", "route": "千葉東金道路", "direction": "下り", "from": "中野ＩＣ", "to": null, "grade": -3.68, "elevation_start": 50.6, "elevation_end": 41.4, "quality": "measured", "structure": "normal", "chain_rank": 0, "cum_dist_start": 13750.0, "cum_dist_end": 14000.0, "anomaly": false}, "geometry": {"type": "LineString", "coordinates": [[140.2993805216879, 35.57287775016298], [140.29964209912552, 35.5729491602841], [140.2999059939205, 35.57301461948654], [140.3001711173863, 35.573076420654274], [140.30043929724312, 35.573129003443505], [140.30070906361615, 35.5731758418317], [140.30098037016378, 35.5732161408915], [140.30125339977297, 35.57324770495154], [140.30152726500802, 35.573274234937564], [140.30180191375032, 35.57329344483428], [140.3020774407556, 35.573303383816075]]}}, {"type": "Feature", "properties": {"id": "千葉東金道路-下り-0-56", "route": "千葉東金道路", "direction": "下り", "from": "中野ＩＣ", "to": null, "grade": -3.12, "elevation_start": 41.4, "elevation_end": 33.6, "quality": "measured", "structure": "normal", "chain_rank": 0, "cum_dist_start": 14000.0, "cum_dist_end": 14250.0, "anomaly": false}, "geometry": {"type": "LineString", "coordinates": [[140.3020774407556, 35.573303383816075], [140.30235319126894, 35.57330334625633], [140.3026289573801, 35.57330121882693], [140.3029040004706, 35.57328458730658], [140.3031787829668, 35.573265829491284], [140.30345240234672, 35.57323758133668], [140.303724637512, 35.57320208901642], [140.3039957769046, 35.57316086206594], [140.30426611295076, 35.57311626443528], [140.3045363890663, 35.57307141534787], [140.30480666518184, 35.57302656626045]]}}, {"type": "Feature", "properties": {"id": "千葉東金道路-下り-0-57", "route": "千葉東金道路", "direction": "下り", "from": "中野ＩＣ", "to": null, "grade": -1.69, "elevation_start": 33.6, "elevation_end": 29.4, "quality": "measured", "structure": "normal", "chain_rank": 0, "cum_dist_start": 14250.0, "cum_dist_end": 14500.0, "anomaly": false}, "geometry": {"type": "LineString", "coordinates": [[140.30480666518184, 35.57302656626045], [140.3050769412974, 35.57298171717304], [140.30534721741293, 35.572936868085634], [140.30561763304866, 35.57289262735192], [140.30588944245258, 35.572854463904385], [140.3061625668778, 35.57282341949963], [140.30643695674866, 35.57280157242272], [140.30671218029573, 35.57278758997161], [140.3069877736052, 35.57277900245238], [140.3072634819985, 35.572773613809], [140.30753922756202, 35.57277779364497]]}}, {"type": "Feature", "properties": {"id": "千葉東金道路-上り-0-0", "route": "千葉東金道路", "direction": "上り", "from": null, "to": "中野ＩＣ", "grade": 1.57, "elevation_start": 29.6, "elevation_end": 33.5, "quality": "measured", "structure": "normal", "chain_rank": 0, "cum_dist_start": 0.0, "cum_dist_end": 250.0, "anomaly": false}, "geometry": {"type": "LineString", "coordinates": [[140.3075501, 35.5726849], [140.30727431754283, 35.572682901091504], [140.3069985734245, 35.572685438729934], [140.3067230778615, 35.57269590705067], [140.30644803761083, 35.572711895732716], [140.30617368651696, 35.57273462452506], [140.3059001446959, 35.57276311391848], [140.30562851102297, 35.57280210222869], [140.30535784805193, 35.57284530680266], [140.30508744752862, 35.57288965132378], [140.30481704700532, 35.572933995844885]]}}, {"type": "Feature", "properties": {"id": "千葉東金道路-上り-0-1", "route": "千葉東金道路", "direction": "上り", "from": null, "to": "中野ＩＣ", "grade": 3.01, "elevation_start": 33.5, "elevation_end": 41.1, "quality": "measured", "structure": "normal", "chain_rank": 0, "cum_dist_start": 250.0, "cum_dist_end": 500.0, "anomaly": false}, "geometry": {"type": "LineString", "coordinates": [[140.30481704700532, 35.572933995844885], [140.304546646482, 35.572978340366], [140.3042762459587, 35.573022684887114], [140.3040058454354, 35.57306702940823], [140.30373459194885, 35.5731077417834], [140.3034625828838, 35.573144552505305], [140.3031890985395, 35.57317365851915], [140.302914519661, 35.57319408436425], [140.3026395157251, 35.57321113930538], [140.30236377997682, 35.57321368072834], [140.30208802643597, 35.57321379043428]]}}, {"type": "Feature", "properties": {"id": "千葉東金道路-上り-0-2", "route": "千葉東金道路", "direction": "上り", "from": null, "to": "中野ＩＣ", "grade": 3.75, "elevation_start": 41.1, "elevation_end": 50.4, "quality": "measured", "structure": "normal", "chain_rank": 0, "cum_dist_start": 500.0, "cum_dist_end": 750.0, "anomaly": false}, "geometry": {"type": "LineString", "coordinates": [[140.30208802643597, 35.57321379043428], [140.3018125626953, 35.573202747937074], [140.30153791297374, 35.57318337190036], [140.3012641148041, 35.573156421835655], [140.30099092650192, 35.57312555774264], [140.30071902456731, 35.57308837278392], [140.30044951042058, 35.573040612225604], [140.30018182212655, 35.57298638425314], [140.29991721401228, 35.57292304171184], [140.29965371161535, 35.57285656274762], [140.2993925015758, 35.57278426120411]]}}, {"type": "Feature", "properties": {"id": "千葉東金道路-上り-0-3", "route": "千葉東金道路", "direction": "上り", "from": null, "to": "中野ＩＣ", "grade": 2.84, "elevation_start": 50.4, "elevation_end": 57.6, "quality": "measured", "structure": "normal", "chain_rank": 0, "cum_dist_start": 750.0, "cum_dist_end": 1000.0, "anomaly": false}, "geometry": {"type": "LineString", "coordinates": [[140.2993925015758, 35.57278426120411], [140.29913378654052, 35.57270620722905], [140.2988758284604, 35.572626500229944], [140.2986207274773, 35.57254108323731], [140.29836828075364, 35.572450392372176], [140.2981122971576, 35.572366539252535], [140.29785865478027, 35.572278134491384], [140.29760618856272, 35.57218744311881], [140.29735367806407, 35.57209683474712], [140.29710065779415, 35.572007181895565], [140.2968476375242, 35.571917529044015]]}}, {"type": "Feature", "properties": {"id": "千葉東金道路-上り-0-4", "route": "千葉東金道路", "direction": "上り", "from": null, "to": "中野ＩＣ", "grade": 1.77, "elevation_start": 57.6, "elevation_end": 62.0, "quality": "measured", "structure": "normal", "chain_rank": 0, "cum_dist_start": 1000.0, "cum_dist_end": 1250.0, "anomaly": false}, "geometry": {"type": "LineString", "coordinates": [[140.2968476375242, 35.571917529044015], [140.29659461725427, 35.57182787619246], [140.29634159698432, 35.57173822334091], [140.29608795252003, 35.5716497700375], [140.2958328440193, 35.571564208347276], [140.29557471017893, 35.571484887504454], [140.2953152454159, 35.57140851643446], [140.29505462779508, 35.57133482296403], [140.2947936299433, 35.57126205166891], [140.29452924237518, 35.571197935741516], [140.29426453220955, 35.5711347733279]]}}, {"type": "Feature", "properties": {"id": "千葉東金道路-上り-0-5", "route": "千葉東金道路", "direction": "上り", "from": null, "to": "中野ＩＣ", "grade": 0.78, "elevation_start": 62.0, "elevation_end": 63.9, "quality": "measured", "structure": "normal", "chain_rank": 0, "cum_dist_start": 1250.0, "cum_dist_end": 1500.0, "anomaly": false}, "geometry": {"type": "LineString", "coordinates": [[140.29426453220955, 35.5711347733279], [140.29399737951815, 35.57107883038186], [140.29372908313383, 35.571027028268645], [140.2934584173979, 35.570983804585275], [140.29318768524186, 35.57094087738731], [140.29291583273235, 35.570902951211856], [140.29264398022283, 35.57086502503641], [140.29237016213227, 35.570838187692054], [140.29209631110544, 35.57081153615766], [140.29182174666437, 35.57079073159671], [140.2915466315118, 35.57077554904257]]}}, {"type": "Feature", "properties": {"id": "千葉東金道路-上り-0-6", "route": "千葉東金道路", "direction": "上り", "from": null, "to": "中野ＩＣ", "grade": -0.15, "elevation_start": 63.9, "elevation_end": 63.5, "quality": "measured", "structure": "normal", "chain_rank": 0, "cum_dist_start": 1500.0, "cum_dist_end": 1750.0, "anomaly": false}, "geometry": {"type": "LineString", "coordinates": [[140.2915466315118, 35.57077554904257], [140.2912710870991, 35.57076610453511], [140.2909955355413, 35.57075680103586], [140.29071989693216, 35.570749790919606], [140.29044416923972, 35.57074526978069], [140.29016843152377, 35.57074951656619], [140.2898930502692, 35.57075931820766], [140.28961828086713, 35.570778654548405], [140.28934337631313, 35.57079665256733], [140.28906857948425, 35.570815579128904], [140.28879429616805, 35.57083907671783]]}}, {"type": "Feature", "properties": {"id": "千葉東金道路-上り-0-7", "route": "千葉東金道路", "direction": "上り", "from": null, "to": "中野ＩＣ", "grade": -1.24, "elevation_start": 63.5, "elevation_end": 60.5, "quality": "measured", "structure": "normal", "chain_rank": 0, "cum_dist_start": 1750.0, "cum_dist_end": 2000.0, "anomaly": false}, "geometry": {"type": "LineString", "coordinates": [[140.28879429616805, 35.57083907671783], [140.28852001285188, 35.57086257430675], [140.2882485960975, 35.57090219740282], [140.2879776001548, 35.570944013582064], [140.2877071761284, 35.57098819942443], [140.28743712085856, 35.57103390108548], [140.28716792621992, 35.57108286116789], [140.28689936457283, 35.57113406089172], [140.2866314564217, 35.57118753855565], [140.28636545795987, 35.571247008589694], [140.28609965913745, 35.57130710506769]]}}, {"type": "Feature", "properties": {"id": "千葉東金道路-上り-0-8", "route": "千葉東金道路", "direction": "上り", "from": null, "to": "中野ＩＣ", "grade": -0.85, "elevation_start": 60.5, "elevation_end": 58.3, "quality": "measured", "structure": "normal", "chain_rank": 0, "cum_dist_start": 2000.0, "cum_dist_end": 2250.0, "anomaly": false}, "geometry": {"type": "LineString", "coordinates": [[140.28609965913745, 35.57130710506769], [140.28583386031505, 35.57136720154569], [140.28556806149263, 35.571427298023686], [140.28530226267023, 35.57148739450168], [140.2850363231604, 35.57154705110683], [140.28476850695338, 35.57160084003605], [140.2844991092701, 35.571648947167645], [140.28422864488343, 35.57169284640303], [140.28395670099192, 35.57173034588139], [140.28368355988886, 35.571761409472224], [140.28340980554677, 35.57178804366853]]}}, {"type": "Feature", "properties": {"id": "千葉東金道路-上り-0-9", "route": "千葉東金道路", "direction": "上り", "from": null, "to": "中野ＩＣ", "grade": 1.09, "elevation_start": 58.3, "elevation_end": 61.1, "quality": "measured", "structure": "normal", "chain_rank": 0, "cum_dist_start": 2250.0, "cum_dist_end": 2500.0, "anomaly": false}, "geometry": {"type": "LineString", "coordinates": [[140.28340980554677, 35.57178804366853], [140.28313473231967, 35.57180428159364], [140.28285916364547, 35.57181244624767], [140.28258346220565, 35.571817433000795], [140.28230767406873, 35.5718165288313], [140.2820318859318, 35.571815624661795], [140.28175609779487, 35.5718147204923], [140.28148030965792, 35.571813816322795], [140.281204521521, 35.5718129121533], [140.28092873831142, 35.571812539417486], [140.28065299859165, 35.57181685722084]]}}, {"type": "Feature", "properties": {"id": "千葉東金道路-上り-0-10", "route": "千葉東金道路", "direction": "上り", "from": null, "to": "中野ＩＣ", "grade": 0.37, "elevation_start": 61.1, "elevation_end": 62.0, "quality": "measured", "structure": "normal", "chain_rank": 0, "cum_dist_start": 2500.0, "cum_dist_end": 2750.0, "anomaly": false}, "geometry": {"type": "LineString", "coordinates": [[140.28065299859165, 35.57181685722084], [140.28037733083312, 35.5718231753346], [140.28010175682567, 35.571832099450255], [140.27982709034202, 35.57185223626656], [140.27955275663234, 35.57187504700413], [140.27927942197897, 35.57190505072749], [140.2790075744174, 35.57194287693215], [140.2787375403898, 35.57198832034119], [140.27846968095608, 35.57204185692054], [140.27820332879273, 35.572100268547175], [140.27793818886542, 35.57216223092982]]}}, {"type": "Feature", "properties": {"id": "千葉東金道路-上り-0-11", "route": "千葉東金道路", "direction": "上り", "from": null, "to": "中野ＩＣ", "grade": -0.71, "elevation_start": 62.0, "elevation_end": 60.2, "quality": "measured", "structure": "normal", "chain_rank": 0, "cum_dist_start": 2750.0, "cum_dist_end": 3000.0, "anomaly": false}, "geometry": {"type": "LineString", "coordinates": [[140.27793818886542, 35.57216223092982], [140.27767689176153, 35.572234317754], [140.27741559465764, 35.572306404578185], [140.2771542090024, 35.572378276166376], [140.27689251021056, 35.57244938663375], [140.27663081141873, 35.57252049710112], [140.27636911262687, 35.572591607568484], [140.27610741383504, 35.57266271803585], [140.2758457150432, 35.57273382850322], [140.27558401625134, 35.572804938970584], [140.2753223174595, 35.57287604943796]]}}, {"type": "Feature", "properties": {"id": "千葉東金道路-上り-0-12", "route": "千葉東金道路", "direction": "上り", "from": null, "to": "中野ＩＣ", "grade": -0.98, "elevation_start": 60.2, "elevation_end": 57.8, "quality": "measured", "structure": "normal", "chain_rank": 0, "cum_dist_start": 3000.0, "cum_dist_end": 3250.0, "anomaly": false}, "geometry": {"type": "LineString", "coordinates": [[140.2753223174595, 35.57287604943796], [140.27505814042277, 35.57294061830522], [140.2747924136742, 35.57300086925114], [140.2745251849999, 35.57305658992668], [140.2742560061856, 35.57310564041666], [140.2739861798056, 35.57315205284126], [140.2737139660992, 35.57318793440996], [140.27344043692048, 35.57321675889357], [140.27316678657695, 35.573244781813614], [140.27289244432797, 35.57326688037759], [140.27261701658284, 35.573278510406446]]}}, {"type": "Feature", "properties": {"id": "千葉東金道路-上り-0-13", "route": "千葉東金道路", "direction": "上り", "from": null, "to": "中野ＩＣ", "grade": -0.8, "elevation_start": 57.8, "elevation_end": 55.8, "quality": "estimated", "structure": "normal", "chain_rank": 0, "cum_dist_start": 3250.0, "cum_dist_end": 3500.0, "anomaly": false}, "geometry": {"type": "LineString", "coordinates": [[140.27261701658284, 35.573278510406446], [140.27234147263752, 35.57328781517083], [140.2720657966398, 35.573287756256214], [140.27179011653192, 35.573281241897504], [140.2715146650111, 35.5732709912674], [140.27123961731044, 35.57325444078936], [140.2709647254945, 35.57323621754147], [140.27069160863584, 35.57320520421051], [140.27041971973247, 35.573167555038836], [140.27014822715233, 35.5731279103972], [140.2698773701687, 35.57308547714063]]}}, {"type": "Feature", "properties": {"id": "千葉東金道路-上り-0-14", "route": "千葉東金道路", "direction": "上り", "from": null, "to": "中野ＩＣ", "grade": -1.43, "elevation_start": 55.8, "elevation_end": 52.2, "quality": "estimated", "structure": "bridge", "chain_rank": 0, "cum_dist_start": 3500.0, "cum_dist_end": 3750.0, "anomaly": false}, "geometry": {"type": "LineString", "coordinates": [[140.2698773701687, 35.57308547714063], [140.26960744492146, 35.57303941750265], [140.26933879245243, 35.57298847141325], [140.26907110325567, 35.572934281006695], [140.2688037296236, 35.572879027772885], [140.26853635599156, 35.572823774539074], [140.26827181107004, 35.5727601402617], [140.2680075522142, 35.572695658414794], [140.26774329335834, 35.57263117656789], [140.2674790345025, 35.57256669472098], [140.26721477564664, 35.57250221287408]]}}, {"type": "Feature", "properties": {"id": "千葉東金道路-上り-0-15", "route": "千葉東金道路", "direction": "上り", "from": null, "to": "中野ＩＣ", "grade": -1.43, "elevation_start": 52.2, "elevation_end": 48.6, "quality": "estimated", "structure": "bridge", "chain_rank": 0, "cum_dist_start": 3750.0, "cum_dist_end": 4000.0, "anomaly": false}, "geometry": {"type": "LineString", "coordinates": [[140.26721477564664, 35.57250221287408], [140.26695051679079, 35.57243773102718], [140.26668634235335, 35.5723730207483], [140.26642221263984, 35.57230818944876], [140.26615808292632, 35.57224335814922], [140.26589380328718, 35.57217894010146], [140.26562914165257, 35.57211557497768], [140.2653646457357, 35.57205176221697], [140.26510134957925, 35.571984708662775], [140.26483805342278, 35.57191765510858], [140.26457409362865, 35.571852384272304]]}}, {"type": "Feature", "properties": {"id": "千葉東金道路-上り-0-16", "route": "千葉東金道路", "direction": "上り", "from": "中野ＩＣ", "to": "野呂PA", "grade": 1.9, "elevation_start": 48.6, "elevation_end": 53.4, "quality": "estimated", "structure": "normal", "chain_rank": 0, "cum_dist_start": 4000.0, "cum_dist_end": 4250.0, "anomaly": false}, "geometry": {"type": "LineString", "coordinates": [[140.26457409362865, 35.571852384272304], [140.2643097277384, 35.57178820432483], [140.26404536184816, 35.57172402437736], [140.26378099595792, 35.57165984442988], [140.26351663006767, 35.57159566448241], [140.26325226417742, 35.57153148453493], [140.26298797196452, 35.57146710425222], [140.2627238717949, 35.5714022017868], [140.26245977162526, 35.571337299321385], [140.26219567145563, 35.57127239685597], [140.261931571286, 35.571207494390556]]}}, {"type": "Feature", "properties": {"id": "千葉東金道路-上り-0-17", "route": "千葉東金道路", "direction": "上り", "from": "中野ＩＣ", "to": "野呂PA", "grade": 0.67, "elevation_start": 53.4, "elevation_end": 55.0, "quality": "measured", "structure": "normal", "chain_rank": 0, "cum_dist_start": 4250.0, "cum_dist_end": 4500.0, "anomaly": false}, "geometry": {"type": "LineString", "coordinates": [[140.261931571286, 35.571207494390556], [140.26166747111637, 35.57114259192514], [140.26140337094674, 35.57107768945972], [140.26113958811413, 35.571011934358935], [140.2608758062106, 35.57094617676191], [140.26061202430708, 35.57088041916487], [140.26034824240358, 35.57081466156784], [140.26008453299062, 35.57074871177418], [140.25982110168982, 35.57068202461247], [140.25955767038906, 35.57061533745076], [140.25929341009748, 35.57055088890268]]}}, {"type": "Feature", "properties": {"id": "千葉東金道路-上り-0-18", "route": "千葉東金道路", "direction": "上り", "from": "中野ＩＣ", "to": "野呂PA", "grade": 0.67, "elevation_start": 55.0, "elevation_end": 56.7, "quality": "measured", "structure": "normal", "chain_rank": 0, "cum_dist_start": 4500.0, "cum_dist_end": 4750.0, "anomaly": false}, "geometry": {"type": "LineString", "coordinates": [[140.25929341009748, 35.57055088890268], [140.25902900976388, 35.57048681852528], [140.25876460943027, 35.57042274814789], [140.25850020909667, 35.5703586777705], [140.25823580876303, 35.5702946073931], [140.25797140842943, 35.57023053701571], [140.25770700809582, 35.57016646663831], [140.25744260776221, 35.57010239626092], [140.2571782074286, 35.57003832588352], [140.256913807095, 35.56997425550613], [140.2566494067614, 35.569910185128734]]}}, {"type": "Feature", "properties": {"id": "千葉東金道路-上り-0-19", "route": "千葉東金道路", "direction": "上り", "from": "中野ＩＣ", "to": "野呂PA", "grade": 0.77, "elevation_start": 56.7, "elevation_end": 58.6, "quality": "measured", "structure": "normal", "chain_rank": 0, "cum_dist_start": 4750.0, "cum_dist_end": 5000.0, "anomaly": false}, "geometry": {"type": "LineString", "coordinates": [[140.2566494067614, 35.569910185128734], [140.2563850064278, 35.56984611475134], [140.25612060609419, 35.56978204437395], [140.25585620576055, 35.56971797399655], [140.25559180542695, 35.56965390361916], [140.25532740509334, 35.569589833241764], [140.25506300475973, 35.56952576286437], [140.2547988840534, 35.56946093402926], [140.25453496010934, 35.56939557149856], [140.25427103616528, 35.56933020896786], [140.2540065916433, 35.5692663284506]]}}, {"type": "Feature", "properties": {"id": "千葉東金道路-上り-0-20", "route": "千葉東金道路", "direction": "上り", "from": "中野ＩＣ", "to": "野呂PA", "grade": 0.61, "elevation_start": 58.6, "elevation_end": 60.2, "quality": "measured", "structure": "normal", "chain_rank": 0, "cum_dist_start": 5000.0, "cum_dist_end": 5250.0, "anomaly": false}, "geometry": {"type": "LineString", "coordinates": [[140.2540065916433, 35.5692663284506], [140.2537404222676, 35.56920735835382], [140.25347425289195, 35.569148388257034], [140.25320716887202, 35.569092253578326], [140.25294001671844, 35.56903633011554], [140.25267173112067, 35.568984177236665], [140.25240278885565, 35.56893443182642], [140.2521321921731, 35.56889094957152], [140.25186091374408, 35.56885048771645], [140.25158911748483, 35.568812333304784], [140.25131634216822, 35.56877916276319]]}}, {"type": "Feature", "properties": {"id": "千葉東金道路-上り-0-21", "route": "千葉東金道路", "direction": "上り", "from": "中野ＩＣ", "to": "野呂PA", "grade": 0.07, "elevation_start": 60.2, "elevation_end": 60.3, "quality": "measured", "structure": "normal", "chain_rank": 0, "cum_dist_start": 5250.0, "cum_dist_end": 5500.0, "anomaly": false}, "geometry": {"type": "LineString", "coordinates": [[140.25131634216822, 35.56877916276319], [140.25104347595888, 35.568746572412834], [140.25076927024492, 35.56872253245983], [140.25049489160142, 35.56869989882738], [140.2502203149554, 35.56867887541693], [140.24994516130792, 35.568663987644385], [140.2496698772591, 35.56865048651541], [140.249394312247, 35.56864195454377], [140.24911867743936, 35.568634656986816], [140.2488429266019, 35.56863446272532], [140.24856715161968, 35.56863574659395]]}}, {"type": "Feature", "properties": {"id": "千葉東金道路-上り-0-22", "route": "千葉東金道路", "direction": "上り", "from": "中野ＩＣ", "to": "野呂PA", "grade": -0.45, "elevation_start": 60.3, "elevation_end": 59.2, "quality": "measured", "structure": "normal", "chain_rank": 0, "cum_dist_start": 5500.0, "cum_dist_end": 5750.0, "anomaly": false}, "geometry": {"type": "LineString", "coordinates": [[140.24856715161968, 35.56863574659395], [140.2482915925277, 35.568644340828904], [140.2480161480518, 35.5686551889959], [140.24774100276852, 35.56867046232072], [140.24746619293052, 35.56868899012027], [140.2471917971543, 35.56871153512842], [140.24691781672797, 35.5687371020611], [140.24664413685156, 35.56876485567795], [140.246371294687, 35.56879759870196], [140.24609959715903, 35.56883606092951], [140.24582906850324, 35.56887970886048]]}}, {"type": "Feature", "properties": {"id": "千葉東金道路-上り-0-23", "route": "千葉東金道路", "direction": "上り", "from": "中野ＩＣ", "to": "野呂PA", "grade": -0.84, "elevation_start": 59.2, "elevation_end": 57.1, "quality": "measured", "structure": "normal", "chain_rank": 0, "cum_dist_start": 5750.0, "cum_dist_end": 6000.0, "anomaly": false}, "geometry": {"type": "LineString", "coordinates": [[140.24582906850324, 35.56887970886048], [140.2455594560029, 35.56892709368443], [140.24529038988695, 35.56897651221896], [140.245021323771, 35.56902593075348], [140.244754081289, 35.56908145279065], [140.24448762219674, 35.56913953293072], [140.24422169904213, 35.56919924152376], [140.24395577588749, 35.5692589501168], [140.24368985273287, 35.56931865870984], [140.24342392957823, 35.569378367302875], [140.2431580064236, 35.56943807589592]]}}, {"type": "Feature", "properties": {"id": "千葉東金道路-上り-0-24", "route": "千葉東金道路", "direction": "上り", "from": "中野ＩＣ", "to": "野呂PA", "grade": -4.96, "elevation_start": 57.1, "elevation_end": 44.7, "quality": "measured", "structure": "normal", "chain_rank": 0, "cum_dist_start": 6000.0, "cum_dist_end": 6250.0, "anomaly": false}, "geometry": {"type": "LineString", "coordinates": [[140.2431580064236, 35.56943807589592], [140.242892083269, 35.56949778448895], [140.24262616011436, 35.569557493081994], [140.24236023695974, 35.56961720167503], [140.24209326518317, 35.56967370148376], [140.24182627193022, 35.56973013557468], [140.24155796319022, 35.56978195259751], [140.241287911044, 35.5698276506509], [140.2410167814731, 35.56986885254375], [140.2407446710417, 35.56990524537349], [140.2404714356406, 35.569935615708594]]}}, {"type": "Feature", "properties": {"id": "千葉東金道路-上り-0-25", "route": "千葉東金道路", "direction": "上り", "from": "中野ＩＣ", "to": "野呂PA", "grade": 3.24, "elevation_start": 44.7, "elevation_end": 52.8, "quality": "measured", "structure": "normal", "chain_rank": 0, "cum_dist_start": 6250.0, "cum_dist_end": 6500.0, "anomaly": false}, "geometry": {"type": "LineString", "coordinates": [[140.2404714356406, 35.569935615708594], [140.24019725645016, 35.56995988805281], [140.23992260480688, 35.56998025018442], [140.23964739323168, 35.5699940324668], [140.2393718676629, 35.5700029470641], [140.2390960870399, 35.57000180814707], [140.2388203065331, 35.570000651287955], [140.23854469060035, 35.56999345372772], [140.238269577181, 35.56997896286519], [140.23799494875004, 35.56995836829966], [140.2377201912415, 35.56993894589044]]}}, {"type": "Feature", "properties": {"id": "千葉東金道路-上り-0-26", "route": "千葉東金道路", "direction": "上り", "from": "中野ＩＣ", "to": "野呂PA", "grade": -0.66, "elevation_start": 52.8, "elevation_end": 51.2, "quality": "measured", "structure": "normal", "chain_rank": 0, "cum_dist_start": 6500.0, "cum_dist_end": 6750.0, "anomaly": false}, "geometry": {"type": "LineString", "coordinates": [[140.2377201912415, 35.56993894589044], [140.23744624406115, 35.56991347248176], [140.23717284607412, 35.56988389805792], [140.23689950826142, 35.569853957438994], [140.23662620556172, 35.569823803137425], [140.23635290286205, 35.56979364883586], [140.23607960016236, 35.56976349453429], [140.23580629746266, 35.56973334023273], [140.23553295932896, 35.56970340956808], [140.23525927693436, 35.56967565165954], [140.2349855730686, 35.56964807662457]]}}, {"type": "Feature", "properties": {"id": "千葉東金道路-上り-0-27", "route": "千葉東金道路", "direction": "上り", "from": "野呂ＰＡ", "to": "高田ＩＣ", "grade": -0.36, "elevation_start": 51.2, "elevation_end": 50.3, "quality": "measured", "structure": "normal", "chain_rank": 0, "cum_dist_start": 6750.0, "cum_dist_end": 7000.0, "anomaly": false}, "geometry": {"type": "LineString", "coordinates": [[140.2349855730686, 35.56964807662457], [140.2347104236053, 35.56963281397838], [140.23443527414202, 35.5696175513322], [140.23415991571244, 35.56960579705235], [140.2338842527703, 35.56959915527997], [140.23360851444573, 35.569595657759955], [140.23333274467035, 35.56959347207258], [140.233057259884, 35.569602603060325], [140.23278183356464, 35.56961405572332], [140.23250719260986, 35.56963426620266], [140.2322326649884, 35.569655740493126]]}}, {"type": "Feature", "properties": {"id": "千葉東金道路-上り-0-28", "route": "千葉東金道路", "direction": "上り", "from": "野呂ＰＡ", "to": "高田ＩＣ", "grade": 0.01, "elevation_start": 50.3, "elevation_end": 50.3, "quality": "measured", "structure": "normal", "chain_rank": 0, "cum_dist_start": 7000.0, "cum_dist_end": 7250.0, "anomaly": false}, "geometry": {"type": "LineString", "coordinates": [[140.2322326649884, 35.569655740493126], [140.23195842123195, 35.56967905033947], [140.23168598494905, 35.56971404785004], [140.23141361953458, 35.56974937493435], [140.23114294293052, 35.56979252086362], [140.23087419382693, 35.56984308785722], [140.23060727381593, 35.56989951181453], [140.23034173012536, 35.56996034290717], [140.23007618643476, 35.570021173999805], [140.22981201230596, 35.570085817403395], [140.22954836616154, 35.57015193050384]]}}, {"type": "Feature", "properties": {"id": "千葉東金道路-上り-0-29", "route": "千葉東金道路", "direction": "上り", "from": "野呂ＰＡ", "to": "高田ＩＣ", "grade": 0.17, "elevation_start": 50.3, "elevation_end": 50.7, "quality": "measured", "structure": "normal", "chain_rank": 0, "cum_dist_start": 7250.0, "cum_dist_end": 7500.0, "anomaly": false}, "geometry": {"type": "LineString", "coordinates": [[140.22954836616154, 35.57015193050384], [140.22928516108146, 35.57021913289197], [140.22902528064253, 35.57029454607852], [140.22876540020357, 35.57036995926508], [140.22850737219426, 35.570449501851186], [140.22824951566992, 35.57052942034321], [140.2279917642085, 35.57060956662583], [140.22773401274708, 35.57068971290845], [140.22747626128563, 35.57076985919107], [140.2272185098242, 35.57085000547368], [140.2269607583628, 35.5709301517563]]}}, {"type": "Feature", "properties": {"id": "千葉東金道路-上り-0-30", "route": "千葉東金道路", "direction": "上り", "from": "野呂ＰＡ", "to": "高田ＩＣ", "grade": -0.51, "elevation_start": 50.7, "elevation_end": 49.5, "quality": "measured", "structure": "normal", "chain_rank": 0, "cum_dist_start": 7500.0, "cum_dist_end": 7750.0, "anomaly": false}, "geometry": {"type": "LineString", "coordinates": [[140.2269607583628, 35.5709301517563], [140.22670300690137, 35.57101029803892], [140.22644525543996, 35.571090444321534], [140.22618750397854, 35.571170590604154], [140.22592959453067, 35.57125038141621], [140.22566892345716, 35.571323958552505], [140.2254082523837, 35.57139753568879], [140.22514629332423, 35.57146790169062], [140.22488286844253, 35.57153461318663], [140.22461944356084, 35.57160132468264], [140.22435561825347, 35.57166694236095]]}}, {"type": "Feature", "properties": {"id": "千葉東金道路-上り-0-31", "route": "千葉東金道路", "direction": "上り", "from": "野呂ＰＡ", "to": "高田ＩＣ", "grade": -1.23, "elevation_start": 49.5, "elevation_end": 46.4, "quality": "measured", "structure": "normal", "chain_rank": 0, "cum_dist_start": 7750.0, "cum_dist_end": 8000.0, "anomaly": false}, "geometry": {"type": "LineString", "coordinates": [[140.22435561825347, 35.57166694236095], [140.2240906067293, 35.57172931972528], [140.22382534346528, 35.57179097688801], [140.22355993030334, 35.5718522052083], [140.2232945171414, 35.5719134335286], [140.22302822267622, 35.57197189708974], [140.2227599637624, 35.572024197928336], [140.22249170484858, 35.572076498766926], [140.2222231193236, 35.57212761102534], [140.22195323348777, 35.57217399128525], [140.22168334765195, 35.572220371545164]]}}, {"type": "Feature", "properties": {"id": "千葉東金道路-上り-0-32", "route": "千葉東金道路", "direction": "上り", "from": "野呂ＰＡ", "to": "高田ＩＣ", "grade": -1.65, "elevation_start": 46.4, "elevation_end": 42.3, "quality": "measured", "structure": "normal", "chain_rank": 0, "cum_dist_start": 8000.0, "cum_dist_end": 8250.0, "anomaly": false}, "geometry": {"type": "LineString", "coordinates": [[140.22168334765195, 35.572220371545164], [140.22141303699712, 35.572265059740324], [140.22114258255556, 35.572309175229236], [140.22087158644405, 35.57235089192167], [140.22059966515292, 35.57238851143672], [140.22032761094945, 35.572425479627995], [140.2200554437231, 35.572461893961666], [140.2197831395647, 35.57249758917479], [140.2195102900603, 35.5725304204163], [140.21923744055587, 35.572563251657805], [140.21896387946225, 35.572591830981736]]}}, {"type": "Feature", "properties": {"id": "千葉東金道路-上り-0-33", "route": "千葉東金道路", "direction": "上り", "from": "高田ＩＣ", "to": "大宮ＩＣ", "grade": 0.2, "elevation_start": 42.3, "elevation_end": 42.8, "quality": "estimated", "structure": "bridge", "chain_rank": 0, "cum_dist_start": 8250.0, "cum_dist_end": 8500.0, "anomaly": false}, "geometry": {"type": "LineString", "coordinates": [[140.21896387946225, 35.572591830981736], [140.21869025335857, 35.572620021854924], [140.2184166272549, 35.57264821272811], [140.21814300115125, 35.57267640360131], [140.2178681800322, 35.57269505909935], [140.2175932376864, 35.57271274729347], [140.21731829534056, 35.5727304354876], [140.21704336103255, 35.57274820545689], [140.21676849664667, 35.572766686802005], [140.21649363226075, 35.57278516814712], [140.21621877651066, 35.572803733293526]]}}, {"type": "Feature", "properties": {"id": "千葉東金道路-上り-0-34", "route": "千葉東金道路", "direction": "上り", "from": "高田ＩＣ", "to": "大宮ＩＣ", "grade": 0.6, "elevation_start": 42.8, "elevation_end": 44.3, "quality": "estimated", "structure": "bridge", "chain_rank": 0, "cum_dist_start": 8500.0, "cum_dist_end": 8750.0, "anomaly": false}, "geometry": {"type": "LineString", "coordinates": [[140.21621877651066, 35.572803733293526], [140.2159440088825, 35.5728231535703], [140.21566924125435, 35.57284257384706], [140.2153944736262, 35.572861994123826], [140.21511970599803, 35.5728814144006], [140.21484461860513, 35.572897326632116], [140.21456935947887, 35.57291135482742], [140.21429410035262, 35.572925383022714], [140.21401884122633, 35.572939411218016], [140.2137435154901, 35.572952489171094], [140.2134680935567, 35.572964194797386]]}}, {"type": "Feature", "properties": {"id": "千葉東金道路-上り-0-35", "route": "千葉東金道路", "direction": "上り", "from": "高田ＩＣ", "to": "大宮ＩＣ", "grade": 1.36, "elevation_start": 44.3, "elevation_end": 47.7, "quality": "estimated", "structure": "normal", "chain_rank": 0, "cum_dist_start": 8750.0, "cum_dist_end": 9000.0, "anomaly": false}, "geometry": {"type": "LineString", "coordinates": [[140.2134680935567, 35.572964194797386], [140.2131926716233, 35.57297590042368], [140.21291724968987, 35.57298760604997], [140.21264182775644, 35.57299931167627], [140.21236644580497, 35.573011591186585], [140.21209117898147, 35.57302552319616], [140.21181591215793, 35.57303945520573], [140.21154064003534, 35.57305331737806], [140.21126535514887, 35.57306701133482], [140.21099007026243, 35.57308070529158], [140.21071478537598, 35.57309439924833]]}}, {"type": "Feature", "properties": {"id": "千葉東金道路-上り-0-36", "route": "千葉東金道路", "direction": "上り", "from": "高田ＩＣ", "to": "大宮ＩＣ", "grade": 0.99, "elevation_start": 47.7, "elevation_end": 50.1, "quality": "measured", "structure": "normal", "chain_rank": 0, "cum_dist_start": 9000.0, "cum_dist_end": 9250.0, "anomaly": false}, "geometry": {"type": "LineString", "coordinates": [[140.21071478537598, 35.57309439924833], [140.21043956688337, 35.57310885679592], [140.2101646784699, 35.5731271105628], [140.20988979005648, 35.57314536432968], [140.20961490164305, 35.573163618096565], [140.2093401085438, 35.57318278989986], [140.2090653895099, 35.57320267507692], [140.20879067047596, 35.573222560253974], [140.2085160939292, 35.57324362788068], [140.2082419049522, 35.57326791180879], [140.20796771597517, 35.57329219573691]]}}, {"type": "Feature", "properties": {"id": "千葉東金道路-上り-0-37", "route": "千葉東金道路", "direction": "上り", "from": "高田ＩＣ", "to": "大宮ＩＣ", "grade": -0.56, "elevation_start": 50.1, "elevation_end": 48.7, "quality": "measured", "structure": "normal", "chain_rank": 0, "cum_dist_start": 9250.0, "cum_dist_end": 9500.0, "anomaly": false}, "geometry": {"type": "LineString", "coordinates": [[140.20796771597517, 35.57329219573691], [140.20769401541224, 35.57331977118618], [140.2074206688283, 35.573349732171444], [140.20714714124006, 35.573378544002324], [140.20687340985472, 35.57340606197228], [140.20659967846936, 35.57343357994224], [140.2063260830261, 35.57346194245141], [140.20605295520707, 35.5734932100719], [140.20577982738806, 35.573524477692395], [140.20550686925907, 35.573556689017586], [140.20523428035676, 35.573590953739384]]}}, {"type": "Feature", "properties": {"id": "千葉東金道路-上り-0-38", "route": "千葉東金道路", "direction": "上り", "from": "高田ＩＣ", "to": "大宮ＩＣ", "grade": -1.6, "elevation_start": 48.7, "elevation_end": 44.7, "quality": "measured", "structure": "normal", "chain_rank": 0, "cum_dist_start": 9500.0, "cum_dist_end": 9750.0, "anomaly": false}, "geometry": {"type": "LineString", "coordinates": [[140.20523428035676, 35.573590953739384], [140.20496178438844, 35.57362567738042], [140.2046902166171, 35.573664984569916], [140.20441869727793, 35.57370450954159], [140.2041475730848, 35.57374581134556], [140.2038764488917, 35.57378711314953], [140.20360603658796, 35.57383140711649], [140.20333572652618, 35.57387613081963], [140.2030654164644, 35.57392085452277], [140.2027956007943, 35.573967491473205], [140.2025262405913, 35.57401589103655]]}}, {"type": "Feature", "properties": {"id": "千葉東金道路-上り-0-39", "route": "千葉東金道路", "direction": "上り", "from": "高田ＩＣ", "to": "大宮ＩＣ", "grade": -1.23, "elevation_start": 44.7, "elevation_end": 41.7, "quality": "measured", "structure": "normal", "chain_rank": 0, "cum_dist_start": 9750.0, "cum_dist_end": 10000.0, "anomaly": false}, "geometry": {"type": "LineString", "coordinates": [[140.2025262405913, 35.57401589103655], [140.2022575484055, 35.574066619586965], [140.20198991804205, 35.574121050094064], [140.2017222876786, 35.57417548060116], [140.20145470296404, 35.57423006184063], [140.20118802891432, 35.574287398500054], [140.20092340816655, 35.574350886010386], [140.20065964057105, 35.574416711961426], [140.20039608256758, 35.57448309687208], [140.20013435341755, 35.57455397671947], [140.1998746034908, 35.57462972108084]]}}, {"type": "Feature", "properties": {"id": "千葉東金道路-上り-0-40", "route": "千葉東金道路", "direction": "上り", "from": "高田ＩＣ", "to": "大宮ＩＣ", "grade": -0.81, "elevation_start": 41.7, "elevation_end": 39.6, "quality": "measured", "structure": "normal", "chain_rank": 0, "cum_dist_start": 10000.0, "cum_dist_end": 10250.0, "anomaly": false}, "geometry": {"type": "LineString", "coordinates": [[140.1998746034908, 35.57462972108084], [140.19961691022428, 35.5747100058094], [140.19936054173314, 35.574793043863096], [140.19910540785767, 35.5748786233601], [140.19885087948964, 35.57496539854782], [140.1985993322282, 35.575057724953794], [140.19834955516444, 35.57515323820272], [140.19810233389833, 35.57525312506314], [140.19785629553965, 35.57535488610887], [140.19761333803058, 35.57546152841827], [140.1973703805215, 35.57556817072768]]}}, {"type": "Feature", "properties": {"id": "千葉東金道路-上り-0-41", "route": "千葉東金道路", "direction": "上り", "from": "高田ＩＣ", "to": "大宮ＩＣ", "grade": -0.47, "elevation_start": 39.6, "elevation_end": 38.5, "quality": "measured", "structure": "normal", "chain_rank": 0, "cum_dist_start": 10250.0, "cum_dist_end": 10500.0, "anomaly": false}, "geometry": {"type": "LineString", "coordinates": [[140.1973703805215, 35.57556817072768], [140.19713056363938, 35.57567945050103], [140.19689092835648, 35.575790998424615], [140.1966537202799, 35.57590590064483], [140.1964186395211, 35.57602374272836], [140.1961835587623, 35.57614158481189], [140.1959484780035, 35.576259426895426], [140.1957133972447, 35.57637726897895], [140.1954783164859, 35.576495111062485], [140.19524323572708, 35.57661295314602], [140.1950081549683, 35.57673079522955]]}}, {"type": "Feature", "properties": {"id": "千葉東金道路-上り-0-42", "route": "千葉東金道路", "direction": "上り", "from": "高田ＩＣ", "to": "大宮ＩＣ", "grade": -0.39, "elevation_start": 38.5, "elevation_end": 37.5, "quality": "measured", "structure": "normal", "chain_rank": 0, "cum_dist_start": 10500.0, "cum_dist_end": 10750.0, "anomaly": false}, "geometry": {"type": "LineString", "coordinates": [[140.1950081549683, 35.57673079522955], [140.19477307420948, 35.576848637313084], [140.19453799345067, 35.57696647939662], [140.19430291269188, 35.57708432148015], [140.19406843760373, 35.5772029569293], [140.19383565450443, 35.577323808708], [140.1936028714051, 35.57744466048671], [140.19337008830578, 35.577565512265416], [140.19313730520648, 35.57768636404412], [140.19290452210714, 35.57780721582282], [140.19267151511352, 35.577927779791146]]}}, {"type": "Feature", "properties": {"id": "千葉東金道路-上り-0-43", "route": "千葉東金道路", "direction": "上り", "from": "高田ＩＣ", "to": "大宮ＩＣ", "grade": -0.36, "elevation_start": 37.5, "elevation_end": 36.6, "quality": "measured", "structure": "normal", "chain_rank": 0, "cum_dist_start": 10750.0, "cum_dist_end": 11000.0, "anomaly": false}, "geometry": {"type": "LineString", "coordinates": [[140.19267151511352, 35.577927779791146], [140.1924381571384, 35.57804789258178], [140.1922047991633, 35.578168005372405], [140.19197144118817, 35.57828811816303], [140.19173808321307, 35.57840823095366], [140.19150472523796, 35.57852834374429], [140.19127136726283, 35.578648456534914], [140.19103800928772, 35.57876856932554], [140.1908046513126, 35.57888868211617], [140.19056929690288, 35.57900616203512], [140.19033360842047, 35.5791232013834]]}}, {"type": "Feature", "properties": {"id": "千葉東金道路-上り-0-44", "route": "千葉東金道路", "direction": "上り", "from": "高田ＩＣ", "to": "大宮ＩＣ", "grade": -0.31, "elevation_start": 36.6, "elevation_end": 35.8, "quality": "measured", "structure": "normal", "chain_rank": 0, "cum_dist_start": 11000.0, "cum_dist_end": 11250.0, "anomaly": false}, "geometry": {"type": "LineString", "coordinates": [[140.19033360842047, 35.5791232013834], [140.19009791993807, 35.57924024073168], [140.1898623991348, 35.57935750127155], [140.18962920111687, 35.579477825880886], [140.18939600309892, 35.57959815049021], [140.18916280508097, 35.57971847509955], [140.18892960706302, 35.57983879970888], [140.1886962609935, 35.579958932075414], [140.18846225044194, 35.58007820162163], [140.18822823989038, 35.58019747116784], [140.18799422933878, 35.58031674071406]]}}, {"type": "Feature", "properties": {"id": "千葉東金道路-上り-0-45", "route": "千葉東金道路", "direction": "上り", "from": "高田ＩＣ", "to": "大宮ＩＣ", "grade": 0.94, "elevation_start": 35.8, "elevation_end": 38.1, "quality": "measured", "structure": "normal", "chain_rank": 0, "cum_dist_start": 11250.0, "cum_dist_end": 11500.0, "anomaly": false}, "geometry": {"type": "LineString", "coordinates": [[140.18799422933878, 35.58031674071406], [140.18776021878722, 35.58043601026027], [140.18752620823565, 35.58055527980649], [140.18729357985998, 35.580676330924696], [140.18706180763755, 35.58079848559177], [140.1868300354151, 35.58092064025884], [140.18659826319268, 35.58104279492591], [140.18636649097024, 35.58116494959298], [140.1861347187478, 35.58128710426005], [140.18590294652537, 35.58140925892712], [140.18567117430294, 35.58153141359419]]}}, {"type": "Feature", "properties": {"id": "千葉東金道路-上り-0-46", "route": "千葉東金道路", "direction": "上り", "from": "高田ＩＣ", "to": "大宮ＩＣ", "grade": 1.45, "elevation_start": 38.1, "elevation_end": 41.8, "quality": "measured", "structure": "normal", "chain_rank": 0, "cum_dist_start": 11500.0, "cum_dist_end": 11750.0, "anomaly": false}, "geometry": {"type": "LineString", "coordinates": [[140.18567117430294, 35.58153141359419], [140.18543952024766, 35.58165371681239], [140.18520894411043, 35.58177737511064], [140.18497906712102, 35.581901882308365], [140.1847520006657, 35.58202980203326], [140.1845258956706, 35.58215883110504], [140.1843027938431, 35.58229132527567], [140.1840797365733, 35.58242386959791], [140.18385686428542, 35.582556622125445], [140.18363510947802, 35.58269059747752], [140.1834159763118, 35.58282744161111]]}}, {"type": "Feature", "properties": {"id": "千葉東金道路-上り-0-47", "route": "千葉東金道路", "direction": "上り", "from": "高田ＩＣ", "to": "大宮ＩＣ", "grade": 0.55, "elevation_start": 41.8, "elevation_end": 43.1, "quality": "estimated", "structure": "normal", "chain_rank": 0, "cum_dist_start": 11750.0, "cum_dist_end": 12000.0, "anomaly": false}, "geometry": {"type": "LineString", "coordinates": [[140.1834159763118, 35.58282744161111], [140.18319902277543, 35.5829665802592], [140.18298238171516, 35.583106047853505], [140.1827675517364, 35.58324737257297], [140.18255280821643, 35.58338878529103], [140.18234104500903, 35.58353316717356], [140.18212928180162, 35.5836775490561], [140.1819201637986, 35.58382447598944], [140.18171145519187, 35.583971796818375], [140.18150538673325, 35.58412157064649], [140.18130050522652, 35.58427242249218]]}}, {"type": "Feature", "properties": {"id": "千葉東金道路-上り-0-48", "route": "千葉東金道路", "direction": "上り", "from": "高田ＩＣ", "to": "大宮ＩＣ", "grade": -1.89, "elevation_start": 43.1, "elevation_end": 38.4, "quality": "estimated", "structure": "bridge", "chain_rank": 0, "cum_dist_start": 12000.0, "cum_dist_end": 12250.0, "anomaly": false}, "geometry": {"type": "LineString", "coordinates": [[140.18130050522652, 35.58427242249218], [140.18109939029887, 35.58442663190127], [140.18089827537125, 35.58458084131036], [140.18069982129683, 35.5847373017853], [140.1805041591888, 35.584896124247095], [140.18030849708083, 35.58505494670888], [140.1801128723453, 35.58521379996246], [140.17991748041527, 35.58537284502839], [140.17972306258181, 35.58553267660027], [140.1795306912205, 35.585694160536576], [140.17934394343928, 35.58585996201996]]}}, {"type": "Feature", "properties": {"id": "千葉東金道路-上り-0-49", "route": "千葉東金道路", "direction": "上り", "from": "高田ＩＣ", "to": "大宮ＩＣ", "grade": -1.89, "elevation_start": 38.4, "elevation_end": 33.7, "quality": "estimated", "structure": "bridge", "chain_rank": 0, "cum_dist_start": 12250.0, "cum_dist_end": 12500.0, "anomaly": false}, "geometry": {"type": "LineString", "coordinates": [[140.17934394343928, 35.58585996201996], [140.1791594196154, 35.5860274412056], [140.17897643135535, 35.586196045802566], [140.17880604607944, 35.58637320767317], [140.17863657939532, 35.58655099325648], [140.17846666166992, 35.58672849096296], [140.1782975174567, 35.586906453258315], [140.1781363750876, 35.58708933146122], [140.1779752327185, 35.58727220966413], [140.17781409034936, 35.587455087867035], [140.17765331001314, 35.58763817678645]]}}, {"type": "Feature", "properties": {"id": "千葉東金道路-上り-0-50", "route": "千葉東金道路", "direction": "上り", "from": "大宮ＩＣ", "to": "千葉東ＩＣ", "grade": -1.89, "elevation_start": 33.7, "elevation_end": 29.0, "quality": "estimated", "structure": "bridge", "chain_rank": 0, "cum_dist_start": 12500.0, "cum_dist_end": 12750.0, "anomaly": false}, "geometry": {"type": "LineString", "coordinates": [[140.17765331001314, 35.58763817678645], [140.1774944069651, 35.58782235835692], [140.1773364159584, 35.588007044343584], [140.17718547052468, 35.58819563962414], [140.1770326793695, 35.58838323668093], [140.17687901519002, 35.58857036157893], [140.1767210838099, 35.58875507365101], [140.1765578333243, 35.58893667076542], [140.1763890907321, 35.589114909885254], [140.17621788356323, 35.58929156776758], [140.17604033857575, 35.58946401695914]]}}, {"type": "Feature", "properties": {"id": "千葉東金道路-上り-0-51", "route": "千葉東金道路", "direction": "上り", "from": "大宮ＩＣ", "to": "千葉東ＩＣ", "grade": -0.99, "elevation_start": 29.0, "elevation_end": 26.5, "quality": "estimated", "structure": "normal", "chain_rank": 0, "cum_dist_start": 12750.0, "cum_dist_end": 13000.0, "anomaly": false}, "geometry": {"type": "LineString", "coordinates": [[140.17604033857575, 35.58946401695914], [140.1758573434943, 35.589632516495904], [140.17566707616453, 35.58979564724706], [140.1754707931179, 35.58995393350332], [140.1752689074003, 35.59010745056245], [140.17506018033336, 35.59025467226582], [140.17484770035819, 35.590398367514716], [140.174635220383, 35.59054206276361], [140.17442274040783, 35.590685758012505], [140.17420108878582, 35.590819848961864], [140.1739784825141, 35.5909529242565]]}}, {"type": "Feature", "properties": {"id": "千葉東金道路-上り-0-52", "route": "千葉東金道路", "direction": "上り", "from": "大宮ＩＣ", "to": "千葉東ＩＣ", "grade": -0.2, "elevation_start": 26.5, "elevation_end": 26.0, "quality": "measured", "structure": "normal", "chain_rank": 0, "cum_dist_start": 13000.0, "cum_dist_end": 13250.0, "anomaly": false}, "geometry": {"type": "LineString", "coordinates": [[140.1739784825141, 35.5909529242565], [140.17375536189104, 35.59108541713057], [140.17352872509383, 35.59121387501076], [140.17330208829662, 35.59134233289094], [140.17307545149941, 35.591470790771126], [140.17285043092926, 35.591601106708474], [140.17262738931734, 35.5917336977083], [140.17240434770542, 35.59186628870812], [140.17218927489373, 35.59200737831141], [140.17197712827036, 35.59215136259775], [140.17176986658149, 35.59229999044532]]}}, {"type": "Feature", "properties": {"id": "千葉東金道路-上り-0-53", "route": "千葉東金道路", "direction": "上り", "from": "大宮ＩＣ", "to": "千葉東ＩＣ", "grade": -0.51, "elevation_start": 26.0, "elevation_end": 24.7, "quality": "measured", "structure": "normal", "chain_rank": 0, "cum_dist_start": 13250.0, "cum_dist_end": 13500.0, "anomaly": false}, "geometry": {"type": "LineString", "coordinates": [[140.17176986658149, 35.59229999044532], [140.17156938713848, 35.59245476779919], [140.17137058467947, 35.59261095710572], [140.17117740228161, 35.59277175791711], [140.1709887843688, 35.592936182689954], [140.17080206473284, 35.59310203652267], [140.17061681721515, 35.59326899859476], [140.1704398495248, 35.59344183271217], [140.17026347157736, 35.593615085074646], [140.1700878068482, 35.593788818079645], [140.16991318567148, 35.59396325434158]]}}, {"type": "Feature", "properties": {"id": "千葉東金道路-上り-0-54", "route": "千葉東金道路", "direction": "上り", "from": "大宮ＩＣ", "to": "千葉東ＩＣ", "grade": -0.89, "elevation_start": 24.7, "elevation_end": 22.5, "quality": "measured", "structure": "normal", "chain_rank": 0, "cum_dist_start": 13500.0, "cum_dist_end": 13750.0, "anomaly": false}, "geometry": {"type": "LineString", "coordinates": [[140.16991318567148, 35.59396325434158], [140.16973856449476, 35.59413769060352], [140.1695629986633, 35.594311478047835], [140.169382518958, 35.59448189049417], [140.1692020392527, 35.59465230294051], [140.16901949086088, 35.59482115120367], [140.16882535534876, 35.594981238169176], [140.16862813145133, 35.59513867797047], [140.16842299073596, 35.5952893319874], [140.16821657390622, 35.59543879016144], [140.16800580949305, 35.595584174228335]]}}, {"type": "Feature", "properties": {"id": "千葉東金道路-上り-0-55", "route": "千葉東金道路", "direction": "上り", "from": "大宮ＩＣ", "to": "千葉東ＩＣ", "grade": -1.31, "elevation_start": 22.5, "elevation_end": 19.3, "quality": "measured", "structure": "normal", "chain_rank": 0, "cum_dist_start": 13750.0, "cum_dist_end": 14000.0, "anomaly": false}, "geometry": {"type": "LineString", "coordinates": [[140.16800580949305, 35.595584174228335], [140.16779504507986, 35.59572955829523], [140.16757442665158, 35.595864833606505], [140.16735335802383, 35.59599960359849], [140.1671247242496, 35.596125695094635], [140.16689609047535, 35.59625178659078], [140.16666745670113, 35.59637787808692], [140.1664349577898, 35.596499120839724], [140.16620117055174, 35.59661874741045], [140.16596738331373, 35.596738373981175], [140.1657335960757, 35.596858000551904]]}}, {"type": "Feature", "properties": {"id": "千葉東金道路-上り-0-56", "route": "千葉東金道路", "direction": "上り", "from": "大宮ＩＣ", "to": "千葉東ＩＣ", "grade": -0.69, "elevation_start": 19.3, "elevation_end": 17.6, "quality": "measured", "structure": "normal", "chain_rank": 0, "cum_dist_start": 14000.0, "cum_dist_end": 14250.0, "anomaly": false}, "geometry": {"type": "LineString", "coordinates": [[140.1657335960757, 35.596858000551904], [140.1654998088377, 35.59697762712263], [140.16526602159968, 35.597097253693356], [140.16503223436166, 35.59721688026408], [140.16479844712364, 35.59733650683481], [140.16456465988563, 35.59745613340553], [140.1643308726476, 35.59757575997625], [140.1640970854096, 35.59769538654698], [140.16386329817158, 35.5978150131177], [140.16362951093353, 35.59793463968843], [140.16339572369552, 35.598054266259155]]}}, {"type": "Feature", "properties": {"id": "千葉東金道路-上り-0-57", "route": "千葉東金道路", "direction": "上り", "from": "大宮ＩＣ", "to": "千葉東ＩＣ", "grade": -0.52, "elevation_start": 17.6, "elevation_end": 16.3, "quality": "measured", "structure": "normal", "chain_rank": 0, "cum_dist_start": 14250.0, "cum_dist_end": 14500.0, "anomaly": false}, "geometry": {"type": "LineString", "coordinates": [[140.16339572369552, 35.598054266259155], [140.1631619364575, 35.598173892829884], [140.16292814921948, 35.598293519400606], [140.16269436198147, 35.598413145971335], [140.16246057474345, 35.59853277254206], [140.16222678750543, 35.59865239911279], [140.16199263233628, 35.59877155141409], [140.161758469311, 35.598890693588714], [140.1615243062857, 35.59900983576333], [140.16129014326043, 35.59912897793796], [140.16105598023515, 35.599248120112584]]}}, {"type": "Feature", "properties": {"id": "千葉東金道路-上り-0-58", "route": "千葉東金道路", "direction": "上り", "from": "大宮ＩＣ", "to": "千葉東ＩＣ", "grade": -0.67, "elevation_start": 16.3, "elevation_end": 14.6, "quality": "measured", "structure": "normal", "chain_rank": 0, "cum_dist_start": 14500.0, "cum_dist_end": 14750.0, "anomaly": false}, "geometry": {"type": "LineString", "coordinates": [[140.16105598023515, 35.599248120112584], [140.1608218172099, 35.59936726228721], [140.1605876541846, 35.59948640446183], [140.16035349115933, 35.599605546636454], [140.16011932813404, 35.59972468881108], [140.15988516510876, 35.599843830985705], [140.15965100208348, 35.59996297316032], [140.15941766857216, 35.60008318032816], [140.15918642818826, 35.60020607481244], [140.15895518780437, 35.60032896929672], [140.15872394742047, 35.600451863781]]}}]}