{"type": "FeatureCollection", "features": [{"type": "Feature", "properties": {"name": "東部湯の丸IC;東部湯の丸SA", "kind": "IC"}, "geometry": {"type": "Point", "coordinates": [138.34695265, 36.372326900000004]}}, {"type": "Feature", "properties": {"name": "坂城IC", "kind": "IC"}, "geometry": {"type": "Point", "coordinates": [138.20828434999999, 36.4456072]}}, {"type": "Feature", "properties": {"name": "長野ＩＣ", "kind": "OTHER"}, "geometry": {"type": "Point", "coordinates": [138.2004162, 36.57462765]}}, {"type": "Feature", "properties": {"name": "佐久平PA;佐久平スマートIC", "kind": "SIC"}, "geometry": {"type": "Point", "coordinates": [138.51179150000002, 36.27639925]}}, {"type": "Feature", "properties": {"name": "小諸IC", "kind": "IC"}, "geometry": {"type": "Point", "coordinates": [138.40735635, 36.3458033]}}, {"type": "Feature", "properties": {"name": "須坂長野東ＩＣ", "kind": "OTHER"}, "geometry": {"type": "Point", "coordinates": [138.2737704, 36.63415175]}}, {"type": "Feature", "properties": {"name": "佐久IC", "kind": "IC"}, "geometry": {"type": "Point", "coordinates": [138.4837586, 36.28764905]}}, {"type": "Feature", "properties": {"name": "上田菅平IC", "kind": "IC"}, "geometry": {"type": "Point", "coordinates": [138.28389545, 36.413973549999994]}}, {"type": "Feature", "properties": {"name": "千曲川さかきPA", "kind": "PA"}, "geometry": {"type": "Point", "coordinates": [138.200220575, 36.45595575]}}, {"type": "Feature", "properties": {"name": "松代ＰＡ", "kind": "OTHER"}, "geometry": {"type": "Point", "coordinates": [138.18242555, 36.564495199999996]}}, {"type": "Feature", "properties": {"name": "佐久小諸JCT", "kind": "JCT"}, "geometry": {"type": "Point", "coordinates": [138.47997216666667, 36.30037823333333]}}, {"type": "Feature", "properties": {"name": "更埴JCT", "kind": "JCT"}, "geometry": {"type": "Point", "coordinates": [138.14039213333334, 36.55190473333334]}}, {"type": "Feature", "properties": {"name": "道の駅雷電くるみの里", "kind": "OTHER"}, "geometry": {"type": "Point", "coordinates": [138.3747048, 36.3555513]}}, {"type": "Feature", "properties": {"name": "東部湯の丸SA", "kind": "SA"}, "geometry": {"type": "Point", "coordinates": [138.3477302, 36.371590850000004]}}, {"type": "Feature", "properties": {"name": "松代PA", "kind": "PA"}, "geometry": {"type": "Point", "coordinates": [138.1835115, 36.5638692]}}, {"type": "Feature", "properties": {"name": "佐久平PA", "kind": "PA"}, "geometry": {"type": "Point", "coordinates": [138.5109663, 36.27729545]}}, {"type": "Feature", "properties": {"name": "碓氷軽井沢ＩＣ", "kind": "OTHER"}, "geometry": {"type": "Point", "coordinates": [138.67156585, 36.29334945]}}, {"type": "Feature", "properties": {"name": "吉井IC", "kind": "IC"}, "geometry": {"type": "Point", "coordinates": [138.9922205, 36.24303705]}}, {"type": "Feature", "properties": {"name": "藤岡IC", "kind": "IC"}, "geometry": {"type": "Point", "coordinates": [139.0788682, 36.2727055]}}, {"type": "Feature", "properties": {"name": "甘楽PA", "kind": "PA"}, "geometry": {"type": "Point", "coordinates": [138.94554000000002, 36.2415302]}}, {"type": "Feature", "properties": {"name": "松井田妙義IC", "kind": "IC"}, "geometry": {"type": "Point", "coordinates": [138.77613025, 36.31329505]}}, {"type": "Feature", "properties": {"name": "下仁田IC", "kind": "IC"}, "geometry": {"type": "Point", "coordinates": [138.82416015, 36.2359605]}}, {"type": "Feature", "properties": {"name": "横川SA", "kind": "SA"}, "geometry": {"type": "Point", "coordinates": [138.740123925, 36.340526375]}}, {"type": "Feature", "properties": {"name": "藤岡IC;藤岡PA", "kind": "IC"}, "geometry": {"type": "Point", "coordinates": [139.0731081, 36.2698697]}}, {"type": "Feature", "properties": {"name": "道の駅藤岡 (ららん藤岡)", "kind": "OTHER"}, "geometry": {"type": "Point", "coordinates": [139.0736944, 36.272384]}}, {"type": "Feature", "properties": {"name": "藤岡PA", "kind": "PA"}, "geometry": {"type": "Point", "coordinates": [139.072159, 36.2714419]}}, {"type": "Feature", "properties": {"name": "中郷ＩＣ", "kind": "OTHER"}, "geometry": {"type": "Point", "coordinates": [138.22112975, 36.9688837]}}, {"type": "Feature", "properties": {"name": "上越JCT", "kind": "JCT"}, "geometry": {"type": "Point", "coordinates": [138.21302073333334, 37.13835126666667]}}, {"type": "Feature", "properties": {"name": "小布施ＰＡ、スマートＩＣ", "kind": "OTHER"}, "geometry": {"type": "Point", "coordinates": [138.294543, 36.69203145]}}, {"type": "Feature", "properties": {"name": "信州中野ＩＣ", "kind": "OTHER"}, "geometry": {"type": "Point", "coordinates": [138.31712195, 36.729774]}}, {"type": "Feature", "properties": {"name": "妙高高原ＩＣ", "kind": "OTHER"}, "geometry": {"type": "Point", "coordinates": [138.193889, 36.86576475]}}, {"type": "Feature", "properties": {"name": "妙高ＳＡ", "kind": "OTHER"}, "geometry": {"type": "Point", "coordinates": [138.2129419, 36.928283699999994]}}, {"type": "Feature", "properties": {"name": "黒姫野尻湖ＰＡ", "kind": "OTHER"}, "geometry": {"type": "Point", "coordinates": [138.21862959999999, 36.807379749999996]}}, {"type": "Feature", "properties": {"name": "新井ＰＡ、スマートＩＣ", "kind": "OTHER"}, "geometry": {"type": "Point", "coordinates": [138.22517675, 37.027627100000004]}}, {"type": "Feature", "properties": {"name": "新井", "kind": "OTHER"}, "geometry": {"type": "Point", "coordinates": [138.225125, 37.0263973]}}, {"type": "Feature", "properties": {"name": "道の駅 オアシスおぶせ", "kind": "OTHER"}, "geometry": {"type": "Point", "coordinates": [138.2947887, 36.6892483]}}, {"type": "Feature", "properties": {"name": "新井SIC", "kind": "SIC"}, "geometry": {"type": "Point", "coordinates": [138.2241799, 37.0258795]}}, {"type": "Feature", "properties": {"name": "上越高田ＩＣ", "kind": "OTHER"}, "geometry": {"type": "Point", "coordinates": [138.2252569, 37.0887072]}}, {"type": "Feature", "properties": {"name": "信濃町ＩＣ", "kind": "OTHER"}, "geometry": {"type": "Point", "coordinates": [138.1917553, 36.821787400000005]}}, {"type": "Feature", "properties": {"name": "豊田飯山ＩＣ", "kind": "OTHER"}, "geometry": {"type": "Point", "coordinates": [138.3207584, 36.796645]}}, {"type": "Feature", "properties": {"name": "新井PA", "kind": "PA"}, "geometry": {"type": "Point", "coordinates": [138.22525589999998, 37.02737325]}}, {"type": "Feature", "properties": {"name": "妙高SA", "kind": "SA"}, "geometry": {"type": "Point", "coordinates": [138.2123856, 36.928996850000004]}}, {"type": "Feature", "properties": {"name": "黒姫野尻湖PA", "kind": "PA"}, "geometry": {"type": "Point", "coordinates": [138.2188142, 36.807360900000006]}}, {"type": "Feature", "properties": {"name": "小布施PA", "kind": "PA"}, "geometry": {"type": "Point", "coordinates": [138.29436370000002, 36.69236495]}}, {"type": "Feature", "properties": {"name": "小布施ＰＡ（ハイウェイオアシス）", "kind": "OTHER"}, "geometry": {"type": "Point", "coordinates": [138.2935243, 36.6888692]}}, {"type": "Feature", "properties": {"name": "道の駅あらい", "kind": "OTHER"}, "geometry": {"type": "Point", "coordinates": [138.2275095, 37.026944]}}]}