{"type": "FeatureCollection", "features": [{"type": "Feature", "properties": {"name": "富津金谷IC", "kind": "IC"}, "geometry": {"type": "Point", "coordinates": [139.83080745, 35.17021375]}}, {"type": "Feature", "properties": {"name": "鋸南富山IC", "kind": "IC"}, "geometry": {"type": "Point", "coordinates": [139.85102205, 35.1141897]}}, {"type": "Feature", "properties": {"name": "鋸南保田ＩＣ", "kind": "OTHER"}, "geometry": {"type": "Point", "coordinates": [139.84765125, 35.142709749999995]}}, {"type": "Feature", "properties": {"name": "富津竹岡IC", "kind": "IC"}, "geometry": {"type": "Point", "coordinates": [139.8595601, 35.1963463]}}, {"type": "Feature", "properties": {"name": "富浦IC", "kind": "IC"}, "geometry": {"type": "Point", "coordinates": [139.8508795, 35.0407208]}}, {"type": "Feature", "properties": {"name": "ＨＷオアシス富楽里とみやま", "kind": "OTHER"}, "geometry": {"type": "Point", "coordinates": [139.8576344, 35.099279100000004]}}, {"type": "Feature", "properties": {"name": "富楽里PA;道の駅富楽里とみやま", "kind": "PA"}, "geometry": {"type": "Point", "coordinates": [139.8558332, 35.1005805]}}]}