{"type": "FeatureCollection", "features": [{"type": "Feature", "properties": {"name": "古城山PA", "kind": "PA"}, "geometry": {"type": "Point", "coordinates": [136.93469935000002, 35.57148535]}}, {"type": "Feature", "properties": {"name": "美濃IC", "kind": "IC"}, "geometry": {"type": "Point", "coordinates": [136.90541865, 35.52664035]}}, {"type": "Feature", "properties": {"name": "高鷲IC", "kind": "IC"}, "geometry": {"type": "Point", "coordinates": [136.88085585, 35.93651945]}}, {"type": "Feature", "properties": {"name": "白鳥IC", "kind": "IC"}, "geometry": {"type": "Point", "coordinates": [136.87488225, 35.8718976]}}, {"type": "Feature", "properties": {"name": "岐阜各務原IC", "kind": "IC"}, "geometry": {"type": "Point", "coordinates": [136.81549335, 35.388559825]}}, {"type": "Feature", "properties": {"name": "関IC", "kind": "IC"}, "geometry": {"type": "Point", "coordinates": [136.890245525, 35.467395725]}}, {"type": "Feature", "properties": {"name": "一宮木曽川IC", "kind": "IC"}, "geometry": {"type": "Point", "coordinates": [136.7937807, 35.34311675]}}, {"type": "Feature", "properties": {"name": "美並IC", "kind": "IC"}, "geometry": {"type": "Point", "coordinates": [136.95821734999998, 35.66150025]}}, {"type": "Feature", "properties": {"name": "瓢ヶ岳PA", "kind": "PA"}, "geometry": {"type": "Point", "coordinates": [136.9535778, 35.67076185]}}, {"type": "Feature", "properties": {"name": "郡上八幡IC", "kind": "IC"}, "geometry": {"type": "Point", "coordinates": [136.9441679, 35.7483821]}}, {"type": "Feature", "properties": {"name": "川島PA", "kind": "PA"}, "geometry": {"type": "Point", "coordinates": [136.810492525, 35.3704163]}}, {"type": "Feature", "properties": {"name": "関SA", "kind": "SA"}, "geometry": {"type": "Point", "coordinates": [136.89580254999998, 35.49181]}}, {"type": "Feature", "properties": {"name": "長良川SA", "kind": "SA"}, "geometry": {"type": "Point", "coordinates": [136.89788305000002, 35.507693]}}, {"type": "Feature", "properties": {"name": "一宮西IC", "kind": "IC"}, "geometry": {"type": "Point", "coordinates": [136.7797992, 35.2910811]}}, {"type": "Feature", "properties": {"name": "尾西IC", "kind": "IC"}, "geometry": {"type": "Point", "coordinates": [136.7781385, 35.3176054]}}, {"type": "Feature", "properties": {"name": "ぎふ大和IC/PA", "kind": "IC"}, "geometry": {"type": "Point", "coordinates": [136.9056607, 35.790733450000005]}}, {"type": "Feature", "properties": {"name": "一宮稲沢北IC", "kind": "IC"}, "geometry": {"type": "Point", "coordinates": [136.780844, 35.2879417]}}, {"type": "Feature", "properties": {"name": "ぎふ大和PA", "kind": "PA"}, "geometry": {"type": "Point", "coordinates": [136.90624435, 35.79011025]}}, {"type": "Feature", "properties": {"name": "松ノ木峠PA", "kind": "PA"}, "geometry": {"type": "Point", "coordinates": [137.0528094, 36.070047225]}}, {"type": "Feature", "properties": {"name": "飛騨清見IC", "kind": "IC"}, "geometry": {"type": "Point", "coordinates": [137.07740146666666, 36.135336833333334]}}, {"type": "Feature", "properties": {"name": "ひるがの高原SA/スマートIC", "kind": "SIC"}, "geometry": {"type": "Point", "coordinates": [136.90998075, 35.98728545]}}, {"type": "Feature", "properties": {"name": "荘川IC", "kind": "IC"}, "geometry": {"type": "Point", "coordinates": [136.96094265, 36.01973425]}}, {"type": "Feature", "properties": {"name": "小矢部砺波JCT", "kind": "JCT"}, "geometry": {"type": "Point", "coordinates": [136.908235375, 36.630151525]}}, {"type": "Feature", "properties": {"name": "福光IC", "kind": "IC"}, "geometry": {"type": "Point", "coordinates": [136.888478, 36.53316135]}}, {"type": "Feature", "properties": {"name": "飛騨河合PA", "kind": "PA"}, "geometry": {"type": "Point", "coordinates": [137.0055088, 36.2248602]}}, {"type": "Feature", "properties": {"name": "飛驒河合PA", "kind": "PA"}, "geometry": {"type": "Point", "coordinates": [137.0026625, 36.22634836666666]}}, {"type": "Feature", "properties": {"name": "城端SA", "kind": "SA"}, "geometry": {"type": "Point", "coordinates": [136.87435666666667, 36.504349366666666]}}, {"type": "Feature", "properties": {"name": "五箇山IC", "kind": "IC"}, "geometry": {"type": "Point", "coordinates": [136.87868665000002, 36.39186515]}}, {"type": "Feature", "properties": {"name": "飛驒白川PA", "kind": "PA"}, "geometry": {"type": "Point", "coordinates": [136.89473715, 36.274545925]}}, {"type": "Feature", "properties": {"name": "南砺スマートIC", "kind": "SIC"}, "geometry": {"type": "Point", "coordinates": [136.9020322, 36.5995859]}}, {"type": "Feature", "properties": {"name": "白川郷IC", "kind": "IC"}, "geometry": {"type": "Point", "coordinates": [136.89886810000002, 36.2633417]}}, {"type": "Feature", "properties": {"name": "ひるがの高原SA", "kind": "SA"}, "geometry": {"type": "Point", "coordinates": [136.91029505, 35.9877355]}}, {"type": "Feature", "properties": {"name": "クックラひるがの", "kind": "OTHER"}, "geometry": {"type": "Point", "coordinates": [136.9115162, 35.9868072]}}]}