{"type": "FeatureCollection", "features": [{"type": "Feature", "properties": {"name": "瑞浪IC", "kind": "IC"}, "geometry": {"type": "Point", "coordinates": [137.23748845, 35.371221750000004]}}, {"type": "Feature", "properties": {"name": "多治見IC", "kind": "IC"}, "geometry": {"type": "Point", "coordinates": [137.10893225, 35.3479444]}}, {"type": "Feature", "properties": {"name": "恵那峡ＳＡ", "kind": "OTHER"}, "geometry": {"type": "Point", "coordinates": [137.4318731, 35.455557400000004]}}, {"type": "Feature", "properties": {"name": "中津川ＩＣ", "kind": "OTHER"}, "geometry": {"type": "Point", "coordinates": [137.48591175, 35.4749575]}}, {"type": "Feature", "properties": {"name": "神坂PA/SIC", "kind": "SIC"}, "geometry": {"type": "Point", "coordinates": [137.57068055000002, 35.51767075]}}, {"type": "Feature", "properties": {"name": "園原IC", "kind": "IC"}, "geometry": {"type": "Point", "coordinates": [137.6729818, 35.4582836]}}, {"type": "Feature", "properties": {"name": "小牧東IC", "kind": "IC"}, "geometry": {"type": "Point", "coordinates": [137.02726945, 35.32876885]}}, {"type": "Feature", "properties": {"name": "内津峠PA", "kind": "PA"}, "geometry": {"type": "Point", "coordinates": [137.04336947500002, 35.33340975]}}, {"type": "Feature", "properties": {"name": "虎渓山PA", "kind": "PA"}, "geometry": {"type": "Point", "coordinates": [137.12523425, 35.35148855]}}, {"type": "Feature", "properties": {"name": "恵那IC", "kind": "IC"}, "geometry": {"type": "Point", "coordinates": [137.39506885, 35.453609650000004]}}, {"type": "Feature", "properties": {"name": "土岐IC", "kind": "IC"}, "geometry": {"type": "Point", "coordinates": [137.19250245, 35.374655149999995]}}, {"type": "Feature", "properties": {"name": "飯田山本ＩＣ", "kind": "OTHER"}, "geometry": {"type": "Point", "coordinates": [137.7593462, 35.4708876]}}, {"type": "Feature", "properties": {"name": "屏風山PA", "kind": "PA"}, "geometry": {"type": "Point", "coordinates": [137.28116920000002, 35.399000224999995]}}, {"type": "Feature", "properties": {"name": "大井町", "kind": "OTHER"}, "geometry": {"type": "Point", "coordinates": [137.4284247, 35.453739049999996]}}, {"type": "Feature", "properties": {"name": "阿智ＰＡ", "kind": "OTHER"}, "geometry": {"type": "Point", "coordinates": [137.7459637, 35.4488093]}}, {"type": "Feature", "properties": {"name": "飯田ＩＣ", "kind": "OTHER"}, "geometry": {"type": "Point", "coordinates": [137.79519290000002, 35.498586700000004]}}, {"type": "Feature", "properties": {"name": "中野", "kind": "OTHER"}, "geometry": {"type": "Point", "coordinates": [137.3900295, 35.4484897]}}, {"type": "Feature", "properties": {"name": "座光寺PA/スマートIC", "kind": "SIC"}, "geometry": {"type": "Point", "coordinates": [137.84233735, 35.543898049999996]}}, {"type": "Feature", "properties": {"name": "中津川西IC（仮称）", "kind": "IC"}, "geometry": {"type": "Point", "coordinates": [137.4588152, 35.4630727]}}, {"type": "Feature", "properties": {"name": "恵那峡SA", "kind": "SA"}, "geometry": {"type": "Point", "coordinates": [137.43286145000002, 35.45488145]}}, {"type": "Feature", "properties": {"name": "神坂PA", "kind": "PA"}, "geometry": {"type": "Point", "coordinates": [137.5704519, 35.51830545]}}, {"type": "Feature", "properties": {"name": "阿智PA", "kind": "PA"}, "geometry": {"type": "Point", "coordinates": [137.7457435, 35.44930335]}}, {"type": "Feature", "properties": {"name": "座光寺PA", "kind": "PA"}, "geometry": {"type": "Point", "coordinates": [137.84253610000002, 35.543928949999994]}}, {"type": "Feature", "properties": {"name": "諏訪IC", "kind": "IC"}, "geometry": {"type": "Point", "coordinates": [138.12884585, 36.0023899]}}, {"type": "Feature", "properties": {"name": "諏訪湖SA", "kind": "SA"}, "geometry": {"type": "Point", "coordinates": [138.0767669, 36.026370175]}}, {"type": "Feature", "properties": {"name": "境川PA", "kind": "PA"}, "geometry": {"type": "Point", "coordinates": [138.604390175, 35.600905749999995]}}, {"type": "Feature", "properties": {"name": "甲府昭和IC", "kind": "IC"}, "geometry": {"type": "Point", "coordinates": [138.53744295, 35.64429835]}}, {"type": "Feature", "properties": {"name": "韮崎IC", "kind": "IC"}, "geometry": {"type": "Point", "coordinates": [138.46578375, 35.719923800000004]}}, {"type": "Feature", "properties": {"name": "一宮御坂IC", "kind": "IC"}, "geometry": {"type": "Point", "coordinates": [138.6761909, 35.6340438]}}, {"type": "Feature", "properties": {"name": "長坂IC", "kind": "IC"}, "geometry": {"type": "Point", "coordinates": [138.388257, 35.83627195]}}, {"type": "Feature", "properties": {"name": "八ヶ岳PA", "kind": "PA"}, "geometry": {"type": "Point", "coordinates": [138.366638125, 35.845401224999996]}}, {"type": "Feature", "properties": {"name": "小淵沢IC", "kind": "IC"}, "geometry": {"type": "Point", "coordinates": [138.31216425, 35.870975849999994]}}, {"type": "Feature", "properties": {"name": "中央道原PA", "kind": "PA"}, "geometry": {"type": "Point", "coordinates": [138.194652975, 35.957916499999996]}}, {"type": "Feature", "properties": {"name": "釈迦堂PA", "kind": "PA"}, "geometry": {"type": "Point", "coordinates": [138.71425495, 35.645016575]}}, {"type": "Feature", "properties": {"name": "駒ヶ根ＩＣ", "kind": "OTHER"}, "geometry": {"type": "Point", "coordinates": [137.91100920000002, 35.7410121]}}, {"type": "Feature", "properties": {"name": "駒ケ岳ＳＡ、スマートIC", "kind": "SIC"}, "geometry": {"type": "Point", "coordinates": [137.90777200000002, 35.7118866]}}, {"type": "Feature", "properties": {"name": "須玉IC", "kind": "IC"}, "geometry": {"type": "Point", "coordinates": [138.4242656, 35.77348845]}}, {"type": "Feature", "properties": {"name": "双葉SA;双葉スマートIC", "kind": "SIC"}, "geometry": {"type": "Point", "coordinates": [138.51127165, 35.67796585]}}, {"type": "Feature", "properties": {"name": "勝沼IC", "kind": "IC"}, "geometry": {"type": "Point", "coordinates": [138.7373506, 35.65152315]}}, {"type": "Feature", "properties": {"name": "双葉JCT", "kind": "JCT"}, "geometry": {"type": "Point", "coordinates": [138.4954705, 35.689398733333334]}}, {"type": "Feature", "properties": {"name": "辰野ＰＡ", "kind": "OTHER"}, "geometry": {"type": "Point", "coordinates": [138.00328295, 35.9760372]}}, {"type": "Feature", "properties": {"name": "伊北IC", "kind": "IC"}, "geometry": {"type": "Point", "coordinates": [137.9827699, 35.9432381]}}, {"type": "Feature", "properties": {"name": "伊那ＩＣ", "kind": "OTHER"}, "geometry": {"type": "Point", "coordinates": [137.9429569, 35.86546225]}}, {"type": "Feature", "properties": {"name": "諏訪南IC", "kind": "IC"}, "geometry": {"type": "Point", "coordinates": [138.2110519, 35.93725755]}}, {"type": "Feature", "properties": {"name": "小黒川ＰＡ、スマートＩＣ", "kind": "OTHER"}, "geometry": {"type": "Point", "coordinates": [137.93268089999998, 35.841126]}}, {"type": "Feature", "properties": {"name": "松川IC", "kind": "IC"}, "geometry": {"type": "Point", "coordinates": [137.88512735, 35.6084223]}}, {"type": "Feature", "properties": {"name": "笛吹八代スマートIC", "kind": "SIC"}, "geometry": {"type": "Point", "coordinates": [138.6354092, 35.6226945]}}, {"type": "Feature", "properties": {"name": "甲府南ＩＣ", "kind": "OTHER"}, "geometry": {"type": "Point", "coordinates": [138.5908963, 35.5995751]}}, {"type": "Feature", "properties": {"name": "岡谷JCT", "kind": "JCT"}, "geometry": {"type": "Point", "coordinates": [138.04306669999997, 36.051370033333335]}}, {"type": "Feature", "properties": {"name": "甲府南IC", "kind": "IC"}, "geometry": {"type": "Point", "coordinates": [138.5875301, 35.6009908]}}, {"type": "Feature", "properties": {"name": "小黒川PA", "kind": "PA"}, "geometry": {"type": "Point", "coordinates": [137.93298355000002, 35.84090855]}}, {"type": "Feature", "properties": {"name": "双葉SA", "kind": "SA"}, "geometry": {"type": "Point", "coordinates": [138.5108508, 35.6794566]}}, {"type": "Feature", "properties": {"name": "駒ヶ岳SA", "kind": "SA"}, "geometry": {"type": "Point", "coordinates": [137.9076494, 35.71188225]}}, {"type": "Feature", "properties": {"name": "辰野PA", "kind": "PA"}, "geometry": {"type": "Point", "coordinates": [138.00331655000002, 35.9758902]}}, {"type": "Feature", "properties": {"name": "藤野PA", "kind": "PA"}, "geometry": {"type": "Point", "coordinates": [139.157549625, 35.61613165]}}, {"type": "Feature", "properties": {"name": "談合坂SA", "kind": "SA"}, "geometry": {"type": "Point", "coordinates": [139.05955690000002, 35.631066000000004]}}, {"type": "Feature", "properties": {"name": "初狩PA", "kind": "PA"}, "geometry": {"type": "Point", "coordinates": [138.885097, 35.600068625000006]}}, {"type": "Feature", "properties": {"name": "相模湖東ＩＣ", "kind": "OTHER"}, "geometry": {"type": "Point", "coordinates": [139.1970636, 35.6223104]}}, {"type": "Feature", "properties": {"name": "国立府中IC", "kind": "IC"}, "geometry": {"type": "Point", "coordinates": [139.44126075, 35.6722322]}}, {"type": "Feature", "properties": {"name": "石川ＰＡ", "kind": "OTHER"}, "geometry": {"type": "Point", "coordinates": [139.37302285, 35.678677199999996]}}, {"type": "Feature", "properties": {"name": "八王子 (第１出口)", "kind": "OTHER"}, "geometry": {"type": "Point", "coordinates": [139.3589061, 35.6746499]}}, {"type": "Feature", "properties": {"name": "八王子ＪＣＴ", "kind": "OTHER"}, "geometry": {"type": "Point", "coordinates": [139.25485265, 35.641796775]}}, {"type": "Feature", "properties": {"name": "八王子", "kind": "OTHER"}, "geometry": {"type": "Point", "coordinates": [139.3431119, 35.6771077]}}, {"type": "Feature", "properties": {"name": "八王子 (第２出口)", "kind": "OTHER"}, "geometry": {"type": "Point", "coordinates": [139.3541001, 35.6752993]}}, {"type": "Feature", "properties": {"name": "稲城IC", "kind": "IC"}, "geometry": {"type": "Point", "coordinates": [139.5198157, 35.6556855]}}, {"type": "Feature", "properties": {"name": "府中スマートIC", "kind": "SIC"}, "geometry": {"type": "Point", "coordinates": [139.4930844, 35.6601609]}}, {"type": "Feature", "properties": {"name": "調布IC", "kind": "IC"}, "geometry": {"type": "Point", "coordinates": [139.5349781, 35.6609689]}}, {"type": "Feature", "properties": {"name": "談合坂SA/スマートIC", "kind": "SIC"}, "geometry": {"type": "Point", "coordinates": [139.041424, 35.6235417]}}, {"type": "Feature", "properties": {"name": "稲城", "kind": "OTHER"}, "geometry": {"type": "Point", "coordinates": [139.5157425, 35.6555599]}}, {"type": "Feature", "properties": {"name": "大月IC", "kind": "IC"}, "geometry": {"type": "Point", "coordinates": [138.9209528, 35.60424643333333]}}, {"type": "Feature", "properties": {"name": "富士吉田西桂SIC", "kind": "SIC"}, "geometry": {"type": "Point", "coordinates": [138.83298675, 35.5078847]}}, {"type": "Feature", "properties": {"name": "谷村ＰＡ", "kind": "OTHER"}, "geometry": {"type": "Point", "coordinates": [138.8967724, 35.5474493]}}, {"type": "Feature", "properties": {"name": "都留ＩＣ", "kind": "OTHER"}, "geometry": {"type": "Point", "coordinates": [138.90852030000002, 35.562918249999996]}}, {"type": "Feature", "properties": {"name": "相模湖IC", "kind": "IC"}, "geometry": {"type": "Point", "coordinates": [139.1676149, 35.6207428]}}, {"type": "Feature", "properties": {"name": "談合坂スマートIC", "kind": "SIC"}, "geometry": {"type": "Point", "coordinates": [139.0441405, 35.6273439]}}, {"type": "Feature", "properties": {"name": "上野原IC", "kind": "IC"}, "geometry": {"type": "Point", "coordinates": [139.11748319999998, 35.6216929]}}, {"type": "Feature", "properties": {"name": "大月ＪＣＴ", "kind": "OTHER"}, "geometry": {"type": "Point", "coordinates": [138.91770474999998, 35.59915995]}}, {"type": "Feature", "properties": {"name": "河口湖ＩＣ", "kind": "OTHER"}, "geometry": {"type": "Point", "coordinates": [138.7775755, 35.4897111]}}, {"type": "Feature", "properties": {"name": "中央JCT・東八道路IC（仮称）", "kind": "JCT"}, "geometry": {"type": "Point", "coordinates": [139.581713325, 35.674209875]}}, {"type": "Feature", "properties": {"name": "高井戸IC", "kind": "IC"}, "geometry": {"type": "Point", "coordinates": [139.6047395, 35.6804894]}}, {"type": "Feature", "properties": {"name": "石川PA", "kind": "PA"}, "geometry": {"type": "Point", "coordinates": [139.37307479999998, 35.678699449999996]}}, {"type": "Feature", "properties": {"name": "谷村PA", "kind": "PA"}, "geometry": {"type": "Point", "coordinates": [138.89702, 35.5476797]}}, {"type": "Feature", "properties": {"name": "道の駅 つる", "kind": "OTHER"}, "geometry": {"type": "Point", "coordinates": [138.9310782, 35.5829045]}}]}