{"type": "FeatureCollection", "features": [{"type": "Feature", "properties": {"name": "豊田東JCT", "kind": "JCT"}, "geometry": {"type": "Point", "coordinates": [137.1919998333333, 35.04500733333333]}}, {"type": "Feature", "properties": {"name": "浜松いなさＪＣＴ", "kind": "OTHER"}, "geometry": {"type": "Point", "coordinates": [137.66104845, 34.8831989]}}, {"type": "Feature", "properties": {"name": "新磐田スマートIC", "kind": "SIC"}, "geometry": {"type": "Point", "coordinates": [137.85905925, 34.82532355]}}, {"type": "Feature", "properties": {"name": "遠州森町ＰＡ、スマートＩＣ", "kind": "OTHER"}, "geometry": {"type": "Point", "coordinates": [137.8960337, 34.8282147]}}, {"type": "Feature", "properties": {"name": "浜松浜北ＩＣ", "kind": "OTHER"}, "geometry": {"type": "Point", "coordinates": [137.81415220000002, 34.8348498]}}, {"type": "Feature", "properties": {"name": "浜松ＳＡ、スマートＩＣ", "kind": "OTHER"}, "geometry": {"type": "Point", "coordinates": [137.75120855, 34.8416931]}}, {"type": "Feature", "properties": {"name": "新城IC", "kind": "IC"}, "geometry": {"type": "Point", "coordinates": [137.5374419, 34.92554515]}}, {"type": "Feature", "properties": {"name": "岡崎東ＩＣ", "kind": "OTHER"}, "geometry": {"type": "Point", "coordinates": [137.27705955, 34.9193513]}}, {"type": "Feature", "properties": {"name": "浜松いなさJCT", "kind": "JCT"}, "geometry": {"type": "Point", "coordinates": [137.64686135, 34.888939699999995]}}, {"type": "Feature", "properties": {"name": "長篠設楽原ＰＡ", "kind": "OTHER"}, "geometry": {"type": "Point", "coordinates": [137.5081664, 34.92491435]}}, {"type": "Feature", "properties": {"name": "長篠設楽原PA", "kind": "PA"}, "geometry": {"type": "Point", "coordinates": [137.5093726, 34.9248732]}}, {"type": "Feature", "properties": {"name": "浜松SA", "kind": "SA"}, "geometry": {"type": "Point", "coordinates": [137.7493896, 34.84207065]}}, {"type": "Feature", "properties": {"name": "岡崎SA", "kind": "SA"}, "geometry": {"type": "Point", "coordinates": [137.2219666, 35.0343155]}}, {"type": "Feature", "properties": {"name": "新静岡ＩＣ", "kind": "OTHER"}, "geometry": {"type": "Point", "coordinates": [138.37953165, 35.04093015]}}, {"type": "Feature", "properties": {"name": "島田金谷ＩＣ", "kind": "OTHER"}, "geometry": {"type": "Point", "coordinates": [138.1219501, 34.8502108]}}, {"type": "Feature", "properties": {"name": "新清水ＩＣ", "kind": "OTHER"}, "geometry": {"type": "Point", "coordinates": [138.523194, 35.146419949999995]}}, {"type": "Feature", "properties": {"name": "新富士ＩＣ", "kind": "OTHER"}, "geometry": {"type": "Point", "coordinates": [138.664787, 35.201807450000004]}}, {"type": "Feature", "properties": {"name": "清水ＰＡ", "kind": "OTHER"}, "geometry": {"type": "Point", "coordinates": [138.50970365, 35.132382899999996]}}, {"type": "Feature", "properties": {"name": "静岡SA/スマートIC（上り線）", "kind": "SIC"}, "geometry": {"type": "Point", "coordinates": [138.2932125, 34.974203]}}, {"type": "Feature", "properties": {"name": "静岡SA/スマートIC（下り線）", "kind": "SIC"}, "geometry": {"type": "Point", "coordinates": [138.2943169, 34.9786436]}}, {"type": "Feature", "properties": {"name": "藤枝岡部ＩＣ", "kind": "OTHER"}, "geometry": {"type": "Point", "coordinates": [138.26090395, 34.91561205]}}, {"type": "Feature", "properties": {"name": "掛川ＰＡ", "kind": "OTHER"}, "geometry": {"type": "Point", "coordinates": [138.03932395, 34.8403043]}}, {"type": "Feature", "properties": {"name": "森掛川ＩＣ", "kind": "OTHER"}, "geometry": {"type": "Point", "coordinates": [137.94221034999998, 34.8252471]}}, {"type": "Feature", "properties": {"name": "新清水JCT", "kind": "JCT"}, "geometry": {"type": "Point", "coordinates": [138.45967935, 35.077087649999996]}}, {"type": "Feature", "properties": {"name": "遠州森町ＰＡ;スマートＩＣ", "kind": "OTHER"}, "geometry": {"type": "Point", "coordinates": [137.9145088, 34.823154]}}, {"type": "Feature", "properties": {"name": "藤枝ＰＡ", "kind": "OTHER"}, "geometry": {"type": "Point", "coordinates": [138.23923335, 34.896877700000005]}}, {"type": "Feature", "properties": {"name": "静岡SA", "kind": "SA"}, "geometry": {"type": "Point", "coordinates": [138.29201655, 34.97417915]}}, {"type": "Feature", "properties": {"name": "清水PA", "kind": "PA"}, "geometry": {"type": "Point", "coordinates": [138.5126242, 35.131807]}}, {"type": "Feature", "properties": {"name": "掛川PA", "kind": "PA"}, "geometry": {"type": "Point", "coordinates": [138.0385499, 34.840185149999996]}}, {"type": "Feature", "properties": {"name": "遠州森町PA", "kind": "PA"}, "geometry": {"type": "Point", "coordinates": [137.9062498, 34.82516575]}}, {"type": "Feature", "properties": {"name": "藤枝PA", "kind": "PA"}, "geometry": {"type": "Point", "coordinates": [138.2390042, 34.897046149999994]}}, {"type": "Feature", "properties": {"name": "駒門PA/SIC", "kind": "SIC"}, "geometry": {"type": "Point", "coordinates": [138.90931465, 35.24626495]}}, {"type": "Feature", "properties": {"name": "長泉沼津ＩＣ", "kind": "OTHER"}, "geometry": {"type": "Point", "coordinates": [138.8659255, 35.1568521]}}, {"type": "Feature", "properties": {"name": "駿河湾沼津ＳＡ、スマートIC", "kind": "SIC"}, "geometry": {"type": "Point", "coordinates": [138.80864624999998, 35.15372855]}}, {"type": "Feature", "properties": {"name": "伊勢原JCT", "kind": "JCT"}, "geometry": {"type": "Point", "coordinates": [139.310827675, 35.4118943]}}, {"type": "Feature", "properties": {"name": "御殿場JCT", "kind": "JCT"}, "geometry": {"type": "Point", "coordinates": [138.911513375, 35.2615124]}}, {"type": "Feature", "properties": {"name": "厚木南IC", "kind": "IC"}, "geometry": {"type": "Point", "coordinates": [139.3562419, 35.4062743]}}, {"type": "Feature", "properties": {"name": "伊勢原大山IC", "kind": "IC"}, "geometry": {"type": "Point", "coordinates": [139.2864326, 35.415774400000004]}}, {"type": "Feature", "properties": {"name": "新秦野IC", "kind": "IC"}, "geometry": {"type": "Point", "coordinates": [139.1549685, 35.38493175]}}, {"type": "Feature", "properties": {"name": "秦野丹沢SIC", "kind": "SIC"}, "geometry": {"type": "Point", "coordinates": [139.17880395, 35.399950399999994]}}, {"type": "Feature", "properties": {"name": "駒門PA", "kind": "PA"}, "geometry": {"type": "Point", "coordinates": [138.9094302, 35.24607925]}}, {"type": "Feature", "properties": {"name": "駿河湾沼津SA", "kind": "SA"}, "geometry": {"type": "Point", "coordinates": [138.80906235, 35.15328745]}}]}