{"type": "FeatureCollection", "features": [{"type": "Feature", "properties": {"name": "千代田石岡IC", "kind": "IC"}, "geometry": {"type": "Point", "coordinates": [140.24440595, 36.173517149999995]}}, {"type": "Feature", "properties": {"name": "岩間IC", "kind": "IC"}, "geometry": {"type": "Point", "coordinates": [140.31920624999998, 36.282051499999994]}}, {"type": "Feature", "properties": {"name": "水戸IC", "kind": "IC"}, "geometry": {"type": "Point", "coordinates": [140.38615470000002, 36.381540400000006]}}, {"type": "Feature", "properties": {"name": "美野里PA", "kind": "PA"}, "geometry": {"type": "Point", "coordinates": [140.29699885000002, 36.2355982]}}, {"type": "Feature", "properties": {"name": "石岡小美玉スマートIC", "kind": "SIC"}, "geometry": {"type": "Point", "coordinates": [140.28086295, 36.2202001]}}, {"type": "Feature", "properties": {"name": "千代田PA", "kind": "PA"}, "geometry": {"type": "Point", "coordinates": [140.21140645, 36.146502925]}}, {"type": "Feature", "properties": {"name": "つくばJCT", "kind": "JCT"}, "geometry": {"type": "Point", "coordinates": [140.127136825, 36.033258524999994]}}, {"type": "Feature", "properties": {"name": "流山IC", "kind": "IC"}, "geometry": {"type": "Point", "coordinates": [139.900044, 35.87824865]}}, {"type": "Feature", "properties": {"name": "三郷JCT", "kind": "JCT"}, "geometry": {"type": "Point", "coordinates": [139.85881858, 35.83726232]}}, {"type": "Feature", "properties": {"name": "守谷SA", "kind": "SA"}, "geometry": {"type": "Point", "coordinates": [139.96840242500002, 35.93959805]}}, {"type": "Feature", "properties": {"name": "谷和原IC", "kind": "IC"}, "geometry": {"type": "Point", "coordinates": [139.982543125, 35.97208585]}}, {"type": "Feature", "properties": {"name": "柏IC", "kind": "IC"}, "geometry": {"type": "Point", "coordinates": [139.93580025, 35.90898655]}}, {"type": "Feature", "properties": {"name": "水戸北スマートIC", "kind": "SIC"}, "geometry": {"type": "Point", "coordinates": [140.4255812, 36.4172167]}}, {"type": "Feature", "properties": {"name": "友部SA;友部スマートIC", "kind": "SIC"}, "geometry": {"type": "Point", "coordinates": [140.34122285, 36.30967365]}}, {"type": "Feature", "properties": {"name": "三郷料金所スマートIC", "kind": "SIC"}, "geometry": {"type": "Point", "coordinates": [139.8833624, 35.86572915]}}, {"type": "Feature", "properties": {"name": "谷田部東PA", "kind": "PA"}, "geometry": {"type": "Point", "coordinates": [140.13780625, 36.038915849999995]}}, {"type": "Feature", "properties": {"name": "土浦北IC", "kind": "IC"}, "geometry": {"type": "Point", "coordinates": [140.18480155, 36.119344600000005]}}, {"type": "Feature", "properties": {"name": "田野PA", "kind": "PA"}, "geometry": {"type": "Point", "coordinates": [140.403806775, 36.409645525]}}, {"type": "Feature", "properties": {"name": "桜土浦IC", "kind": "IC"}, "geometry": {"type": "Point", "coordinates": [140.15478685, 36.056527]}}, {"type": "Feature", "properties": {"name": "三郷IC", "kind": "IC"}, "geometry": {"type": "Point", "coordinates": [139.86062435, 35.83535625]}}, {"type": "Feature", "properties": {"name": "谷田部IC", "kind": "IC"}, "geometry": {"type": "Point", "coordinates": [140.08008175, 36.0244984]}}, {"type": "Feature", "properties": {"name": "友部SA", "kind": "SA"}, "geometry": {"type": "Point", "coordinates": [140.3413403, 36.30973705]}}, {"type": "Feature", "properties": {"name": "日立南太田IC", "kind": "IC"}, "geometry": {"type": "Point", "coordinates": [140.57513295, 36.50866495]}}, {"type": "Feature", "properties": {"name": "東海PA;東海スマートIC", "kind": "SIC"}, "geometry": {"type": "Point", "coordinates": [140.55082125, 36.4850585]}}, {"type": "Feature", "properties": {"name": "那珂IC", "kind": "IC"}, "geometry": {"type": "Point", "coordinates": [140.47387859999998, 36.452672250000006]}}, {"type": "Feature", "properties": {"name": "東海PA", "kind": "PA"}, "geometry": {"type": "Point", "coordinates": [140.5509816, 36.484752400000005]}}, {"type": "Feature", "properties": {"name": "日立中央IC;日立中央PA", "kind": "IC"}, "geometry": {"type": "Point", "coordinates": [140.6367291, 36.6052572]}}, {"type": "Feature", "properties": {"name": "いわき中央IC", "kind": "IC"}, "geometry": {"type": "Point", "coordinates": [140.83678145, 37.06624015]}}, {"type": "Feature", "properties": {"name": "北茨城IC", "kind": "IC"}, "geometry": {"type": "Point", "coordinates": [140.7248577, 36.7978933]}}, {"type": "Feature", "properties": {"name": "いわきJCT", "kind": "JCT"}, "geometry": {"type": "Point", "coordinates": [140.8163335, 37.0385528]}}, {"type": "Feature", "properties": {"name": "いわき湯本IC", "kind": "IC"}, "geometry": {"type": "Point", "coordinates": [140.8103238, 37.003685250000004]}}, {"type": "Feature", "properties": {"name": "湯ノ岳PA", "kind": "PA"}, "geometry": {"type": "Point", "coordinates": [140.813650175, 37.0215944]}}, {"type": "Feature", "properties": {"name": "四倉PA", "kind": "PA"}, "geometry": {"type": "Point", "coordinates": [140.91166040000002, 37.116745200000004]}}, {"type": "Feature", "properties": {"name": "高萩IC", "kind": "IC"}, "geometry": {"type": "Point", "coordinates": [140.6833937, 36.74430375]}}, {"type": "Feature", "properties": {"name": "日立中央IC;日立中央ＰＡ", "kind": "IC"}, "geometry": {"type": "Point", "coordinates": [140.635547, 36.6009492]}}, {"type": "Feature", "properties": {"name": "日立北IC", "kind": "IC"}, "geometry": {"type": "Point", "coordinates": [140.6693406, 36.65151255]}}, {"type": "Feature", "properties": {"name": "中郷SA", "kind": "SA"}, "geometry": {"type": "Point", "coordinates": [140.69061135, 36.75594705]}}, {"type": "Feature", "properties": {"name": "いわき四倉IC", "kind": "IC"}, "geometry": {"type": "Point", "coordinates": [140.9465976, 37.12802695]}}, {"type": "Feature", "properties": {"name": "いわき小名浜IC", "kind": "IC"}, "geometry": {"type": "Point", "coordinates": [140.78007225, 36.9518999]}}, {"type": "Feature", "properties": {"name": "いわき勿来IC", "kind": "IC"}, "geometry": {"type": "Point", "coordinates": [140.7496355, 36.9031295]}}, {"type": "Feature", "properties": {"name": "関本PA", "kind": "PA"}, "geometry": {"type": "Point", "coordinates": [140.7427064, 36.8673018]}}, {"type": "Feature", "properties": {"name": "ならはPA/SIC", "kind": "SIC"}, "geometry": {"type": "Point", "coordinates": [140.98192319999998, 37.28688405]}}, {"type": "Feature", "properties": {"name": "広野IC", "kind": "IC"}, "geometry": {"type": "Point", "coordinates": [140.9837991, 37.2384429]}}, {"type": "Feature", "properties": {"name": "日立中央PA", "kind": "PA"}, "geometry": {"type": "Point", "coordinates": [140.6363452, 36.602140750000004]}}, {"type": "Feature", "properties": {"name": "ならはPA", "kind": "PA"}, "geometry": {"type": "Point", "coordinates": [140.98176819999998, 37.2870572]}}, {"type": "Feature", "properties": {"name": "亘理IC", "kind": "IC"}, "geometry": {"type": "Point", "coordinates": [140.88712945, 38.0867937]}}, {"type": "Feature", "properties": {"name": "浪江IC", "kind": "IC"}, "geometry": {"type": "Point", "coordinates": [140.94296450000002, 37.4994628]}}, {"type": "Feature", "properties": {"name": "鳥の海PA ,スマートIC", "kind": "SIC"}, "geometry": {"type": "Point", "coordinates": [140.89260510000003, 38.03914995]}}, {"type": "Feature", "properties": {"name": "常磐富岡IC", "kind": "IC"}, "geometry": {"type": "Point", "coordinates": [140.9664598, 37.3757811]}}, {"type": "Feature", "properties": {"name": "南相馬IC", "kind": "IC"}, "geometry": {"type": "Point", "coordinates": [140.91990049999998, 37.65838255]}}, {"type": "Feature", "properties": {"name": "相馬IC", "kind": "IC"}, "geometry": {"type": "Point", "coordinates": [140.89695396666667, 37.7813543]}}, {"type": "Feature", "properties": {"name": "新地IC", "kind": "IC"}, "geometry": {"type": "Point", "coordinates": [140.88054395, 37.85426355]}}, {"type": "Feature", "properties": {"name": "南相馬鹿島SA;南相馬鹿島スマートIC", "kind": "SIC"}, "geometry": {"type": "Point", "coordinates": [140.92077875, 37.71386925]}}, {"type": "Feature", "properties": {"name": "山元南スマートIC", "kind": "SIC"}, "geometry": {"type": "Point", "coordinates": [140.8694764, 37.9085968]}}, {"type": "Feature", "properties": {"name": "山元IC", "kind": "IC"}, "geometry": {"type": "Point", "coordinates": [140.87560385, 37.98541109999999]}}, {"type": "Feature", "properties": {"name": "大熊IC", "kind": "IC"}, "geometry": {"type": "Point", "coordinates": [140.96228745000002, 37.41121705]}}, {"type": "Feature", "properties": {"name": "常磐双葉IC", "kind": "IC"}, "geometry": {"type": "Point", "coordinates": [140.96232835, 37.458470500000004]}}, {"type": "Feature", "properties": {"name": "南相馬鹿島SA", "kind": "SA"}, "geometry": {"type": "Point", "coordinates": [140.9222749, 37.7142332]}}, {"type": "Feature", "properties": {"name": "鳥の海PA", "kind": "PA"}, "geometry": {"type": "Point", "coordinates": [140.891901, 38.0390685]}}]}