{"type": "FeatureCollection", "features": [{"type": "Feature", "properties": {"name": "日本坂ＰＡ", "kind": "OTHER"}, "geometry": {"type": "Point", "coordinates": [138.31931875, 34.88962085]}}, {"type": "Feature", "properties": {"name": "足柄SA/スマートIC", "kind": "SIC"}, "geometry": {"type": "Point", "coordinates": [138.96626049999998, 35.314202699999996]}}, {"type": "Feature", "properties": {"name": "駒門PA/SIC", "kind": "SIC"}, "geometry": {"type": "Point", "coordinates": [138.90931465, 35.24626495]}}, {"type": "Feature", "properties": {"name": "愛鷹ＰＡ、スマートIC", "kind": "SIC"}, "geometry": {"type": "Point", "coordinates": [138.83688, 35.14319945]}}, {"type": "Feature", "properties": {"name": "富士ＩＣ", "kind": "OTHER"}, "geometry": {"type": "Point", "coordinates": [138.6770044, 35.1802012]}}, {"type": "Feature", "properties": {"name": "富士川ＳＡ、スマートＩＣ", "kind": "OTHER"}, "geometry": {"type": "Point", "coordinates": [138.61857215, 35.15763165]}}, {"type": "Feature", "properties": {"name": "日本平ＰＡ", "kind": "OTHER"}, "geometry": {"type": "Point", "coordinates": [138.4340464, 34.9846401]}}, {"type": "Feature", "properties": {"name": "由比ＰＡ", "kind": "OTHER"}, "geometry": {"type": "Point", "coordinates": [138.5478546, 35.0831839]}}, {"type": "Feature", "properties": {"name": "富士川サービスエリア", "kind": "SA"}, "geometry": {"type": "Point", "coordinates": [138.6174546, 35.1610278]}}, {"type": "Feature", "properties": {"name": "裾野IC", "kind": "IC"}, "geometry": {"type": "Point", "coordinates": [138.90789560000002, 35.220267199999995]}}, {"type": "Feature", "properties": {"name": "沼津IC", "kind": "IC"}, "geometry": {"type": "Point", "coordinates": [138.8695452, 35.1499747]}}, {"type": "Feature", "properties": {"name": "清水ＩＣ", "kind": "OTHER"}, "geometry": {"type": "Point", "coordinates": [138.4744829, 35.041522650000005]}}, {"type": "Feature", "properties": {"name": "沼津ＩＣ", "kind": "OTHER"}, "geometry": {"type": "Point", "coordinates": [138.8610227, 35.1462937]}}, {"type": "Feature", "properties": {"name": "長泉沼津ＩＣ", "kind": "OTHER"}, "geometry": {"type": "Point", "coordinates": [138.8659255, 35.1568521]}}, {"type": "Feature", "properties": {"name": "新静岡ＩＣ", "kind": "OTHER"}, "geometry": {"type": "Point", "coordinates": [138.37953165, 35.04093015]}}, {"type": "Feature", "properties": {"name": "静岡ＩＣ", "kind": "OTHER"}, "geometry": {"type": "Point", "coordinates": [138.39435220000001, 34.94702505]}}, {"type": "Feature", "properties": {"name": "焼津ＩＣ", "kind": "OTHER"}, "geometry": {"type": "Point", "coordinates": [138.30010425, 34.881498050000005]}}, {"type": "Feature", "properties": {"name": "新清水ＩＣ", "kind": "OTHER"}, "geometry": {"type": "Point", "coordinates": [138.523194, 35.146419949999995]}}, {"type": "Feature", "properties": {"name": "清水JCT", "kind": "JCT"}, "geometry": {"type": "Point", "coordinates": [138.4830092, 35.0456962]}}, {"type": "Feature", "properties": {"name": "清水ＪＣＴ", "kind": "OTHER"}, "geometry": {"type": "Point", "coordinates": [138.48901595, 35.0486553]}}, {"type": "Feature", "properties": {"name": "駿河湾沼津ＳＡ、スマートIC", "kind": "SIC"}, "geometry": {"type": "Point", "coordinates": [138.80864624999998, 35.15372855]}}, {"type": "Feature", "properties": {"name": "新富士ＩＣ", "kind": "OTHER"}, "geometry": {"type": "Point", "coordinates": [138.664787, 35.201807450000004]}}, {"type": "Feature", "properties": {"name": "清水ＰＡ", "kind": "OTHER"}, "geometry": {"type": "Point", "coordinates": [138.50970365, 35.132382899999996]}}, {"type": "Feature", "properties": {"name": "静岡SA/スマートIC（上り線）", "kind": "SIC"}, "geometry": {"type": "Point", "coordinates": [138.2932125, 34.974203]}}, {"type": "Feature", "properties": {"name": "静岡SA/スマートIC（下り線）", "kind": "SIC"}, "geometry": {"type": "Point", "coordinates": [138.2943169, 34.9786436]}}, {"type": "Feature", "properties": {"name": "藤枝岡部ＩＣ", "kind": "OTHER"}, "geometry": {"type": "Point", "coordinates": [138.26090395, 34.91561205]}}, {"type": "Feature", "properties": {"name": "島田金谷ＩＣ", "kind": "OTHER"}, "geometry": {"type": "Point", "coordinates": [138.1267848, 34.8521961]}}, {"type": "Feature", "properties": {"name": "浜松いなさＪＣＴ", "kind": "OTHER"}, "geometry": {"type": "Point", "coordinates": [137.66104845, 34.8831989]}}, {"type": "Feature", "properties": {"name": "鳥坂I.C", "kind": "OTHER"}, "geometry": {"type": "Point", "coordinates": [138.43640549999998, 35.01372035]}}, {"type": "Feature", "properties": {"name": "日本平久能山スマートIC", "kind": "SIC"}, "geometry": {"type": "Point", "coordinates": [138.4221785, 34.961591150000004]}}, {"type": "Feature", "properties": {"name": "寺尾IC", "kind": "IC"}, "geometry": {"type": "Point", "coordinates": [138.55145785000002, 35.0936057]}}, {"type": "Feature", "properties": {"name": "蒲原西IC", "kind": "IC"}, "geometry": {"type": "Point", "coordinates": [138.5763626, 35.11165815]}}, {"type": "Feature", "properties": {"name": "新清水JCT", "kind": "JCT"}, "geometry": {"type": "Point", "coordinates": [138.45967935, 35.077087649999996]}}, {"type": "Feature", "properties": {"name": "御殿場JCT", "kind": "JCT"}, "geometry": {"type": "Point", "coordinates": [138.911513375, 35.2615124]}}, {"type": "Feature", "properties": {"name": "浜松いなさJCT", "kind": "JCT"}, "geometry": {"type": "Point", "coordinates": [137.64686135, 34.888939699999995]}}, {"type": "Feature", "properties": {"name": "御殿場ＩＣ", "kind": "OTHER"}, "geometry": {"type": "Point", "coordinates": [138.95007515, 35.29585205]}}, {"type": "Feature", "properties": {"name": "藤枝ＰＡ", "kind": "OTHER"}, "geometry": {"type": "Point", "coordinates": [138.23923335, 34.896877700000005]}}, {"type": "Feature", "properties": {"name": "道の駅 富士川楽座", "kind": "OTHER"}, "geometry": {"type": "Point", "coordinates": [138.61834290000002, 35.1618435]}}, {"type": "Feature", "properties": {"name": "愛鷹PA", "kind": "PA"}, "geometry": {"type": "Point", "coordinates": [138.83662095, 35.1428535]}}, {"type": "Feature", "properties": {"name": "由比PA", "kind": "PA"}, "geometry": {"type": "Point", "coordinates": [138.54770989999997, 35.0826908]}}, {"type": "Feature", "properties": {"name": "駒門PA", "kind": "PA"}, "geometry": {"type": "Point", "coordinates": [138.9094302, 35.24607925]}}, {"type": "Feature", "properties": {"name": "静岡SA", "kind": "SA"}, "geometry": {"type": "Point", "coordinates": [138.29201655, 34.97417915]}}, {"type": "Feature", "properties": {"name": "清水PA", "kind": "PA"}, "geometry": {"type": "Point", "coordinates": [138.5126242, 35.131807]}}, {"type": "Feature", "properties": {"name": "足柄SA", "kind": "SA"}, "geometry": {"type": "Point", "coordinates": [138.96563229999998, 35.31389615]}}, {"type": "Feature", "properties": {"name": "日本坂PA", "kind": "PA"}, "geometry": {"type": "Point", "coordinates": [138.31949545, 34.8894766]}}, {"type": "Feature", "properties": {"name": "日本平PA", "kind": "PA"}, "geometry": {"type": "Point", "coordinates": [138.43453945, 34.98441615]}}, {"type": "Feature", "properties": {"name": "富士川SA", "kind": "SA"}, "geometry": {"type": "Point", "coordinates": [138.61861549999998, 35.15959185]}}, {"type": "Feature", "properties": {"name": "駿河湾沼津SA", "kind": "SA"}, "geometry": {"type": "Point", "coordinates": [138.80906235, 35.15328745]}}, {"type": "Feature", "properties": {"name": "藤枝PA", "kind": "PA"}, "geometry": {"type": "Point", "coordinates": [138.2390042, 34.897046149999994]}}]}