{"type": "FeatureCollection", "features": [{"type": "Feature", "properties": {"name": "大泉IC", "kind": "IC"}, "geometry": {"type": "Point", "coordinates": [139.5990631, 35.7599568]}}, {"type": "Feature", "properties": {"name": "藤岡JCT", "kind": "JCT"}, "geometry": {"type": "Point", "coordinates": [139.0950961, 36.27382886666667]}}, {"type": "Feature", "properties": {"name": "嵐山小川IC", "kind": "IC"}, "geometry": {"type": "Point", "coordinates": [139.31236235, 36.0683593]}}, {"type": "Feature", "properties": {"name": "東松山IC", "kind": "IC"}, "geometry": {"type": "Point", "coordinates": [139.38134000000002, 36.02658855]}}, {"type": "Feature", "properties": {"name": "鶴ヶ島IC", "kind": "IC"}, "geometry": {"type": "Point", "coordinates": [139.39837995, 35.94587065]}}, {"type": "Feature", "properties": {"name": "高坂ＳＡ", "kind": "OTHER"}, "geometry": {"type": "Point", "coordinates": [139.38250564999998, 35.98618655]}}, {"type": "Feature", "properties": {"name": "本庄児玉ＩＣ", "kind": "OTHER"}, "geometry": {"type": "Point", "coordinates": [139.16450455, 36.2183061]}}, {"type": "Feature", "properties": {"name": "高崎JCT", "kind": "JCT"}, "geometry": {"type": "Point", "coordinates": [139.0762092, 36.321697433333334]}}, {"type": "Feature", "properties": {"name": "鶴ヶ島JCT", "kind": "JCT"}, "geometry": {"type": "Point", "coordinates": [139.405569525, 35.932032899999996]}}, {"type": "Feature", "properties": {"name": "駒寄ＰＡ、スマートＩＣ", "kind": "OTHER"}, "geometry": {"type": "Point", "coordinates": [139.01515845, 36.431467]}}, {"type": "Feature", "properties": {"name": "赤城ＩＣ、赤城ＰＡ", "kind": "OTHER"}, "geometry": {"type": "Point", "coordinates": [139.048312, 36.5372306]}}, {"type": "Feature", "properties": {"name": "三芳PA,スマートIC", "kind": "SIC"}, "geometry": {"type": "Point", "coordinates": [139.50353125, 35.8417545]}}, {"type": "Feature", "properties": {"name": "川越 IC", "kind": "IC"}, "geometry": {"type": "Point", "coordinates": [139.45904860000002, 35.89379225]}}, {"type": "Feature", "properties": {"name": "花園ＩＣ", "kind": "OTHER"}, "geometry": {"type": "Point", "coordinates": [139.2481681, 36.12450935]}}, {"type": "Feature", "properties": {"name": "赤城高原ＳＡ", "kind": "OTHER"}, "geometry": {"type": "Point", "coordinates": [139.06314235000002, 36.60110505]}}, {"type": "Feature", "properties": {"name": "上里ＳＡ、スマートＩＣ", "kind": "OTHER"}, "geometry": {"type": "Point", "coordinates": [139.1197183, 36.2552505]}}, {"type": "Feature", "properties": {"name": "所沢 IC", "kind": "IC"}, "geometry": {"type": "Point", "coordinates": [139.53085015, 35.80828995]}}, {"type": "Feature", "properties": {"name": "高崎ＩＣ", "kind": "OTHER"}, "geometry": {"type": "Point", "coordinates": [139.0592148, 36.33712045]}}, {"type": "Feature", "properties": {"name": "嵐山PA", "kind": "PA"}, "geometry": {"type": "Point", "coordinates": [139.294344975, 36.084514174999995]}}, {"type": "Feature", "properties": {"name": "前橋IC", "kind": "IC"}, "geometry": {"type": "Point", "coordinates": [139.02820765, 36.3745427]}}, {"type": "Feature", "properties": {"name": "寄居ＰＡ、スマートIC", "kind": "SIC"}, "geometry": {"type": "Point", "coordinates": [139.1942096, 36.17324565]}}, {"type": "Feature", "properties": {"name": "坂戸西スマートＩＣ", "kind": "OTHER"}, "geometry": {"type": "Point", "coordinates": [139.38043285, 35.966510299999996]}}, {"type": "Feature", "properties": {"name": "渋川伊香保IC", "kind": "IC"}, "geometry": {"type": "Point", "coordinates": [139.0159991, 36.4755878]}}, {"type": "Feature", "properties": {"name": "高崎玉村スマートＩＣ", "kind": "OTHER"}, "geometry": {"type": "Point", "coordinates": [139.09017505, 36.3089976]}}, {"type": "Feature", "properties": {"name": "ウォークインゲート高坂SA", "kind": "SA"}, "geometry": {"type": "Point", "coordinates": [139.3848689, 35.9850102]}}, {"type": "Feature", "properties": {"name": "練馬IC", "kind": "IC"}, "geometry": {"type": "Point", "coordinates": [139.6068967, 35.7548052]}}, {"type": "Feature", "properties": {"name": "赤城PA", "kind": "PA"}, "geometry": {"type": "Point", "coordinates": [139.0483062, 36.537452200000004]}}, {"type": "Feature", "properties": {"name": "赤城高原SA", "kind": "SA"}, "geometry": {"type": "Point", "coordinates": [139.06270840000002, 36.601886050000005]}}, {"type": "Feature", "properties": {"name": "高坂SA", "kind": "SA"}, "geometry": {"type": "Point", "coordinates": [139.3841031, 35.9862048]}}, {"type": "Feature", "properties": {"name": "三芳PA", "kind": "PA"}, "geometry": {"type": "Point", "coordinates": [139.50338815, 35.84234535]}}, {"type": "Feature", "properties": {"name": "上里SA", "kind": "SA"}, "geometry": {"type": "Point", "coordinates": [139.11971929999999, 36.2551418]}}, {"type": "Feature", "properties": {"name": "寄居PA", "kind": "PA"}, "geometry": {"type": "Point", "coordinates": [139.19352365, 36.17323115]}}, {"type": "Feature", "properties": {"name": "駒寄PA", "kind": "PA"}, "geometry": {"type": "Point", "coordinates": [139.01502435, 36.43105935]}}, {"type": "Feature", "properties": {"name": "昭和ＩＣ", "kind": "OTHER"}, "geometry": {"type": "Point", "coordinates": [139.06692725, 36.61538855]}}, {"type": "Feature", "properties": {"name": "下牧ＰＡ", "kind": "OTHER"}, "geometry": {"type": "Point", "coordinates": [138.98553205000002, 36.703858]}}, {"type": "Feature", "properties": {"name": "塩沢石打IC;塩沢石打SA", "kind": "IC"}, "geometry": {"type": "Point", "coordinates": [138.818956, 36.9928812]}}, {"type": "Feature", "properties": {"name": "小千谷ＩＣ", "kind": "OTHER"}, "geometry": {"type": "Point", "coordinates": [138.77937455, 37.30850115]}}, {"type": "Feature", "properties": {"name": "魚沼IC", "kind": "IC"}, "geometry": {"type": "Point", "coordinates": [138.97379115, 37.2144099]}}, {"type": "Feature", "properties": {"name": "堀之内IC;堀之内PA", "kind": "IC"}, "geometry": {"type": "Point", "coordinates": [138.92610875, 37.2553623]}}, {"type": "Feature", "properties": {"name": "塩沢石打SA", "kind": "SA"}, "geometry": {"type": "Point", "coordinates": [138.81484066666667, 36.98649833333334]}}, {"type": "Feature", "properties": {"name": "湯沢IC", "kind": "IC"}, "geometry": {"type": "Point", "coordinates": [138.82897609999998, 36.93261205]}}, {"type": "Feature", "properties": {"name": "長岡JCT", "kind": "JCT"}, "geometry": {"type": "Point", "coordinates": [138.7913592, 37.461100666666674]}}, {"type": "Feature", "properties": {"name": "大和PA;大和スマートIC", "kind": "SIC"}, "geometry": {"type": "Point", "coordinates": [138.9509324, 37.164276099999995]}}, {"type": "Feature", "properties": {"name": "塩沢石打IC", "kind": "IC"}, "geometry": {"type": "Point", "coordinates": [138.8208611, 36.9995391]}}, {"type": "Feature", "properties": {"name": "長岡IC", "kind": "IC"}, "geometry": {"type": "Point", "coordinates": [138.78817945, 37.4472046]}}, {"type": "Feature", "properties": {"name": "山谷ＰＡ", "kind": "OTHER"}, "geometry": {"type": "Point", "coordinates": [138.7820069, 37.3256732]}}, {"type": "Feature", "properties": {"name": "長岡南越路スマートＩＣ", "kind": "OTHER"}, "geometry": {"type": "Point", "coordinates": [138.79219345, 37.3925825]}}, {"type": "Feature", "properties": {"name": "水上IC", "kind": "IC"}, "geometry": {"type": "Point", "coordinates": [138.9754657, 36.74629415]}}, {"type": "Feature", "properties": {"name": "沼田ＩＣ", "kind": "OTHER"}, "geometry": {"type": "Point", "coordinates": [139.06991555000002, 36.65756535]}}, {"type": "Feature", "properties": {"name": "月夜野IC", "kind": "IC"}, "geometry": {"type": "Point", "coordinates": [139.02060515, 36.676299549999996]}}, {"type": "Feature", "properties": {"name": "谷川岳ＰＡ", "kind": "OTHER"}, "geometry": {"type": "Point", "coordinates": [138.9394063, 36.7806222]}}, {"type": "Feature", "properties": {"name": "越後川口ＩＣ、越後川口ＳＡ", "kind": "OTHER"}, "geometry": {"type": "Point", "coordinates": [138.8386445, 37.26849785]}}, {"type": "Feature", "properties": {"name": "六日町IC", "kind": "IC"}, "geometry": {"type": "Point", "coordinates": [138.87509185, 37.08407245]}}, {"type": "Feature", "properties": {"name": "土樽PA", "kind": "PA"}, "geometry": {"type": "Point", "coordinates": [138.874144225, 36.865578075]}}, {"type": "Feature", "properties": {"name": "谷川岳PA", "kind": "PA"}, "geometry": {"type": "Point", "coordinates": [138.94404276666668, 36.7776853]}}, {"type": "Feature", "properties": {"name": "山谷PA", "kind": "PA"}, "geometry": {"type": "Point", "coordinates": [138.78224545, 37.32555805]}}, {"type": "Feature", "properties": {"name": "大和PA", "kind": "PA"}, "geometry": {"type": "Point", "coordinates": [138.9509071, 37.1640644]}}, {"type": "Feature", "properties": {"name": "下牧PA", "kind": "PA"}, "geometry": {"type": "Point", "coordinates": [138.9851996, 36.7036214]}}, {"type": "Feature", "properties": {"name": "堀之内PA", "kind": "PA"}, "geometry": {"type": "Point", "coordinates": [138.926246, 37.25543845]}}]}