{"type": "FeatureCollection", "features": [{"type": "Feature", "properties": {"name": "横須賀ＰＡ", "kind": "OTHER"}, "geometry": {"type": "Point", "coordinates": [139.64165435, 35.251592599999995]}}, {"type": "Feature", "properties": {"name": "横須賀", "kind": "OTHER"}, "geometry": {"type": "Point", "coordinates": [139.6346926, 35.2751631]}}, {"type": "Feature", "properties": {"name": "日野ＩＣ", "kind": "OTHER"}, "geometry": {"type": "Point", "coordinates": [139.5859779, 35.3805166]}}, {"type": "Feature", "properties": {"name": "新保土ヶ谷", "kind": "OTHER"}, "geometry": {"type": "Point", "coordinates": [139.56932339999997, 35.4497159]}}, {"type": "Feature", "properties": {"name": "釜利谷JCT", "kind": "JCT"}, "geometry": {"type": "Point", "coordinates": [139.59632426666667, 35.35165296666667]}}, {"type": "Feature", "properties": {"name": "朝比奈ＩＣ", "kind": "OTHER"}, "geometry": {"type": "Point", "coordinates": [139.5914122, 35.336320549999996]}}, {"type": "Feature", "properties": {"name": "横須賀ＩＣ", "kind": "OTHER"}, "geometry": {"type": "Point", "coordinates": [139.6315626, 35.2798372]}}, {"type": "Feature", "properties": {"name": "衣笠ＩＣ", "kind": "OTHER"}, "geometry": {"type": "Point", "coordinates": [139.65912205, 35.2412401]}}, {"type": "Feature", "properties": {"name": "狩場JCT", "kind": "JCT"}, "geometry": {"type": "Point", "coordinates": [139.57894333333334, 35.442412366666666]}}, {"type": "Feature", "properties": {"name": "狩場", "kind": "OTHER"}, "geometry": {"type": "Point", "coordinates": [139.5753181, 35.4460979]}}, {"type": "Feature", "properties": {"name": "藤塚ＩＣ", "kind": "OTHER"}, "geometry": {"type": "Point", "coordinates": [139.57287209999998, 35.45142585]}}, {"type": "Feature", "properties": {"name": "佐原ＩＣ", "kind": "OTHER"}, "geometry": {"type": "Point", "coordinates": [139.672275, 35.2374601]}}, {"type": "Feature", "properties": {"name": "浦賀ＩＣ", "kind": "OTHER"}, "geometry": {"type": "Point", "coordinates": [139.7056855, 35.2509769]}}, {"type": "Feature", "properties": {"name": "馬掘海岸ＩＣ", "kind": "OTHER"}, "geometry": {"type": "Point", "coordinates": [139.7139349, 35.26325625]}}, {"type": "Feature", "properties": {"name": "逗子ＩＣ", "kind": "OTHER"}, "geometry": {"type": "Point", "coordinates": [139.61974755, 35.2909298]}}, {"type": "Feature", "properties": {"name": "港南台IC", "kind": "IC"}, "geometry": {"type": "Point", "coordinates": [139.5899303, 35.3741341]}}, {"type": "Feature", "properties": {"name": "別所ＩＣ", "kind": "OTHER"}, "geometry": {"type": "Point", "coordinates": [139.5804566, 35.41707465]}}, {"type": "Feature", "properties": {"name": "港南台", "kind": "OTHER"}, "geometry": {"type": "Point", "coordinates": [139.5971496, 35.3659219]}}, {"type": "Feature", "properties": {"name": "日野IC", "kind": "IC"}, "geometry": {"type": "Point", "coordinates": [139.5825538, 35.3841321]}}, {"type": "Feature", "properties": {"name": "横須賀PA", "kind": "PA"}, "geometry": {"type": "Point", "coordinates": [139.64157310000002, 35.25166875]}}]}