{"type": "FeatureCollection", "features": [{"type": "Feature", "properties": {"name": "蘇我IC", "kind": "IC"}, "geometry": {"type": "Point", "coordinates": [140.13962605, 35.5659081]}}, {"type": "Feature", "properties": {"name": "松ヶ丘ＩＣ", "kind": "OTHER"}, "geometry": {"type": "Point", "coordinates": [140.1489403, 35.5980377]}}, {"type": "Feature", "properties": {"name": "篠崎IC", "kind": "IC"}, "geometry": {"type": "Point", "coordinates": [139.9144195, 35.7082809]}}, {"type": "Feature", "properties": {"name": "京葉JCT", "kind": "JCT"}, "geometry": {"type": "Point", "coordinates": [139.9255957, 35.709234625]}}, {"type": "Feature", "properties": {"name": "原木", "kind": "OTHER"}, "geometry": {"type": "Point", "coordinates": [139.95141895, 35.703654400000005]}}, {"type": "Feature", "properties": {"name": "幕張ＰＡ", "kind": "OTHER"}, "geometry": {"type": "Point", "coordinates": [140.0540418, 35.6704312]}}, {"type": "Feature", "properties": {"name": "武石IC", "kind": "IC"}, "geometry": {"type": "Point", "coordinates": [140.06410475, 35.6696196]}}, {"type": "Feature", "properties": {"name": "宮野木JCT", "kind": "JCT"}, "geometry": {"type": "Point", "coordinates": [140.099153475, 35.660128275]}}, {"type": "Feature", "properties": {"name": "貝塚IC", "kind": "IC"}, "geometry": {"type": "Point", "coordinates": [140.1396283, 35.6256085]}}, {"type": "Feature", "properties": {"name": "穴川IC", "kind": "IC"}, "geometry": {"type": "Point", "coordinates": [140.1216646, 35.63674545]}}, {"type": "Feature", "properties": {"name": "幕張IC", "kind": "IC"}, "geometry": {"type": "Point", "coordinates": [140.0343456, 35.6695567]}}, {"type": "Feature", "properties": {"name": "花輪IC", "kind": "IC"}, "geometry": {"type": "Point", "coordinates": [140.00062825, 35.686406399999996]}}, {"type": "Feature", "properties": {"name": "船橋IC", "kind": "IC"}, "geometry": {"type": "Point", "coordinates": [139.9645943, 35.6998608]}}, {"type": "Feature", "properties": {"name": "松ヶ丘IC", "kind": "IC"}, "geometry": {"type": "Point", "coordinates": [140.1467802, 35.5867945]}}, {"type": "Feature", "properties": {"name": "千葉東JCT", "kind": "JCT"}, "geometry": {"type": "Point", "coordinates": [140.149563, 35.6001548]}}, {"type": "Feature", "properties": {"name": "京葉市川", "kind": "OTHER"}, "geometry": {"type": "Point", "coordinates": [139.92740515, 35.70945275]}}, {"type": "Feature", "properties": {"name": "幕張PA", "kind": "PA"}, "geometry": {"type": "Point", "coordinates": [140.05375494999998, 35.670269399999995]}}, {"type": "Feature", "properties": {"name": "京葉市川PA", "kind": "PA"}, "geometry": {"type": "Point", "coordinates": [139.9320686, 35.7082151]}}]}