{"type": "FeatureCollection", "features": [{"type": "Feature", "properties": {"id": "富津館山道路-上り-0-0", "route": "富津館山道路", "direction": "上り", "from": "富津竹岡IC", "to": null, "grade": 0.89, "elevation_start": 26.2, "elevation_end": 28.4, "quality": "estimated", "structure": "normal", "chain_rank": 0, "cum_dist_start": 0.0, "cum_dist_end": 250.0, "anomaly": false}, "geometry": {"type": "LineString", "coordinates": [[139.85906, 35.1960094], [139.8588202094486, 35.195899840296114], [139.858577585804, 35.195794436885805], [139.85833328053667, 35.19569167355908], [139.85808897526937, 35.19558891023236], [139.85784467000207, 35.19548614690563], [139.85760036473476, 35.19538338357891], [139.85735387819886, 35.195284288118735], [139.8571049204702, 35.195189348041126], [139.85685396566544, 35.19509805973384], [139.85660211288925, 35.1950084134198]]}}, {"type": "Feature", "properties": {"id": "富津館山道路-上り-0-1", "route": "富津館山道路", "direction": "上り", "from": "富津竹岡IC", "to": null, "grade": 0.4, "elevation_start": 28.4, "elevation_end": 29.4, "quality": "estimated", "structure": "tunnel", "chain_rank": 0, "cum_dist_start": 250.0, "cum_dist_end": 500.0, "anomaly": false}, "geometry": {"type": "LineString", "coordinates": [[139.85660211288925, 35.1950084134198], [139.85634837593247, 35.19492253570307], [139.8560924266734, 35.194841082868145], [139.8558356138155, 35.19476157326908], [139.8555756354431, 35.19468927143126], [139.85531270042875, 35.19462452739542], [139.85504767778986, 35.19456584692252], [139.85478069924557, 35.19451395870687], [139.85451123836907, 35.19447094184107], [139.85423996927358, 35.19443704753947], [139.85396766144626, 35.194408639535055]]}}, {"type": "Feature", "properties": {"id": "富津館山道路-上り-0-2", "route": "富津館山道路", "direction": "上り", "from": "富津竹岡IC", "to": null, "grade": 0.4, "elevation_start": 29.4, "elevation_end": 30.4, "quality": "estimated", "structure": "tunnel", "chain_rank": 0, "cum_dist_start": 500.0, "cum_dist_end": 750.0, "anomaly": false}, "geometry": {"type": "LineString", "coordinates": [[139.85396766144626, 35.194408639535055], [139.85369472781974, 35.19438453383417], [139.8534209688013, 35.19436805376677], [139.85314685929606, 35.194356625526844], [139.85287249256538, 35.194349392569286], [139.85259810141102, 35.19434279950966], [139.85232372012177, 35.19433593891064], [139.85204934411607, 35.19432893502474], [139.8517748964115, 35.19432476622527], [139.85150040277014, 35.1943224138427], [139.85122590912874, 35.19432006146013]]}}, {"type": "Feature", "properties": {"id": "富津館山道路-上り-0-3", "route": "富津館山道路", "direction": "上り", "from": "富津竹岡IC", "to": null, "grade": 0.4, "elevation_start": 30.4, "elevation_end": 31.4, "quality": "estimated", "structure": "bridge", "chain_rank": 0, "cum_dist_start": 750.0, "cum_dist_end": 1000.0, "anomaly": false}, "geometry": {"type": "LineString", "coordinates": [[139.85122590912874, 35.19432006146013], [139.8509519190036, 35.194306771406175], [139.8506779918408, 35.19429211364728], [139.85040424022722, 35.19427552411387], [139.85013069460584, 35.19425666780569], [139.84985796845243, 35.19423170823106], [139.84958598546814, 35.19420121365172], [139.84931404918504, 35.194170502123974], [139.8490458047937, 35.19412264006885], [139.84877756040234, 35.194074778013714], [139.84851297437058, 35.19401476462178]]}}, {"type": "Feature", "properties": {"id": "富津館山道路-上り-0-4", "route": "富津館山道路", "direction": "上り", "from": "富津竹岡IC", "to": null, "grade": 0.4, "elevation_start": 31.4, "elevation_end": 32.4, "quality": "estimated", "structure": "normal", "chain_rank": 0, "cum_dist_start": 1000.0, "cum_dist_end": 1250.0, "anomaly": false}, "geometry": {"type": "LineString", "coordinates": [[139.84851297437058, 35.19401476462178], [139.8482511766306, 35.19394723503073], [139.8479909119212, 35.19387559422221], [139.8477362830726, 35.193791420692925], [139.84748343511396, 35.19370384081987], [139.84723421539528, 35.193609373740735], [139.84698707800575, 35.193511474473816], [139.8467450655972, 35.19340512798476], [139.84650305318866, 35.193298781495706], [139.84627056247766, 35.193179050641525], [139.84603880268062, 35.19305829236352]]}}, {"type": "Feature", "properties": {"id": "富津館山道路-上り-0-5", "route": "富津館山道路", "direction": "上り", "from": "富津竹岡IC", "to": null, "grade": 0.4, "elevation_start": 32.4, "elevation_end": 33.4, "quality": "estimated", "structure": "tunnel", "chain_rank": 0, "cum_dist_start": 1250.0, "cum_dist_end": 1500.0, "anomaly": false}, "geometry": {"type": "LineString", "coordinates": [[139.84603880268062, 35.19305829236352], [139.84581731943393, 35.192925275552085], [139.84559849695756, 35.192789339888066], [139.84539341557965, 35.19263955492187], [139.84518833420174, 35.19248976995567], [139.84498546374024, 35.192337997874716], [139.84478507869633, 35.19218399196443], [139.84458469365242, 35.19202998605414], [139.8443843086085, 35.191875980143855], [139.84418392356457, 35.191721974233566], [139.84398353852066, 35.191567968323284]]}}, {"type": "Feature", "properties": {"id": "富津館山道路-上り-0-6", "route": "富津館山道路", "direction": "上り", "from": "富津竹岡IC", "to": null, "grade": 0.4, "elevation_start": 33.4, "elevation_end": 34.4, "quality": "estimated", "structure": "tunnel", "chain_rank": 0, "cum_dist_start": 1500.0, "cum_dist_end": 1750.0, "anomaly": false}, "geometry": {"type": "LineString", "coordinates": [[139.84398353852066, 35.191567968323284], [139.84378315347675, 35.191413962412994], [139.84358276843284, 35.191259956502705], [139.84338238338893, 35.19110595059242], [139.84318199834502, 35.19095194468213], [139.8429816133011, 35.19079793877185], [139.8427812282572, 35.19064393286156], [139.84258084321328, 35.19048992695127], [139.84238045816937, 35.19033592104099], [139.84218007312546, 35.1901819151307], [139.84197980509936, 35.19002780950497]]}}, {"type": "Feature", "properties": {"id": "富津館山道路-上り-0-7", "route": "富津館山道路", "direction": "上り", "from": "富津竹岡IC", "to": null, "grade": 0.4, "elevation_start": 34.4, "elevation_end": 35.4, "quality": "estimated", "structure": "tunnel", "chain_rank": 0, "cum_dist_start": 1750.0, "cum_dist_end": 2000.0, "anomaly": false}, "geometry": {"type": "LineString", "coordinates": [[139.84197980509936, 35.19002780950497], [139.84178473488996, 35.18986927461607], [139.84158966468058, 35.189710739727175], [139.8413945944712, 35.18955220483828], [139.84119723521948, 35.18939559361261], [139.84099968674096, 35.18923914140916], [139.84080250594602, 35.189082378394595], [139.8406060405789, 35.188925010612955], [139.84040957521177, 35.18876764283132], [139.8402127642541, 35.18861056807415], [139.84001501999492, 35.18845428465849]]}}, {"type": "Feature", "properties": {"id": "富津館山道路-上り-0-8", "route": "富津館山道路", "direction": "上り", "from": "富津竹岡IC", "to": null, "grade": 0.4, "elevation_start": 35.4, "elevation_end": 36.4, "quality": "estimated", "structure": "tunnel", "chain_rank": 0, "cum_dist_start": 2000.0, "cum_dist_end": 2250.0, "anomaly": false}, "geometry": {"type": "LineString", "coordinates": [[139.84001501999492, 35.18845428465849], [139.83981727573578, 35.18829800124283], [139.83961953147661, 35.188141717827165], [139.83942326857704, 35.18798419638558], [139.8392293279768, 35.187824734114244], [139.83903538737653, 35.18766527184292], [139.83884144677626, 35.18750580957159], [139.83864961251655, 35.187344641909995], [139.8384579890987, 35.18718330354111], [139.83826792768545, 35.18702072913318], [139.83807850457015, 35.186857649629935]]}}, {"type": "Feature", "properties": {"id": "富津館山道路-上り-0-9", "route": "富津館山道路", "direction": "上り", "from": "富津竹岡IC", "to": null, "grade": 0.4, "elevation_start": 36.4, "elevation_end": 37.4, "quality": "estimated", "structure": "tunnel", "chain_rank": 0, "cum_dist_start": 2250.0, "cum_dist_end": 2500.0, "anomaly": false}, "geometry": {"type": "LineString", "coordinates": [[139.83807850457015, 35.186857649629935], [139.8378954498066, 35.18668985746818], [139.83771744810434, 35.186518325979016], [139.83753878661332, 35.18634725956997], [139.83735928601988, 35.18617678463795], [139.83718167977815, 35.1860050356331], [139.83701339614157, 35.18582701657951], [139.83684767489996, 35.185647449365014], [139.836690653665, 35.18546262573604], [139.83653363243005, 35.185277802107066], [139.83637661119508, 35.18509297847809]]}}, {"type": "Feature", "properties": {"id": "富津館山道路-上り-0-10", "route": "富津館山道路", "direction": "上り", "from": "富津竹岡IC", "to": null, "grade": 0.4, "elevation_start": 37.4, "elevation_end": 38.4, "quality": "estimated", "structure": "tunnel", "chain_rank": 0, "cum_dist_start": 2500.0, "cum_dist_end": 2750.0, "anomaly": false}, "geometry": {"type": "LineString", "coordinates": [[139.83637661119508, 35.18509297847809], [139.83621958996014, 35.18490815484912], [139.83606256872517, 35.18472333122014], [139.8359055474902, 35.18453850759117], [139.83575143919973, 35.18435204245824], [139.8355977044621, 35.184165366820615], [139.83544396972445, 35.183978691183], [139.83529895640459, 35.183787442305416], [139.8351572828797, 35.18359444214333], [139.8350156093548, 35.183401441981246], [139.83487393582993, 35.18320844181916]]}}, {"type": "Feature", "properties": {"id": "富津館山道路-上り-0-11", "route": "富津館山道路", "direction": "上り", "from": "富津竹岡IC", "to": null, "grade": 0.25, "elevation_start": 38.4, "elevation_end": 39.0, "quality": "estimated", "structure": "bridge", "chain_rank": 0, "cum_dist_start": 2750.0, "cum_dist_end": 3000.0, "anomaly": false}, "geometry": {"type": "LineString", "coordinates": [[139.83487393582993, 35.18320844181916], [139.83473293275813, 35.183015112831534], [139.83459296952122, 35.18282127385406], [139.83446319388378, 35.1826227693975], [139.83433582754228, 35.182423161587806], [139.83421216895016, 35.18222202017843], [139.8340925648012, 35.182019201769855], [139.8339729606523, 35.18181638336128], [139.83385340838765, 35.18161354448905], [139.83373520079138, 35.18141017526708], [139.83361699319514, 35.18120680604512]]}}, {"type": "Feature", "properties": {"id": "富津館山道路-上り-0-12", "route": "富津館山道路", "direction": "上り", "from": "富津竹岡IC", "to": null, "grade": -0.48, "elevation_start": 39.0, "elevation_end": 37.8, "quality": "measured", "structure": "normal", "chain_rank": 0, "cum_dist_start": 3000.0, "cum_dist_end": 3250.0, "anomaly": false}, "geometry": {"type": "LineString", "coordinates": [[139.83361699319514, 35.18120680604512], [139.83350499917037, 35.181001134609474], [139.83339744959827, 35.18079381644302], [139.8332899000262, 35.18058649827656], [139.8331870238684, 35.18037759183611], [139.83308461099574, 35.1801685279468], [139.83298219812312, 35.17995946405749], [139.83288100870922, 35.17975001148611], [139.83278532694646, 35.17953880918242], [139.83268964518373, 35.179327606878736], [139.83259396342098, 35.17911640457505]]}}, {"type": "Feature", "properties": {"id": "富津館山道路-上り-0-13", "route": "富津館山道路", "direction": "上り", "from": "富津竹岡IC", "to": null, "grade": -0.17, "elevation_start": 37.8, "elevation_end": 37.4, "quality": "estimated", "structure": "tunnel", "chain_rank": 0, "cum_dist_start": 3250.0, "cum_dist_end": 3500.0, "anomaly": false}, "geometry": {"type": "LineString", "coordinates": [[139.83259396342098, 35.17911640457505], [139.83249828165822, 35.178905202271366], [139.83241134294332, 35.17869147187411], [139.83232469519015, 35.1784776573439], [139.83223804743696, 35.178263842813685], [139.83215139968377, 35.17805002828348], [139.8320648914941, 35.17783617840891], [139.83198978197007, 35.17761944183107], [139.831914672446, 35.17740270525322], [139.8318398615204, 35.17718589979901], [139.83176669928085, 35.176968716796395]]}}, {"type": "Feature", "properties": {"id": "富津館山道路-上り-0-14", "route": "富津館山道路", "direction": "上り", "from": "富津竹岡IC", "to": null, "grade": 0.0, "elevation_start": 37.4, "elevation_end": 37.4, "quality": "estimated", "structure": "tunnel", "chain_rank": 0, "cum_dist_start": 3500.0, "cum_dist_end": 3750.0, "anomaly": false}, "geometry": {"type": "LineString", "coordinates": [[139.83176669928085, 35.176968716796395], [139.83169932088086, 35.17675027400082], [139.83163194248084, 35.176531831205246], [139.83156456408085, 35.17631338840967], [139.83149718568086, 35.176094945614096], [139.83142980728087, 35.17587650281852], [139.83136242888088, 35.17565806002295], [139.8312950504809, 35.17543961722737], [139.8312276720809, 35.17522117443179], [139.8311602936809, 35.17500273163622], [139.83109291528092, 35.17478428884064]]}}, {"type": "Feature", "properties": {"id": "富津館山道路-上り-1-0", "route": "富津館山道路", "direction": "上り", "from": null, "to": "ＨＷオアシス富楽里とみやま", "grade": -2.23, "elevation_start": 31.3, "elevation_end": 25.8, "quality": "estimated", "structure": "normal", "chain_rank": 1, "cum_dist_start": 0.0, "cum_dist_end": 250.0, "anomaly": false}, "geometry": {"type": "LineString", "coordinates": [[139.8609763, 35.0877849], [139.8609807735752, 35.08801021258657], [139.86098524715038, 35.088235525173125], [139.86098839148113, 35.08846084941267], [139.8609897691039, 35.08868618914026], [139.86097848626326, 35.088911315521806], [139.86096587417774, 35.08913641950377], [139.8609478915437, 35.08936124843983], [139.86092641134684, 35.089585898252615], [139.86090493114997, 35.089810548065394], [139.86088329264024, 35.09003518757822]]}}, {"type": "Feature", "properties": {"id": "富津館山道路-上り-1-1", "route": "富津館山道路", "direction": "上り", "from": null, "to": "ＨＷオアシス富楽里とみやま", "grade": 0.8, "elevation_start": 25.8, "elevation_end": 27.8, "quality": "estimated", "structure": "bridge", "chain_rank": 1, "cum_dist_start": 250.0, "cum_dist_end": 500.0, "anomaly": false}, "geometry": {"type": "LineString", "coordinates": [[139.86088329264024, 35.09003518757822], [139.86086153928258, 35.09025981961896], [139.8608397859249, 35.0904844516597], [139.86081192493384, 35.090708575672544], [139.86077848366594, 35.090932235522594], [139.86074504239804, 35.09115589537264], [139.86071048373066, 35.09137943915221], [139.86067348052524, 35.09160271644065], [139.86063521439962, 35.09182585317325], [139.86059694827398, 35.092048989905855], [139.86056226670524, 35.09227252088795]]}}, {"type": "Feature", "properties": {"id": "富津館山道路-上り-1-2", "route": "富津館山道路", "direction": "上り", "from": null, "to": "ＨＷオアシス富楽里とみやま", "grade": 0.8, "elevation_start": 27.8, "elevation_end": 29.8, "quality": "estimated", "structure": "bridge", "chain_rank": 1, "cum_dist_start": 500.0, "cum_dist_end": 750.0, "anomaly": false}, "geometry": {"type": "LineString", "coordinates": [[139.86056226670524, 35.09227252088795], [139.8605262311921, 35.092495906152394], [139.86048990670258, 35.0927192611969], [139.86045443989667, 35.09294271017157], [139.86041897309076, 35.09316615914625], [139.86038350628485, 35.09338960812092], [139.86034803947894, 35.093613057095595], [139.86031455042541, 35.09383670570399], [139.86028317909572, 35.094060568074774], [139.86025180776602, 35.094284430445555], [139.86022043643632, 35.09450829281634]]}}, {"type": "Feature", "properties": {"id": "富津館山道路-上り-1-3", "route": "富津館山道路", "direction": "上り", "from": null, "to": "ＨＷオアシス富楽里とみやま", "grade": 0.63, "elevation_start": 29.8, "elevation_end": 31.3, "quality": "estimated", "structure": "bridge", "chain_rank": 1, "cum_dist_start": 750.0, "cum_dist_end": 1000.0, "anomaly": false}, "geometry": {"type": "LineString", "coordinates": [[139.86022043643632, 35.09450829281634], [139.86018906510662, 35.094732155187124], [139.86015769377693, 35.094956017557905], [139.86012338713584, 35.09517958223538], [139.8600876051062, 35.09540299728195], [139.8600518230766, 35.09562641232852], [139.86001604104695, 35.09584982737509], [139.85997838451527, 35.09607302068565], [139.85993605296898, 35.09629566098582], [139.85988431774288, 35.0965169303076], [139.85982558457093, 35.09673700242285]]}}, {"type": "Feature", "properties": {"id": "富津館山道路-上り-1-4", "route": "富津館山道路", "direction": "上り", "from": null, "to": "ＨＷオアシス富楽里とみやま", "grade": -1.88, "elevation_start": 31.3, "elevation_end": 26.6, "quality": "measured", "structure": "normal", "chain_rank": 1, "cum_dist_start": 1000.0, "cum_dist_end": 1250.0, "anomaly": false}, "geometry": {"type": "LineString", "coordinates": [[139.85982558457093, 35.09673700242285], [139.85976070563385, 35.09695590778918], [139.85968122807063, 35.09717157514441], [139.8596017505074, 35.09738724249963], [139.85950873627255, 35.09759901159964], [139.8594070425812, 35.09780828121253], [139.85929534177185, 35.09801400079649], [139.85917774091706, 35.09821750787193], [139.8590471904733, 35.09841566724692], [139.85890788057011, 35.098609672475604], [139.85876287735837, 35.09880087066688]]}}, {"type": "Feature", "properties": {"id": "富津館山道路-上り-1-5", "route": "富津館山道路", "direction": "上り", "from": "ＨＷオアシス富楽里とみやま", "to": "富楽里PA;道の駅富楽里とみやま", "grade": -0.28, "elevation_start": 26.6, "elevation_end": 25.9, "quality": "estimated", "structure": "bridge", "chain_rank": 1, "cum_dist_start": 1250.0, "cum_dist_end": 1500.0, "anomaly": false}, "geometry": {"type": "LineString", "coordinates": [[139.85876287735837, 35.09880087066688], [139.85860439218044, 35.098984755702894], [139.85844063455366, 35.099165410840754], [139.85827147658227, 35.099342757731606], [139.85809115123007, 35.09951241828939], [139.85790616505452, 35.099678696872296], [139.85771498270776, 35.0998402264469], [139.8575153820752, 35.099994604980346], [139.8573126127463, 35.10014629181641], [139.8571099015375, 35.10029803102275], [139.8569076597503, 35.100450192164324]]}}, {"type": "Feature", "properties": {"id": "富津館山道路-上り-1-6", "route": "富津館山道路", "direction": "上り", "from": "富楽里PA;道の駅富楽里とみやま", "to": null, "grade": 0.0, "elevation_start": 25.9, "elevation_end": 25.9, "quality": "estimated", "structure": "bridge", "chain_rank": 1, "cum_dist_start": 1500.0, "cum_dist_end": 1750.0, "anomaly": false}, "geometry": {"type": "LineString", "coordinates": [[139.8569076597503, 35.100450192164324], [139.85670100348514, 35.10059829467559], [139.85649191134917, 35.1007440440257], [139.85628171111983, 35.100888712201275], [139.85607752728131, 35.10103911428364], [139.8558733434428, 35.10118951636599], [139.8556706691312, 35.10134121565602], [139.85547874528262, 35.10150215332598], [139.85529236099353, 35.1016673922599], [139.85511013291546, 35.10183574933466], [139.85493239180943, 35.102007316652085]]}}, {"type": "Feature", "properties": {"id": "富津館山道路-上り-2-0", "route": "富津館山道路", "direction": "上り", "from": null, "to": null, "grade": 0.0, "elevation_start": 64.0, "elevation_end": 64.0, "quality": "estimated", "structure": "tunnel", "chain_rank": 2, "cum_dist_start": 0.0, "cum_dist_end": 250.0, "anomaly": false}, "geometry": {"type": "LineString", "coordinates": [[139.8605196, 35.0857348], [139.860414325843, 35.08552673497626], [139.860309051686, 35.08531866995252], [139.860203777529, 35.085110604928786], [139.86009850337197, 35.08490253990505], [139.85999322921498, 35.08469447488131], [139.85988795505799, 35.084486409857575], [139.85978268090096, 35.08427834483384], [139.85967740674397, 35.0840702798101], [139.85957213258695, 35.083862214786365], [139.85946437432344, 35.08365501506759]]}}, {"type": "Feature", "properties": {"id": "富津館山道路-上り-2-1", "route": "富津館山道路", "direction": "上り", "from": null, "to": null, "grade": 0.0, "elevation_start": 64.0, "elevation_end": 64.0, "quality": "estimated", "structure": "tunnel", "chain_rank": 2, "cum_dist_start": 250.0, "cum_dist_end": 500.0, "anomaly": false}, "geometry": {"type": "LineString", "coordinates": [[139.85946437432344, 35.08365501506759], [139.8593559087189, 35.0834480617415], [139.85924744311438, 35.08324110841541], [139.85913897750987, 35.08303415508932], [139.85903051190533, 35.08282720176323], [139.85892204630082, 35.08262024843714], [139.8588135806963, 35.08241329511105], [139.85870511509177, 35.08220634178496], [139.85859664948725, 35.081999388458875], [139.85848818388274, 35.08179243513278], [139.8583797182782, 35.08158548180669]]}}, {"type": "Feature", "properties": {"id": "富津館山道路-上り-2-2", "route": "富津館山道路", "direction": "上り", "from": null, "to": null, "grade": 0.0, "elevation_start": 64.0, "elevation_end": 64.0, "quality": "estimated", "structure": "tunnel", "chain_rank": 2, "cum_dist_start": 500.0, "cum_dist_end": 750.0, "anomaly": false}, "geometry": {"type": "LineString", "coordinates": [[139.8583797182782, 35.08158548180669], [139.8582712526737, 35.081378528480606], [139.85816278706918, 35.081171575154514], [139.85805432146464, 35.08096462182842], [139.85794585586012, 35.080757668502336], [139.8578373902556, 35.080550715176244], [139.85772178243855, 35.08034641392004], [139.8576046393614, 35.08014268274168], [139.85748749628422, 35.07993895156333], [139.85736470582813, 35.079737519131236], [139.8572386285174, 35.07953742460208]]}}, {"type": "Feature", "properties": {"id": "富津館山道路-上り-2-3", "route": "富津館山道路", "direction": "上り", "from": null, "to": null, "grade": 0.0, "elevation_start": 64.0, "elevation_end": 64.0, "quality": "estimated", "structure": "tunnel", "chain_rank": 2, "cum_dist_start": 750.0, "cum_dist_end": 1000.0, "anomaly": false}, "geometry": {"type": "LineString", "coordinates": [[139.8572386285174, 35.07953742460208], [139.85711255120668, 35.079337330072924], [139.856985357401, 35.07913774361023], [139.8568460330263, 35.07894367722199], [139.85670670865161, 35.07874961083375], [139.85656738427693, 35.078555544445514], [139.8564244688388, 35.078363263858535], [139.8562801779942, 35.07817166724797], [139.85613588714958, 35.07798007063741], [139.85599159630496, 35.077788474026846], [139.85584730546034, 35.077596877416276]]}}, {"type": "Feature", "properties": {"id": "富津館山道路-上り-2-4", "route": "富津館山道路", "direction": "上り", "from": null, "to": null, "grade": 0.0, "elevation_start": 64.0, "elevation_end": 64.0, "quality": "estimated", "structure": "tunnel", "chain_rank": 2, "cum_dist_start": 1000.0, "cum_dist_end": 1250.0, "anomaly": false}, "geometry": {"type": "LineString", "coordinates": [[139.85584730546034, 35.077596877416276], [139.85570301461573, 35.07740528080571], [139.8555587237711, 35.07721368419515], [139.8554144329265, 35.07702208758458], [139.85527014208188, 35.07683049097402], [139.85512585123726, 35.076638894363455], [139.85498156039264, 35.07644729775289], [139.85483726954803, 35.07625570114232], [139.8546929787034, 35.07606410453176], [139.8545486878588, 35.0758725079212], [139.85440439701418, 35.075680911310634]]}}, {"type": "Feature", "properties": {"id": "富津館山道路-上り-2-5", "route": "富津館山道路", "direction": "上り", "from": null, "to": null, "grade": 0.0, "elevation_start": 64.0, "elevation_end": 64.0, "quality": "estimated", "structure": "tunnel", "chain_rank": 2, "cum_dist_start": 1250.0, "cum_dist_end": 1500.0, "anomaly": false}, "geometry": {"type": "LineString", "coordinates": [[139.85440439701418, 35.075680911310634], [139.85426010616956, 35.075489314700064], [139.8541200478934, 35.07529567728887], [139.85398700738557, 35.07509865614834], [139.85385404869882, 35.074901597820194], [139.85372162904574, 35.07470429450176], [139.85359006095703, 35.07450662151423], [139.85346652691976, 35.07430546089802], [139.8533481967282, 35.07410222970196], [139.85323327377287, 35.0738976561853], [139.85312894689358, 35.07368927340562]]}}, {"type": "Feature", "properties": {"id": "富津館山道路-上り-2-6", "route": "富津館山道路", "direction": "上り", "from": null, "to": null, "grade": -1.5, "elevation_start": 64.0, "elevation_end": 60.3, "quality": "estimated", "structure": "normal", "chain_rank": 2, "cum_dist_start": 1500.0, "cum_dist_end": 1750.0, "anomaly": false}, "geometry": {"type": "LineString", "coordinates": [[139.85312894689358, 35.07368927340562], [139.85302647439156, 35.073480297569084], [139.85293207880247, 35.07326873861814], [139.85284041615284, 35.073056421490236], [139.85275958633775, 35.07284109909801], [139.8526787565227, 35.07262577670578], [139.8526155528171, 35.07240652359905], [139.85255294809048, 35.072187136916874], [139.85249043150156, 35.07196773542387], [139.85244329866418, 35.071745748814685], [139.8523961658268, 35.07152376220551]]}}, {"type": "Feature", "properties": {"id": "富津館山道路-上り-3-0", "route": "富津館山道路", "direction": "上り", "from": null, "to": "富浦IC", "grade": 0.0, "elevation_start": 0.0, "elevation_end": 0.0, "quality": "estimated", "structure": "bridge", "chain_rank": 3, "cum_dist_start": 0.0, "cum_dist_end": 250.0, "anomaly": false}, "geometry": {"type": "LineString", "coordinates": [[139.8529561, 35.0432207], [139.8528201306645, 35.04302525727752], [139.85266215992706, 35.042841215096765], [139.85249479115078, 35.04266284935607], [139.85232214509935, 35.04248786724318], [139.85214854491394, 35.04231352330697], [139.8519755482039, 35.042138786064925], [139.8518088153783, 35.04195996643206], [139.85164208255264, 35.0417811467992], [139.85147606821826, 35.04160187676725], [139.85131047467712, 35.04142234295353]]}}, {"type": "Feature", "properties": {"id": "富津館山道路-上り-4-0", "route": "富津館山道路", "direction": "上り", "from": null, "to": null, "grade": 0.0, "elevation_start": 0.0, "elevation_end": 0.0, "quality": "estimated", "structure": "tunnel", "chain_rank": 4, "cum_dist_start": 0.0, "cum_dist_end": 250.0, "anomaly": false}, "geometry": {"type": "LineString", "coordinates": [[139.8532719, 35.066114], [139.85320513227583, 35.06633255470315], [139.85313836455168, 35.0665511094063], [139.85307034710382, 35.06676940199235], [139.85300158809352, 35.06698753904306], [139.8529328290832, 35.06720567609378], [139.85286407007288, 35.06742381314449], [139.85279566663107, 35.067642025598914], [139.8527276124143, 35.06786031211182], [139.85265955819753, 35.06807859862472], [139.85259615661377, 35.06829776388176]]}}, {"type": "Feature", "properties": {"id": "富津館山道路-上り-4-1", "route": "富津館山道路", "direction": "上り", "from": null, "to": null, "grade": 0.0, "elevation_start": 0.0, "elevation_end": 0.0, "quality": "estimated", "structure": "tunnel", "chain_rank": 4, "cum_dist_start": 250.0, "cum_dist_end": 500.0, "anomaly": false}, "geometry": {"type": "LineString", "coordinates": [[139.85259615661377, 35.06829776388176], [139.8525415212408, 35.06851858481554], [139.8525009119763, 35.06874142241545], [139.85246115255362, 35.06896438220514], [139.85242139313092, 35.06918734199483], [139.8523839537218, 35.069410569306754], [139.85234862943935, 35.06963400460169], [139.85233117463486, 35.069858890472226], [139.8523203033113, 35.0700839976712], [139.85231536607213, 35.0703093043667], [139.8523146496922, 35.07053464267468]]}}, {"type": "Feature", "properties": {"id": "富津館山道路-上り-5-0", "route": "富津館山道路", "direction": "上り", "from": null, "to": null, "grade": -1.2, "elevation_start": 60.5, "elevation_end": 57.5, "quality": "estimated", "structure": "normal", "chain_rank": 5, "cum_dist_start": 0.0, "cum_dist_end": 250.0, "anomaly": false}, "geometry": {"type": "LineString", "coordinates": [[139.8331302, 35.1630073], [139.83297478447145, 35.16319301343385], [139.8328193689429, 35.163378726867705], [139.83266395341434, 35.163564440301556], [139.83251337170174, 35.16375268713457], [139.83237371816926, 35.163946661418265], [139.83223376121163, 35.16414048773482], [139.83209307755826, 35.164333959673755], [139.83196264956362, 35.16453213047804], [139.83183605494997, 35.16473205763374], [139.8317172533014, 35.16493512291227]]}}, {"type": "Feature", "properties": {"id": "富津館山道路-下り-0-0", "route": "富津館山道路", "direction": "下り", "from": null, "to": "鋸南富山IC", "grade": 0.0, "elevation_start": 48.8, "elevation_end": 48.8, "quality": "estimated", "structure": "tunnel", "chain_rank": 0, "cum_dist_start": 0.0, "cum_dist_end": 250.0, "anomaly": false}, "geometry": {"type": "LineString", "coordinates": [[139.8460588, 35.1320693], [139.84600741549812, 35.13184794828118], [139.8459560309962, 35.131626596562356], [139.84590464649432, 35.13140524484354], [139.8458532619924, 35.13118389312472], [139.84580157518621, 35.13096259368049], [139.84573998795304, 35.130743006222474], [139.84568458508875, 35.130522419815996], [139.84564039012452, 35.13030002302037], [139.84560207569953, 35.13007692719312], [139.84557102311692, 35.12985313020222]]}}, {"type": "Feature", "properties": {"id": "富津館山道路-下り-0-1", "route": "富津館山道路", "direction": "下り", "from": null, "to": "鋸南富山IC", "grade": 0.0, "elevation_start": 48.8, "elevation_end": 48.8, "quality": "estimated", "structure": "tunnel", "chain_rank": 0, "cum_dist_start": 250.0, "cum_dist_end": 500.0, "anomaly": false}, "geometry": {"type": "LineString", "coordinates": [[139.84557102311692, 35.12985313020222], [139.8455589996051, 35.12962800576335], [139.84555176598303, 35.12940274762248], [139.84554690657964, 35.12917745694208], [139.8455477942211, 35.12895211705466], [139.84554868186257, 35.12872677716723], [139.84555871373888, 35.128501627709554], [139.84557172498518, 35.1282765402976], [139.8455847362315, 35.12805145288564], [139.8456104626305, 35.1278271162435], [139.8456367649215, 35.12760281360507]]}}, {"type": "Feature", "properties": {"id": "富津館山道路-下り-0-2", "route": "富津館山道路", "direction": "下り", "from": null, "to": "鋸南富山IC", "grade": 0.0, "elevation_start": 48.8, "elevation_end": 48.8, "quality": "estimated", "structure": "tunnel", "chain_rank": 0, "cum_dist_start": 500.0, "cum_dist_end": 750.0, "anomaly": false}, "geometry": {"type": "LineString", "coordinates": [[139.8456367649215, 35.12760281360507], [139.84566925328176, 35.12737907585116], [139.84570354428467, 35.127155502706614], [139.8457470084108, 35.12693302880993], [139.84579334839987, 35.12671094579915], [139.84584781073278, 35.12649009164916], [139.84591122414233, 35.126270883816694], [139.8459807370191, 35.126052935473005], [139.84605544321457, 35.12583611404902], [139.84614395280497, 35.12562292600178], [139.84623651544467, 35.12541080481201]]}}, {"type": "Feature", "properties": {"id": "富津館山道路-下り-0-3", "route": "富津館山道路", "direction": "下り", "from": null, "to": "鋸南富山IC", "grade": -0.17, "elevation_start": 48.8, "elevation_end": 48.4, "quality": "estimated", "structure": "bridge", "chain_rank": 0, "cum_dist_start": 750.0, "cum_dist_end": 1000.0, "anomaly": false}, "geometry": {"type": "LineString", "coordinates": [[139.84623651544467, 35.12541080481201], [139.84632943977883, 35.125198795697], [139.84643041837714, 35.12498928227876], [139.84653734608742, 35.124781857000855], [139.8466517949488, 35.12457707164952], [139.8467746864031, 35.12437562056918], [139.8469002736902, 35.124175308921046], [139.8470294458778, 35.123976523397786], [139.84716758825334, 35.12378185723743], [139.84730669200252, 35.12358765380547], [139.8474489889515, 35.12339501363313]]}}, {"type": "Feature", "properties": {"id": "富津館山道路-下り-0-4", "route": "富津館山道路", "direction": "下り", "from": null, "to": "鋸南富山IC", "grade": -0.87, "elevation_start": 48.4, "elevation_end": 46.2, "quality": "estimated", "structure": "normal", "chain_rank": 0, "cum_dist_start": 1000.0, "cum_dist_end": 1250.0, "anomaly": false}, "geometry": {"type": "LineString", "coordinates": [[139.8474489889515, 35.12339501363313], [139.84759128590045, 35.12320237346078], [139.84773358284943, 35.123009733288434], [139.8478758797984, 35.12281709311609], [139.8480181767474, 35.12262445294375], [139.84816047369637, 35.122431812771396], [139.8483029768433, 35.12223927697561], [139.8484482768023, 35.12204815691436], [139.84859357676123, 35.121857036853115], [139.84873887672018, 35.12166591679186], [139.84888380917926, 35.12147461077608]]}}, {"type": "Feature", "properties": {"id": "富津館山道路-下り-0-5", "route": "富津館山道路", "direction": "下り", "from": null, "to": "鋸南富山IC", "grade": -0.52, "elevation_start": 46.2, "elevation_end": 44.9, "quality": "estimated", "structure": "tunnel", "chain_rank": 0, "cum_dist_start": 1250.0, "cum_dist_end": 1500.0, "anomaly": false}, "geometry": {"type": "LineString", "coordinates": [[139.84888380917926, 35.12147461077608], [139.84902621913204, 35.121282028374935], [139.84916862908486, 35.12108944597379], [139.84930338094142, 35.12089321893328], [139.84943586191864, 35.12069591113641], [139.84956744996978, 35.1204982046918], [139.8496969087966, 35.12029954765285], [139.84982636762342, 35.1201008906139], [139.84995582645024, 35.11990223357495], [139.8500754614118, 35.119699462676664], [139.8501950449943, 35.11949667026281]]}}, {"type": "Feature", "properties": {"id": "富津館山道路-下り-0-6", "route": "富津館山道路", "direction": "下り", "from": null, "to": "鋸南富山IC", "grade": -0.52, "elevation_start": 44.9, "elevation_end": 43.6, "quality": "estimated", "structure": "tunnel", "chain_rank": 0, "cum_dist_start": 1500.0, "cum_dist_end": 1750.0, "anomaly": false}, "geometry": {"type": "LineString", "coordinates": [[139.8501950449943, 35.11949667026281], [139.8503121947587, 35.11929292831586], [139.8504279350801, 35.11908863648692], [139.8505436754015, 35.11888434465799], [139.8506594157229, 35.118680052829056], [139.85077515604434, 35.11847576100013], [139.85089089636574, 35.11827146917119], [139.85099429821744, 35.11806284087695], [139.85108945663094, 35.11785153597623], [139.85117725312134, 35.117638105214915], [139.85125527353136, 35.1174220747659]]}}, {"type": "Feature", "properties": {"id": "富津館山道路-下り-0-7", "route": "富津館山道路", "direction": "下り", "from": null, "to": "鋸南富山IC", "grade": -0.52, "elevation_start": 43.6, "elevation_end": 42.3, "quality": "estimated", "structure": "normal", "chain_rank": 0, "cum_dist_start": 1750.0, "cum_dist_end": 2000.0, "anomaly": false}, "geometry": {"type": "LineString", "coordinates": [[139.85125527353136, 35.1174220747659], [139.85132314373521, 35.11720379630366], [139.85138593273535, 35.116984474632005], [139.85143746146812, 35.11676314645592], [139.85147039989943, 35.11653948151271], [139.8514966557783, 35.11631521841093], [139.8515155748484, 35.11609043763613], [139.85152538205568, 35.115865240214674], [139.85153518926293, 35.11564004279322], [139.85152541962304, 35.11541485081583], [139.8515098886409, 35.11519001166221]]}}, {"type": "Feature", "properties": {"id": "富津館山道路-下り-0-8", "route": "富津館山道路", "direction": "下り", "from": "鋸南富山IC", "to": "富楽里PA;道の駅富楽里とみやま", "grade": -0.52, "elevation_start": 42.3, "elevation_end": 41.0, "quality": "estimated", "structure": "bridge", "chain_rank": 0, "cum_dist_start": 2000.0, "cum_dist_end": 2250.0, "anomaly": false}, "geometry": {"type": "LineString", "coordinates": [[139.8515098886409, 35.11519001166221], [139.8514775230556, 35.11496624489037], [139.85144012633106, 35.114743027296825], [139.85140027147156, 35.11452007802311], [139.85135824505352, 35.114297439866995], [139.85130392561945, 35.11407656292225], [139.85124960618538, 35.113855685977505], [139.85119528675128, 35.11363480903277], [139.8511409673172, 35.11341393208802], [139.85108664788314, 35.113193055143284], [139.85103232844904, 35.11297217819854]]}}, {"type": "Feature", "properties": {"id": "富津館山道路-下り-0-9", "route": "富津館山道路", "direction": "下り", "from": "鋸南富山IC", "to": "富楽里PA;道の駅富楽里とみやま", "grade": -0.52, "elevation_start": 41.0, "elevation_end": 39.6, "quality": "estimated", "structure": "bridge", "chain_rank": 0, "cum_dist_start": 2250.0, "cum_dist_end": 2500.0, "anomaly": false}, "geometry": {"type": "LineString", "coordinates": [[139.85103232844904, 35.11297217819854], [139.8509758762642, 35.112751669686325], [139.8509173731647, 35.11253151546944], [139.85085887006522, 35.11231136125256], [139.85080036696576, 35.112091207035675], [139.85075313295465, 35.11186925671601], [139.85071321753205, 35.11164633711599], [139.8506757027222, 35.11142311391296], [139.85064847585366, 35.11119894506341], [139.8506290140128, 35.110974203211185], [139.85061483556353, 35.110749162864366]]}}, {"type": "Feature", "properties": {"id": "富津館山道路-下り-0-10", "route": "富津館山道路", "direction": "下り", "from": "鋸南富山IC", "to": "富楽里PA;道の駅富楽里とみやま", "grade": -0.52, "elevation_start": 39.6, "elevation_end": 38.3, "quality": "estimated", "structure": "tunnel", "chain_rank": 0, "cum_dist_start": 2500.0, "cum_dist_end": 2750.0, "anomaly": false}, "geometry": {"type": "LineString", "coordinates": [[139.85061483556353, 35.110749162864366], [139.8506142975356, 35.11052396142188], [139.85062475070347, 35.11029886639664], [139.85064849154406, 35.11007437069179], [139.85068320453274, 35.10985101849584], [139.85073564718118, 35.1096299450712], [139.85080336927365, 35.10941171429374], [139.8508848190791, 35.109196541892686], [139.850979038429, 35.108985016091786], [139.85107751944298, 35.10877470729476], [139.85117820825025, 35.10856511762723]]}}, {"type": "Feature", "properties": {"id": "富津館山道路-下り-0-11", "route": "富津館山道路", "direction": "下り", "from": "鋸南富山IC", "to": "富楽里PA;道の駅富楽里とみやま", "grade": -0.52, "elevation_start": 38.3, "elevation_end": 37.0, "quality": "estimated", "structure": "tunnel", "chain_rank": 0, "cum_dist_start": 2750.0, "cum_dist_end": 3000.0, "anomaly": false}, "geometry": {"type": "LineString", "coordinates": [[139.85117820825025, 35.10856511762723], [139.85128176925016, 35.10835646349951], [139.85138533025005, 35.1081478093718], [139.85148889124997, 35.10793915524408], [139.85159245224986, 35.107730501116365], [139.85169601324978, 35.10752184698865], [139.85179957424967, 35.107313192860936], [139.85190342017364, 35.10710463686408], [139.852011790598, 35.106897639153146], [139.85212016102236, 35.10669064144222], [139.85222982658212, 35.10648411687564]]}}, {"type": "Feature", "properties": {"id": "富津館山道路-下り-0-12", "route": "富津館山道路", "direction": "下り", "from": "鋸南富山IC", "to": "富楽里PA;道の駅富楽里とみやま", "grade": -0.77, "elevation_start": 37.0, "elevation_end": 35.1, "quality": "estimated", "structure": "normal", "chain_rank": 0, "cum_dist_start": 3000.0, "cum_dist_end": 3250.0, "anomaly": false}, "geometry": {"type": "LineString", "coordinates": [[139.85222982658212, 35.10648411687564], [139.85234418700685, 35.106279307457015], [139.85245854743158, 35.10607449803839], [139.85257290785628, 35.10586968861976], [139.85268726828102, 35.10566487920113], [139.85280162870575, 35.1054600697825], [139.85291571045906, 35.10525515919886], [139.85302297174056, 35.10504777260539], [139.85313023302203, 35.10484038601191], [139.8532374943035, 35.104632999418435], [139.85334475558497, 35.10442561282496]]}}, {"type": "Feature", "properties": {"id": "富津館山道路-下り-0-13", "route": "富津館山道路", "direction": "下り", "from": "鋸南富山IC", "to": "富楽里PA;道の駅富楽里とみやま", "grade": -1.58, "elevation_start": 35.1, "elevation_end": 31.1, "quality": "estimated", "structure": "normal", "chain_rank": 0, "cum_dist_start": 3250.0, "cum_dist_end": 3500.0, "anomaly": false}, "geometry": {"type": "LineString", "coordinates": [[139.85334475558497, 35.10442561282496], [139.85345215608598, 35.10421827536229], [139.85356119152715, 35.10401151487276], [139.8536702269683, 35.103804754383226], [139.85378685143357, 35.10360088094407], [139.85390811630307, 35.1033987728282], [139.8540360525366, 35.10319964790015], [139.85417668024425, 35.10300619813106], [139.85432927474818, 35.10281909071855], [139.85448568798682, 35.10263400722093], [139.8546472976399, 35.10245200748786]]}}, {"type": "Feature", "properties": {"id": "富津館山道路-下り-0-14", "route": "富津館山道路", "direction": "下り", "from": "鋸南富山IC", "to": "富楽里PA;道の駅富楽里とみやま", "grade": -1.07, "elevation_start": 31.1, "elevation_end": 28.5, "quality": "estimated", "structure": "bridge", "chain_rank": 0, "cum_dist_start": 3500.0, "cum_dist_end": 3750.0, "anomaly": false}, "geometry": {"type": "LineString", "coordinates": [[139.8546472976399, 35.10245200748786], [139.8548118631155, 35.10227176186058], [139.85498579041416, 35.10209769434509], [139.8551652174319, 35.10192730746351], [139.85534870293117, 35.101759854284076], [139.85553596702965, 35.101595378310044], [139.85573533451623, 35.10144067321612], [139.8559347020028, 35.10128596812219], [139.85613406948937, 35.101131263028265], [139.85633382738376, 35.100976910974474], [139.8565401837178, 35.10082852579414]]}}, {"type": "Feature", "properties": {"id": "富津館山道路-下り-0-15", "route": "富津館山道路", "direction": "下り", "from": "富楽里PA;道の駅富楽里とみやま", "to": "ＨＷオアシス富楽里とみやま", "grade": -1.07, "elevation_start": 28.5, "elevation_end": 25.8, "quality": "estimated", "structure": "bridge", "chain_rank": 0, "cum_dist_start": 3750.0, "cum_dist_end": 4000.0, "anomaly": false}, "geometry": {"type": "LineString", "coordinates": [[139.8565401837178, 35.10082852579414], [139.85674654005186, 35.100680140613804], [139.85695289280196, 35.10053175208562], [139.85715842407205, 35.10038259619875], [139.85736325086097, 35.10023278781848], [139.85756804660156, 35.10008295068111], [139.8577651449477, 35.09992630942302], [139.8579591412811, 35.099767137985445], [139.85814649267263, 35.09960260462175], [139.8583238757052, 35.099430896836516], [139.85849491892904, 35.09925481547068]]}}, {"type": "Feature", "properties": {"id": "富津館山道路-下り-0-16", "route": "富津館山道路", "direction": "下り", "from": "ＨＷオアシス富楽里とみやま", "to": null, "grade": 2.12, "elevation_start": 25.8, "elevation_end": 31.1, "quality": "measured", "structure": "normal", "chain_rank": 0, "cum_dist_start": 4000.0, "cum_dist_end": 4250.0, "anomaly": false}, "geometry": {"type": "LineString", "coordinates": [[139.85849491892904, 35.09925481547068], [139.85866119388297, 35.09907563655314], [139.85881746523543, 35.098890543730256], [139.85896893412593, 35.09870278493614], [139.85910729951533, 35.098508240037646], [139.859236407777, 35.098309503117825], [139.85936059099933, 35.09810863685482], [139.85947564266073, 35.09790409299475], [139.859580242321, 35.097695877168626], [139.85967814620588, 35.09748541256365], [139.85977119951875, 35.097273444822754]]}}, {"type": "Feature", "properties": {"id": "富津館山道路-下り-0-17", "route": "富津館山道路", "direction": "下り", "from": "ＨＷオアシス富楽里とみやま", "to": null, "grade": -0.27, "elevation_start": 31.1, "elevation_end": 30.4, "quality": "estimated", "structure": "normal", "chain_rank": 0, "cum_dist_start": 4250.0, "cum_dist_end": 4500.0, "anomaly": false}, "geometry": {"type": "LineString", "coordinates": [[139.85977119951875, 35.097273444822754], [139.8598490809528, 35.09705761907356], [139.85991589549315, 35.09683907433128], [139.85998027366944, 35.09662005502194], [139.86003217780822, 35.09639878737833], [139.86007911895595, 35.09617678503363], [139.86012179304254, 35.09595421877984], [139.86015712164675, 35.0957307549945], [139.86019245025096, 35.09550729120915], [139.8602277788552, 35.095283827423806], [139.86026310745942, 35.09506036363847]]}}, {"type": "Feature", "properties": {"id": "富津館山道路-下り-0-18", "route": "富津館山道路", "direction": "下り", "from": "ＨＷオアシス富楽里とみやま", "to": null, "grade": -0.88, "elevation_start": 30.4, "elevation_end": 28.2, "quality": "estimated", "structure": "bridge", "chain_rank": 0, "cum_dist_start": 4500.0, "cum_dist_end": 4750.0, "anomaly": false}, "geometry": {"type": "LineString", "coordinates": [[139.86026310745942, 35.09506036363847], [139.86029427582525, 35.094836484390555], [139.86032508712162, 35.09461256948387], [139.860355898418, 35.09438865457718], [139.8603867097144, 35.0941647396705], [139.86041752101076, 35.09394082476381], [139.8604487364041, 35.09371694980192], [139.86048339967064, 35.09349341566072], [139.86051806293722, 35.093269881519504], [139.86055272620376, 35.0930463473783], [139.86058738947034, 35.092822813237085]]}}, {"type": "Feature", "properties": {"id": "富津館山道路-下り-0-19", "route": "富津館山道路", "direction": "下り", "from": "ＨＷオアシス富楽里とみやま", "to": null, "grade": -0.88, "elevation_start": 28.2, "elevation_end": 26.0, "quality": "estimated", "structure": "bridge", "chain_rank": 0, "cum_dist_start": 4750.0, "cum_dist_end": 5000.0, "anomaly": false}, "geometry": {"type": "LineString", "coordinates": [[139.86058738947034, 35.092822813237085], [139.8606221211569, 35.09259928633817], [139.860657491804, 35.09237582707355], [139.86069578294334, 35.092152694772324], [139.86073678830263, 35.0919298955327], [139.86078011733784, 35.09170738503445], [139.86082287935864, 35.09148480587102], [139.86085948089513, 35.091261480572115], [139.86089620232522, 35.0910381685737], [139.8609329237553, 35.090814856575285], [139.8609696451854, 35.09059154457687]]}}, {"type": "Feature", "properties": {"id": "富津館山道路-下り-0-20", "route": "富津館山道路", "direction": "下り", "from": "ＨＷオアシス富楽里とみやま", "to": null, "grade": 1.63, "elevation_start": 26.0, "elevation_end": 30.1, "quality": "estimated", "structure": "normal", "chain_rank": 0, "cum_dist_start": 5000.0, "cum_dist_end": 5250.0, "anomaly": false}, "geometry": {"type": "LineString", "coordinates": [[139.8609696451854, 35.09059154457687], [139.8609955508811, 35.090367224225325], [139.86102061370562, 35.09014282529273], [139.86104567653013, 35.089918426360136], [139.86105634078228, 35.089693278874265], [139.86106587525424, 35.08946807265336], [139.8610754097262, 35.08924286643245], [139.8610737555636, 35.089017544943246], [139.86107109020656, 35.08879221303644], [139.861063085412, 35.088566991837844], [139.86105046031113, 35.088341926336994]]}}, {"type": "Feature", "properties": {"id": "富津館山道路-下り-0-21", "route": "富津館山道路", "direction": "下り", "from": "ＨＷオアシス富楽里とみやま", "to": null, "grade": 2.54, "elevation_start": 30.1, "elevation_end": 36.4, "quality": "measured", "structure": "normal", "chain_rank": 0, "cum_dist_start": 5250.0, "cum_dist_end": 5500.0, "anomaly": false}, "geometry": {"type": "LineString", "coordinates": [[139.86105046031113, 35.088341926336994], [139.86102063712164, 35.088117921047015], [139.86099081393215, 35.087893915757036], [139.86096560357257, 35.08766955858843], [139.86094455213697, 35.08744488353455], [139.8609166683524, 35.087220709524786], [139.86088767888944, 35.08699663446777], [139.86085237857404, 35.086773202203915], [139.86080125147583, 35.08655187092485], [139.86074305891955, 35.08633168771506], [139.86066976007072, 35.08611461324364]]}}, {"type": "Feature", "properties": {"id": "富津館山道路-下り-1-0", "route": "富津館山道路", "direction": "下り", "from": null, "to": null, "grade": 0.0, "elevation_start": 65.0, "elevation_end": 65.0, "quality": "estimated", "structure": "bridge", "chain_rank": 1, "cum_dist_start": 0.0, "cum_dist_end": 250.0, "anomaly": false}, "geometry": {"type": "LineString", "coordinates": [[139.8532719, 35.066114], [139.85334680619587, 35.0658972359344], [139.8534217123917, 35.065680471868795], [139.85349661858757, 35.0654637078032], [139.8535715247834, 35.06524694373759], [139.85364643097927, 35.06503017967199], [139.85372133717513, 35.064813415606395], [139.85379624337097, 35.06459665154079], [139.85387255597234, 35.0643802225656], [139.85395016690913, 35.064164102932025], [139.85402777784591, 35.06394798329845]]}}, {"type": "Feature", "properties": {"id": "富津館山道路-下り-1-1", "route": "富津館山道路", "direction": "下り", "from": null, "to": null, "grade": 0.0, "elevation_start": 65.0, "elevation_end": 65.0, "quality": "estimated", "structure": "tunnel", "chain_rank": 1, "cum_dist_start": 250.0, "cum_dist_end": 500.0, "anomaly": false}, "geometry": {"type": "LineString", "coordinates": [[139.85402777784591, 35.06394798329845], [139.85410538878267, 35.06373186366486], [139.8541749746341, 35.06351390900492], [139.85424422534624, 35.06329587771158], [139.85431347605834, 35.063077846418246], [139.85438272677047, 35.06285981512491], [139.85445197748257, 35.06264178383157], [139.8545212281947, 35.06242375253824], [139.8545908524396, 35.062205801959955], [139.85466072828694, 35.06198790574933], [139.8547306041343, 35.06177000953871]]}}, {"type": "Feature", "properties": {"id": "富津館山道路-下り-1-2", "route": "富津館山道路", "direction": "下り", "from": null, "to": null, "grade": 0.0, "elevation_start": 65.0, "elevation_end": 65.0, "quality": "estimated", "structure": "tunnel", "chain_rank": 1, "cum_dist_start": 500.0, "cum_dist_end": 750.0, "anomaly": false}, "geometry": {"type": "LineString", "coordinates": [[139.8547306041343, 35.06177000953871], [139.85480047998163, 35.06155211332809], [139.85487035582895, 35.06133421711747], [139.8549402316763, 35.06111632090685], [139.85500770214935, 35.060897930877964], [139.8550706060003, 35.06067860333121], [139.85513230063603, 35.060459046839924], [139.85519239870635, 35.06023918806588], [139.85524821425162, 35.06001858434201], [139.85529494116693, 35.059796671684445], [139.85532895447375, 35.059573070297084]]}}, {"type": "Feature", "properties": {"id": "富津館山道路-下り-1-3", "route": "富津館山道路", "direction": "下り", "from": null, "to": null, "grade": 0.0, "elevation_start": 65.0, "elevation_end": 65.0, "quality": "estimated", "structure": "bridge", "chain_rank": 1, "cum_dist_start": 750.0, "cum_dist_end": 1000.0, "anomaly": false}, "geometry": {"type": "LineString", "coordinates": [[139.85532895447375, 35.059573070297084], [139.85535813524834, 35.05934907856424], [139.85537768923297, 35.059124309232004], [139.85539371793058, 35.058899354459186], [139.85540558175313, 35.05867425345368], [139.85541009731756, 35.05844894969945], [139.8554093786751, 35.058223615167385], [139.8554025995759, 35.05799834730363], [139.8553893346221, 35.05777328846136], [139.8553664606139, 35.05754873105529], [139.855340218739, 35.05732443433597]]}}, {"type": "Feature", "properties": {"id": "富津館山道路-下り-1-4", "route": "富津館山道路", "direction": "下り", "from": null, "to": null, "grade": 0.01, "elevation_start": 65.0, "elevation_end": 65.0, "quality": "estimated", "structure": "bridge", "chain_rank": 1, "cum_dist_start": 1000.0, "cum_dist_end": 1250.0, "anomaly": false}, "geometry": {"type": "LineString", "coordinates": [[139.855340218739, 35.05732443433597], [139.85530922804384, 35.05710054802134], [139.85527301136898, 35.05687719682041], [139.8552314589062, 35.05665445872895], [139.8551837163928, 35.056432579526444], [139.85513132310533, 35.056211394591884], [139.85507326210234, 35.0559911664383], [139.85501520109935, 35.05577093828472], [139.85494898567538, 35.055552285335075], [139.8548812644613, 35.055333931871665], [139.85481177433073, 35.0551159532395]]}}, {"type": "Feature", "properties": {"id": "富津館山道路-下り-1-5", "route": "富津館山道路", "direction": "下り", "from": null, "to": null, "grade": -0.78, "elevation_start": 65.0, "elevation_end": 63.1, "quality": "measured", "structure": "normal", "chain_rank": 1, "cum_dist_start": 1250.0, "cum_dist_end": 1500.0, "anomaly": false}, "geometry": {"type": "LineString", "coordinates": [[139.85481177433073, 35.0551159532395], [139.85474228420014, 35.054897974607336], [139.85467754872514, 35.05467901014581], [139.85461303407843, 35.05445999989779], [139.85454494805956, 35.0542417261447], [139.8544761571808, 35.054023597749115], [139.85440736630207, 35.053805469353534], [139.85433880629725, 35.0535872920695], [139.8542708415497, 35.053368988737475], [139.85420287680213, 35.053150685405456], [139.85413491205455, 35.05293238207343]]}}, {"type": "Feature", "properties": {"id": "富津館山道路-下り-1-6", "route": "富津館山道路", "direction": "下り", "from": null, "to": null, "grade": -3.6, "elevation_start": 63.1, "elevation_end": 54.1, "quality": "measured", "structure": "normal", "chain_rank": 1, "cum_dist_start": 1500.0, "cum_dist_end": 1750.0, "anomaly": false}, "geometry": {"type": "LineString", "coordinates": [[139.85413491205455, 35.05293238207343], [139.85406788356863, 35.05271388368883], [139.85400120816888, 35.05249531174535], [139.8539340060549, 35.052276850216735], [139.85386532009727, 35.052058699745594], [139.85379663413963, 35.05184054927445], [139.85372913615527, 35.05162214889919], [139.85366199736356, 35.05140367304292], [139.85359500842134, 35.05118516611634], [139.8535273013807, 35.05096680951287], [139.8534591240977, 35.05074855134756]]}}, {"type": "Feature", "properties": {"id": "富津館山道路-下り-1-7", "route": "富津館山道路", "direction": "下り", "from": null, "to": null, "grade": -3.17, "elevation_start": 54.1, "elevation_end": 46.1, "quality": "measured", "structure": "normal", "chain_rank": 1, "cum_dist_start": 1750.0, "cum_dist_end": 2000.0, "anomaly": false}, "geometry": {"type": "LineString", "coordinates": [[139.8534591240977, 35.05074855134756], [139.85339094681473, 35.05053029318225], [139.85332317739955, 35.05031194942235], [139.85325578055307, 35.050093527475696], [139.8531932439616, 35.049874143515915], [139.85313239629818, 35.049654425258666], [139.8530786982844, 35.049433452643484], [139.85303345669183, 35.049211278527565], [139.852995025875, 35.048988166733885], [139.85296480277975, 35.048764228393814], [139.85294243235086, 35.048539641100625]]}}, {"type": "Feature", "properties": {"id": "富津館山道路-下り-1-8", "route": "富津館山道路", "direction": "下り", "from": null, "to": null, "grade": -2.5, "elevation_start": 46.1, "elevation_end": 39.9, "quality": "measured", "structure": "normal", "chain_rank": 1, "cum_dist_start": 2000.0, "cum_dist_end": 2250.0, "anomaly": false}, "geometry": {"type": "LineString", "coordinates": [[139.85294243235086, 35.048539641100625], [139.85293191041683, 35.04831450581619], [139.8529314898031, 35.04808916200555], [139.85293516147865, 35.047863893869575], [139.85294789937396, 35.04763879338621], [139.8529662495105, 35.04741397044147], [139.85298791670274, 35.04718934329657], [139.85301454683676, 35.04696506588115], [139.85304117697075, 35.04674078846573], [139.8530676754429, 35.04651650052039], [139.85309407194268, 35.0462922044196]]}}, {"type": "Feature", "properties": {"id": "富津館山道路-下り-1-9", "route": "富津館山道路", "direction": "下り", "from": null, "to": null, "grade": -2.65, "elevation_start": 39.9, "elevation_end": 33.3, "quality": "measured", "structure": "normal", "chain_rank": 1, "cum_dist_start": 2250.0, "cum_dist_end": 2500.0, "anomaly": false}, "geometry": {"type": "LineString", "coordinates": [[139.85309407194268, 35.0462922044196], [139.85312046844248, 35.046067908318804], [139.85314169567107, 35.04584324761815], [139.85316212449055, 35.04561853060398], [139.8531825477208, 35.045393813249795], [139.8532025257842, 35.045169068814154], [139.8532225038476, 35.04494432437851], [139.85324268921124, 35.04471959280037], [139.85326392917875, 35.044494926632545], [139.85326779250707, 35.04426969994946], [139.8532505685594, 35.04404493745047]]}}, {"type": "Feature", "properties": {"id": "富津館山道路-下り-2-0", "route": "富津館山道路", "direction": "下り", "from": null, "to": "鋸南保田ＩＣ", "grade": 0.0, "elevation_start": 0.0, "elevation_end": 0.0, "quality": "estimated", "structure": "tunnel", "chain_rank": 2, "cum_dist_start": 0.0, "cum_dist_end": 250.0, "anomaly": false}, "geometry": {"type": "LineString", "coordinates": [[139.8331302, 35.1630073], [139.8332889558559, 35.16282350844297], [139.83344771171178, 35.16263971688595], [139.83360646756768, 35.16245592532892], [139.8337652234236, 35.1622721337719], [139.8339239792795, 35.16208834221487], [139.83408273513538, 35.161904550657844], [139.83424149099127, 35.161720759100824], [139.83440024684717, 35.161536967543796], [139.83455900270306, 35.161353175986775], [139.83471775855895, 35.16116938442975]]}}, {"type": "Feature", "properties": {"id": "富津館山道路-下り-2-1", "route": "富津館山道路", "direction": "下り", "from": null, "to": "鋸南保田ＩＣ", "grade": 0.0, "elevation_start": 0.0, "elevation_end": 0.0, "quality": "estimated", "structure": "tunnel", "chain_rank": 2, "cum_dist_start": 250.0, "cum_dist_end": 500.0, "anomaly": false}, "geometry": {"type": "LineString", "coordinates": [[139.83471775855895, 35.16116938442975], [139.83487651441487, 35.16098559287273], [139.83503527027077, 35.1608018013157], [139.83519402612666, 35.16061800975867], [139.83535278198255, 35.16043421820165], [139.83551153783844, 35.16025042664462], [139.83567029369433, 35.1600666350876], [139.83582904955023, 35.159882843530575], [139.83598780540615, 35.15969905197355], [139.83614656126204, 35.159515260416526], [139.83630531711793, 35.1593314688595]]}}, {"type": "Feature", "properties": {"id": "富津館山道路-下り-2-2", "route": "富津館山道路", "direction": "下り", "from": null, "to": "鋸南保田ＩＣ", "grade": 0.0, "elevation_start": 0.0, "elevation_end": 0.0, "quality": "estimated", "structure": "tunnel", "chain_rank": 2, "cum_dist_start": 500.0, "cum_dist_end": 750.0, "anomaly": false}, "geometry": {"type": "LineString", "coordinates": [[139.83630531711793, 35.1593314688595], [139.83646407297383, 35.15914767730248], [139.83662282882972, 35.15896388574545], [139.8367815846856, 35.15878009418842], [139.8369403405415, 35.1585963026314], [139.83709909639742, 35.158412511074374], [139.83725785225332, 35.15822871951735], [139.8374166081092, 35.158044927960326], [139.8375753639651, 35.157861136403305], [139.837734119821, 35.15767734484628], [139.83789287567689, 35.15749355328925]]}}, {"type": "Feature", "properties": {"id": "富津館山道路-下り-2-3", "route": "富津館山道路", "direction": "下り", "from": null, "to": "鋸南保田ＩＣ", "grade": 0.0, "elevation_start": 0.0, "elevation_end": 0.0, "quality": "estimated", "structure": "tunnel", "chain_rank": 2, "cum_dist_start": 750.0, "cum_dist_end": 1000.0, "anomaly": false}, "geometry": {"type": "LineString", "coordinates": [[139.83789287567689, 35.15749355328925], [139.8380516315328, 35.15730976173223], [139.8382103873887, 35.1571259701752], [139.8383691432446, 35.15694217861818], [139.83852789910048, 35.15675838706115], [139.83868665495638, 35.156574595504125], [139.83884541081227, 35.156390803947104], [139.83900416666816, 35.15620701239008], [139.83916292252408, 35.156023220833056], [139.83932167837997, 35.15583942927603], [139.83948043423587, 35.155655637719]]}}, {"type": "Feature", "properties": {"id": "富津館山道路-下り-2-4", "route": "富津館山道路", "direction": "下り", "from": null, "to": "鋸南保田ＩＣ", "grade": 0.0, "elevation_start": 0.0, "elevation_end": 0.0, "quality": "estimated", "structure": "tunnel", "chain_rank": 2, "cum_dist_start": 1000.0, "cum_dist_end": 1250.0, "anomaly": false}, "geometry": {"type": "LineString", "coordinates": [[139.83948043423587, 35.155655637719], [139.83963919009176, 35.15547184616198], [139.83979794594765, 35.15528805460495], [139.83995670180354, 35.15510426304793], [139.84011545765944, 35.154920471490904], [139.84027421351536, 35.15473667993388], [139.84043296937125, 35.154552888376855], [139.84059172522714, 35.15436909681983], [139.84075048108303, 35.15418530526281], [139.84090923693893, 35.15400151370578], [139.84106799279482, 35.15381772214876]]}}, {"type": "Feature", "properties": {"id": "富津館山道路-下り-2-5", "route": "富津館山道路", "direction": "下り", "from": null, "to": "鋸南保田ＩＣ", "grade": 0.0, "elevation_start": 0.0, "elevation_end": 0.0, "quality": "estimated", "structure": "tunnel", "chain_rank": 2, "cum_dist_start": 1250.0, "cum_dist_end": 1500.0, "anomaly": false}, "geometry": {"type": "LineString", "coordinates": [[139.84106799279482, 35.15381772214876], [139.8412267486507, 35.15363393059173], [139.84138550450663, 35.1534501390347], [139.84154426036253, 35.15326634747768], [139.84170301621842, 35.153082555920655], [139.8418617720743, 35.152898764363634], [139.8420205279302, 35.152714972806606], [139.8421792837861, 35.15253118124958], [139.842338039642, 35.15234738969256], [139.8424967954979, 35.15216359813553], [139.8426555513538, 35.15197980657851]]}}, {"type": "Feature", "properties": {"id": "富津館山道路-下り-2-6", "route": "富津館山道路", "direction": "下り", "from": null, "to": "鋸南保田ＩＣ", "grade": 0.0, "elevation_start": 0.0, "elevation_end": 0.0, "quality": "estimated", "structure": "tunnel", "chain_rank": 2, "cum_dist_start": 1500.0, "cum_dist_end": 1750.0, "anomaly": false}, "geometry": {"type": "LineString", "coordinates": [[139.8426555513538, 35.15197980657851], [139.8428143072097, 35.15179601502148], [139.84297298099597, 35.15161217635495], [139.84313028321628, 35.151427550383715], [139.8432875854366, 35.15124292441247], [139.84344488765691, 35.15105829844123], [139.84360218987723, 35.15087367246999], [139.84375949209752, 35.15068904649875], [139.84391961743884, 35.150506076292736], [139.84408107018984, 35.15032388461476], [139.84424252294085, 35.15014169293678]]}}, {"type": "Feature", "properties": {"id": "富津館山道路-下り-2-7", "route": "富津館山道路", "direction": "下り", "from": null, "to": "鋸南保田ＩＣ", "grade": 0.0, "elevation_start": 0.0, "elevation_end": 0.0, "quality": "estimated", "structure": "tunnel", "chain_rank": 2, "cum_dist_start": 1750.0, "cum_dist_end": 2000.0, "anomaly": false}, "geometry": {"type": "LineString", "coordinates": [[139.84424252294085, 35.15014169293678], [139.84440397569185, 35.1499595012588], [139.84456542844285, 35.14977730958082], [139.84472688119388, 35.14959511790284], [139.84488833394488, 35.14941292622486], [139.84504841411672, 35.14922992957858], [139.84520590158263, 35.14904541240355], [139.84536338904854, 35.14886089522853], [139.84552004507194, 35.1486759022481], [139.84567641696734, 35.1484907466712], [139.84583278886274, 35.14830559109429]]}}, {"type": "Feature", "properties": {"id": "富津館山道路-下り-2-8", "route": "富津館山道路", "direction": "下り", "from": null, "to": "鋸南保田ＩＣ", "grade": 0.0, "elevation_start": 0.0, "elevation_end": 0.0, "quality": "estimated", "structure": "tunnel", "chain_rank": 2, "cum_dist_start": 2000.0, "cum_dist_end": 2250.0, "anomaly": false}, "geometry": {"type": "LineString", "coordinates": [[139.84583278886274, 35.14830559109429], [139.84598442053513, 35.148117807018515], [139.84613508448868, 35.14792948633341], [139.8462836905988, 35.147740135218434], [139.84641849432057, 35.147543872793705], [139.84655329804235, 35.147347610368975], [139.84668071920524, 35.147148053779624], [139.8468015138063, 35.14694578068106], [139.84691853166393, 35.14674196615119], [139.8470244899339, 35.14653412437688], [139.84712646030133, 35.14632497710484]]}}, {"type": "Feature", "properties": {"id": "富津館山道路-下り-2-9", "route": "富津館山道路", "direction": "下り", "from": null, "to": "鋸南保田ＩＣ", "grade": 0.0, "elevation_start": 0.0, "elevation_end": 0.0, "quality": "estimated", "structure": "tunnel", "chain_rank": 2, "cum_dist_start": 2250.0, "cum_dist_end": 2500.0, "anomaly": false}, "geometry": {"type": "LineString", "coordinates": [[139.84712646030133, 35.14632497710484], [139.84722042273017, 35.14611326536201], [139.84731438515902, 35.14590155361918], [139.8473888699803, 35.14568472498896], [139.84745703570806, 35.14546652170167], [139.84751641465135, 35.145246522716725], [139.84756589486068, 35.14502495262556], [139.84761057704148, 35.1448026210014], [139.84765126341398, 35.14457977784229], [139.84769107529425, 35.144356822732526], [139.84772358680382, 35.14413315518448]]}}, {"type": "Feature", "properties": {"id": "富津館山道路-下り-2-10", "route": "富津館山道路", "direction": "下り", "from": null, "to": "鋸南保田ＩＣ", "grade": 0.0, "elevation_start": 0.0, "elevation_end": 0.0, "quality": "estimated", "structure": "bridge", "chain_rank": 2, "cum_dist_start": 2500.0, "cum_dist_end": 2750.0, "anomaly": false}, "geometry": {"type": "LineString", "coordinates": [[139.84772358680382, 35.14413315518448], [139.84774848418303, 35.143908744578546], [139.84777225483467, 35.14368426967903], [139.84778317322466, 35.1434591199673], [139.84779036942942, 35.14323385695133], [139.8477975656342, 35.14300859393538], [139.84780476183897, 35.14278333091942], [139.84781195804374, 35.142558067903465], [139.8478191542485, 35.1423328048875], [139.8478263504533, 35.142107541871546], [139.84783354665805, 35.14188227885559]]}}, {"type": "Feature", "properties": {"id": "富津館山道路-下り-2-11", "route": "富津館山道路", "direction": "下り", "from": "鋸南保田ＩＣ", "to": null, "grade": 0.0, "elevation_start": 0.0, "elevation_end": 0.0, "quality": "estimated", "structure": "bridge", "chain_rank": 2, "cum_dist_start": 2750.0, "cum_dist_end": 3000.0, "anomaly": false}, "geometry": {"type": "LineString", "coordinates": [[139.84783354665805, 35.14188227885559], [139.84783444335775, 35.1416569832726], [139.8478306972431, 35.1414316636873], [139.84781681186107, 35.141206620488035], [139.8478023629477, 35.14098159265006], [139.8477879140343, 35.14075656481207], [139.84777704396572, 35.14053140741966], [139.84776891475465, 35.14030616574048], [139.84775409731483, 35.14008117921618], [139.84773677537, 35.13985628823835], [139.8477162658911, 35.13963160686705]]}}, {"type": "Feature", "properties": {"id": "富津館山道路-下り-2-12", "route": "富津館山道路", "direction": "下り", "from": "鋸南保田ＩＣ", "to": null, "grade": 0.0, "elevation_start": 0.0, "elevation_end": 0.0, "quality": "estimated", "structure": "tunnel", "chain_rank": 2, "cum_dist_start": 3000.0, "cum_dist_end": 3250.0, "anomaly": false}, "geometry": {"type": "LineString", "coordinates": [[139.8477162658911, 35.13963160686705], [139.84768842704412, 35.13940744151572], [139.84765490886306, 35.139183789227864], [139.84762066557607, 35.13896021492273], [139.8475829637315, 35.13873701257394], [139.84754526188692, 35.13851381022515], [139.8475053524439, 35.13829087514722], [139.84746306235633, 35.13806822829061], [139.84742077226875, 35.13784558143399], [139.8473759159028, 35.13762328340026], [139.84732865152617, 35.137401312676765]]}}, {"type": "Feature", "properties": {"id": "富津館山道路-下り-2-13", "route": "富津館山道路", "direction": "下り", "from": "鋸南保田ＩＣ", "to": null, "grade": 0.0, "elevation_start": 0.0, "elevation_end": 0.0, "quality": "estimated", "structure": "tunnel", "chain_rank": 2, "cum_dist_start": 3250.0, "cum_dist_end": 3500.0, "anomaly": false}, "geometry": {"type": "LineString", "coordinates": [[139.84732865152617, 35.137401312676765], [139.84728138714956, 35.13717934195327], [139.84723412277293, 35.13695737122978], [139.84718685839633, 35.13673540050629], [139.8471395940197, 35.136513429782795], [139.8470923296431, 35.1362914590593], [139.84704506526646, 35.13606948833581], [139.84699592635874, 35.13584779318956], [139.8469465624463, 35.135626131121555], [139.84689719853387, 35.13540446905355], [139.84684386747358, 35.135183442479736]]}}, {"type": "Feature", "properties": {"id": "富津館山道路-下り-3-0", "route": "富津館山道路", "direction": "下り", "from": null, "to": "富津金谷IC", "grade": 0.0, "elevation_start": 29.4, "elevation_end": 29.4, "quality": "estimated", "structure": "normal", "chain_rank": 3, "cum_dist_start": 0.0, "cum_dist_end": 250.0, "anomaly": false}, "geometry": {"type": "LineString", "coordinates": [[139.8307848, 35.1736048], [139.83074130579, 35.17338230856571], [139.83069781158, 35.17315981713141], [139.83065431737, 35.17293732569712], [139.83061082316001, 35.17271483426283], [139.83056732895, 35.172492342828534], [139.83052383474, 35.17226985139424], [139.83048782987544, 35.17204650299619], [139.83045558390867, 35.171822724488564], [139.8304233379419, 35.17159894598094], [139.83039412764649, 35.17137491021973]]}}, {"type": "Feature", "properties": {"id": "富津館山道路-下り-3-1", "route": "富津館山道路", "direction": "下り", "from": "富津金谷IC", "to": null, "grade": 0.0, "elevation_start": 29.4, "elevation_end": 29.4, "quality": "estimated", "structure": "bridge", "chain_rank": 3, "cum_dist_start": 250.0, "cum_dist_end": 500.0, "anomaly": false}, "geometry": {"type": "LineString", "coordinates": [[139.83039412764649, 35.17137491021973], [139.8303700335747, 35.171150440891566], [139.83034390127122, 35.17092613175375], [139.83032025104097, 35.170701666693674], [139.83030184617482, 35.17047683452186], [139.83029366388172, 35.170251722322746], [139.8302961183031, 35.1700263955113], [139.83029963365036, 35.16980107445923], [139.8303067371616, 35.16957585014754], [139.83032123046263, 35.16935082507172], [139.830337909536, 35.16912592829611]]}}, {"type": "Feature", "properties": {"id": "富津館山道路-下り-3-2", "route": "富津館山道路", "direction": "下り", "from": "富津金谷IC", "to": null, "grade": 0.0, "elevation_start": 29.4, "elevation_end": 29.4, "quality": "estimated", "structure": "bridge", "chain_rank": 3, "cum_dist_start": 500.0, "cum_dist_end": 750.0, "anomaly": false}, "geometry": {"type": "LineString", "coordinates": [[139.830337909536, 35.16912592829611], [139.83036254414716, 35.16890149849375], [139.83038717875831, 35.168677068691395], [139.8304170841738, 35.16845318456693], [139.8304610599243, 35.1682307571216], [139.8305050356748, 35.16800832967627], [139.83055420795577, 35.16778663902113], [139.8306121300699, 35.16756639124253], [139.83067116164682, 35.167346327110614], [139.83073447769613, 35.16712710396652], [139.83080301993502, 35.16690890665744]]}}, {"type": "Feature", "properties": {"id": "富津館山道路-下り-4-0", "route": "富津館山道路", "direction": "下り", "from": null, "to": "富津竹岡IC", "grade": -1.88, "elevation_start": 30.4, "elevation_end": 25.7, "quality": "measured", "structure": "normal", "chain_rank": 4, "cum_dist_start": 0.0, "cum_dist_end": 250.0, "anomaly": false}, "geometry": {"type": "LineString", "coordinates": [[139.8559825, 35.1948061], [139.85622972703987, 35.19490403853401], [139.85647695407974, 35.195001977068024], [139.85672443868629, 35.1950994732267], [139.85697262068086, 35.195195771609086], [139.85721895050278, 35.195295206689615], [139.85746476915762, 35.19539550744369], [139.8577055681619, 35.19550359421174], [139.85794484037885, 35.19561404918989], [139.85818411259584, 35.19572450416804], [139.85842065002723, 35.19583885336478]]}}]}